{
"type": "FeatureCollection",
"name": "bassin_hem",
"crs": { "type": "name", "properties": { "name": "urn:ogc:def:crs:OGC:1.3:CRS84" } },
"features": [
{ "type": "Feature", "properties": { "fid": 1, "id": null }, "geometry": { "type": "MultiPolygon", "coordinates": [ [ [ [ 1.886347507303935, 50.799315194200439 ], [ 1.892219030301335, 50.798965421119647 ], [ 1.897400732208548, 50.7991706512246 ], [ 1.902668998303543, 50.800615621325576 ], [ 1.906663860647627, 50.802303680580316 ], [ 1.910081013574744, 50.802997811865524 ], [ 1.913402656542597, 50.803443574697987 ], [ 1.916324377091879, 50.804879545528557 ], [ 1.919344631388255, 50.806253806909403 ], [ 1.923157819131185, 50.806453093129171 ], [ 1.926588836594469, 50.805597241201326 ], [ 1.929436033347118, 50.804367396278302 ], [ 1.932575985360506, 50.803200461741028 ], [ 1.935226227876241, 50.802093771535787 ], [ 1.937286923515126, 50.801294951693322 ], [ 1.939829862711264, 50.801303478492791 ], [ 1.942859782146125, 50.801561496173683 ], [ 1.945899894072628, 50.800579825213873 ], [ 1.948547159665421, 50.79978273957407 ], [ 1.950304085810215, 50.800222346231699 ], [ 1.952359952218366, 50.799981090085517 ], [ 1.955791466350491, 50.798938450409615 ], [ 1.960495678516587, 50.797713804454446 ], [ 1.965102336719929, 50.796426684618531 ], [ 1.968631589039395, 50.795321997464043 ], [ 1.971959406913303, 50.79496037499856 ], [ 1.974886601103443, 50.795837085717807 ], [ 1.976834069508131, 50.79695868667028 ], [ 1.978387638628379, 50.798450959730545 ], [ 1.97993434798595, 50.800872922270408 ], [ 1.981382942589694, 50.803356549280018 ], [ 1.983913156546909, 50.805099590246201 ], [ 1.987718806614778, 50.806350475776739 ], [ 1.991621577311165, 50.807725483999491 ], [ 1.9944516494132, 50.808663402711147 ], [ 1.99757838777148, 50.809168228751972 ], [ 2.004128562071255, 50.809744592755202 ], [ 2.010682710230507, 50.809762771198137 ], [ 2.014108199022014, 50.809524201624455 ], [ 2.015845730176246, 50.809499158998584 ], [ 2.017512527297002, 50.809284980697058 ], [ 2.018664481635389, 50.809288072280836 ], [ 2.019310725651356, 50.81001969775653 ], [ 2.020857284885399, 50.810944125473526 ], [ 2.022907706308608, 50.811425581336437 ], [ 2.025061457407157, 50.811431254469689 ], [ 2.027066596760705, 50.811182624572538 ], [ 2.03217547069673, 50.811195839640895 ], [ 2.034975923419843, 50.811901150436334 ], [ 2.036972048674703, 50.81308038453809 ], [ 2.036972048674703, 50.81308038453809 ], [ 2.036508852744984, 50.815046753042154 ], [ 2.0355989918387, 50.816345562173794 ], [ 2.03613779766392, 50.818282728215799 ], [ 2.037981344838396, 50.819874101049756 ], [ 2.039073944312839, 50.821400094827922 ], [ 2.039812951813312, 50.823401208345409 ], [ 2.041503171695124, 50.825531620446938 ], [ 2.044294668870868, 50.827855127839328 ], [ 2.047137895307042, 50.829956552770433 ], [ 2.049934320311995, 50.83155004717716 ], [ 2.053933009421333, 50.833241545104606 ], [ 2.058231981030268, 50.834780890560047 ], [ 2.060811058144266, 50.836293782488575 ], [ 2.060995330633439, 50.838277587349303 ], [ 2.058829271074781, 50.840441855179925 ], [ 2.056074574765313, 50.842790633053717 ], [ 2.055569749564083, 50.845392611774308 ], [ 2.057808297950124, 50.847629176118616 ], [ 2.06210808004158, 50.849002756338351 ], [ 2.069053682483225, 50.850010290334815 ], [ 2.076288555337645, 50.851885771878862 ], [ 2.081760221809987, 50.854004958504376 ], [ 2.088317890063505, 50.854514691182224 ], [ 2.094579426511421, 50.855519297076611 ], [ 2.09808922500898, 50.858563405697417 ], [ 2.100706112574195, 50.864022833754206 ], [ 2.104394650393894, 50.870785849227133 ], [ 2.107410747138876, 50.875006287489896 ], [ 2.108631906360217, 50.876840996872794 ], [ 2.109801878694361, 50.878610495038735 ], [ 2.111060281737845, 50.880159240736489 ], [ 2.112407888103276, 50.881321553191619 ], [ 2.113928865560172, 50.882760307861147 ], [ 2.114968868773064, 50.884391438175136 ], [ 2.115747410105572, 50.885939231993234 ], [ 2.11775099431572, 50.886909404687955 ], [ 2.119148801159751, 50.886718679399493 ], [ 2.119896076014736, 50.885587901717663 ], [ 2.121386517769665, 50.884209948167168 ], [ 2.122658498562713, 50.882859194917643 ], [ 2.123582082598793, 50.88131450932886 ], [ 2.124593024549283, 50.879742357907311 ], [ 2.125865285042736, 50.878281114158561 ], [ 2.125865285042736, 50.878281114158561 ], [ 2.126611414264285, 50.8773435809048 ], [ 2.127055900528321, 50.875521881150945 ], [ 2.127723172992454, 50.872651258416361 ], [ 2.128559841629561, 50.870940691512963 ], [ 2.129086607952657, 50.870508687285984 ], [ 2.129428795761482, 50.870269966067632 ], [ 2.129718137505451, 50.870053265436347 ], [ 2.130494922736884, 50.869914288364228 ], [ 2.132377812624724, 50.869777703652709 ], [ 2.137699550673526, 50.86992706892017 ], [ 2.145018055679856, 50.869868944048093 ], [ 2.147995223512583, 50.867516251243138 ], [ 2.14771691732873, 50.863611114160861 ], [ 2.147729479708081, 50.86045018443987 ], [ 2.148723212802838, 50.856794969965343 ], [ 2.150501066065081, 50.852893053360873 ], [ 2.150709010203413, 50.849794389850629 ], [ 2.149643015113899, 50.847003618916702 ], [ 2.148382828178899, 50.843840645278711 ], [ 2.147319322824182, 50.840492025660957 ], [ 2.147136391845893, 50.837268760468682 ], [ 2.146641102294908, 50.83564271113837 ], [ 2.143775788746969, 50.834910605270856 ], [ 2.139960609363498, 50.833797388347392 ], [ 2.136209137518505, 50.832971143684937 ], [ 2.13252182988954, 50.83230888373766 ], [ 2.129482174895553, 50.83160664347502 ], [ 2.127028124578993, 50.830249387706459 ], [ 2.126127652502788, 50.829143420248315 ], [ 2.126001434571708, 50.828197650222769 ], [ 2.125489577996486, 50.826843792362851 ], [ 2.124005535979476, 50.825775181805795 ], [ 2.121549903091719, 50.82486878824097 ], [ 2.118966035064282, 50.823716116995278 ], [ 2.116189826349559, 50.82219404433102 ], [ 2.112832065495113, 50.820506815039415 ], [ 2.109344319564818, 50.818983234494212 ], [ 2.104886626896588, 50.817334662952511 ], [ 2.10094696582319, 50.815686952495319 ], [ 2.098819546921109, 50.814042756236276 ], [ 2.097533311614209, 50.812441217344343 ], [ 2.097799558859261, 50.810965795389279 ], [ 2.098259089878274, 50.809654755762899 ], [ 2.097356484175288, 50.808996956085224 ], [ 2.093414002110069, 50.808086961564094 ], [ 2.087210254945187, 50.806557117856563 ], [ 2.081782220069662, 50.80523361248931 ], [ 2.076871187292073, 50.804074987149235 ], [ 2.07286548485007, 50.803041171370438 ], [ 2.069181598683111, 50.802335938561562 ], [ 2.065176208649856, 50.801301862717438 ], [ 2.062081675754133, 50.799408779467214 ], [ 2.05976701198189, 50.796943446194078 ], [ 2.057780818521841, 50.79365884980335 ], [ 2.055733842043391, 50.789759078066041 ], [ 2.053810467558198, 50.78688454440767 ], [ 2.051751853759198, 50.785034638768728 ], [ 2.04910863761068, 50.783634274921781 ], [ 2.046590675556287, 50.782931150759424 ], [ 2.044071277891005, 50.782473967047949 ], [ 2.041355885260726, 50.781354592319957 ], [ 2.040002943426493, 50.780531222836416 ], [ 2.039360101820165, 50.779914617940754 ], [ 2.038665370033484, 50.778237541169759 ], [ 2.039130558092799, 50.776229720651848 ], [ 2.040695420906527, 50.774142645851285 ], [ 2.0428400316849, 50.772384985094455 ], [ 2.044915064496471, 50.771406111106238 ], [ 2.046018203247159, 50.770752821669731 ], [ 2.045698433407218, 50.77017803883323 ], [ 2.04434648716078, 50.769231715641794 ], [ 2.043061769708215, 50.767875543248877 ], [ 2.042878931215884, 50.766071090774787 ], [ 2.043476139006116, 50.763571566484373 ], [ 2.042976653803848, 50.760700323154644 ], [ 2.040084387547202, 50.758028112375726 ], [ 2.03589331081855, 50.7563775449593 ], [ 2.031438746451312, 50.755546155120172 ], [ 2.027369209273725, 50.755166605842007 ], [ 2.02407076310444, 50.755485957596456 ], [ 2.021547070016057, 50.7559302803162 ], [ 2.021547070016057, 50.7559302803162 ], [ 2.020126203635396, 50.755762494345937 ], [ 2.018903344814176, 50.754980217466631 ], [ 2.016651364907383, 50.753457148027451 ], [ 2.013759066561542, 50.751071283363146 ], [ 2.010932241129944, 50.748603523246963 ], [ 2.008232974379953, 50.746423048921343 ], [ 2.006693117145502, 50.744819750997657 ], [ 2.007606832658055, 50.743510271765643 ], [ 2.0090393938382, 50.741915215364891 ], [ 2.009440016684821, 50.740030291508091 ], [ 2.008162153417539, 50.737935720745561 ], [ 2.005396447361207, 50.736123989932139 ], [ 2.003213541592431, 50.734149830047464 ], [ 2.001743452918502, 50.731890637673281 ], [ 1.999949931418241, 50.729712507288227 ], [ 1.997123914721586, 50.727408390039479 ], [ 1.99365224495465, 50.725102334739461 ], [ 1.991722466514371, 50.723989704271645 ], [ 1.990437483873582, 50.723042931606692 ], [ 1.988969235613653, 50.720660566392198 ], [ 1.988020194607308, 50.717951698463217 ], [ 1.986418854144283, 50.716142920534431 ], [ 1.983515464917722, 50.715765291024226 ], [ 1.980669060617738, 50.716412793966455 ], [ 1.978402275962789, 50.71726698890766 ], [ 1.975688287476816, 50.717463758629599 ], [ 1.974141117075233, 50.717090023809661 ], [ 1.973567051684474, 50.716145236211524 ], [ 1.97222212708672, 50.714665059421449 ], [ 1.970814279577923, 50.712979664731542 ], [ 1.969923121621321, 50.71129585191909 ], [ 1.969160223122778, 50.709735432989277 ], [ 1.968012804620641, 50.70780479824289 ], [ 1.965509901561644, 50.705828909728567 ], [ 1.961907049080251, 50.704177504128083 ], [ 1.958075724725511, 50.702762781812105 ], [ 1.955932801679746, 50.702200455519424 ], [ 1.954850947663546, 50.703699980915736 ], [ 1.9534603618202, 50.706133413715158 ], [ 1.95070197975442, 50.708127037202345 ], [ 1.947466605599952, 50.709371590025988 ], [ 1.945337344416345, 50.710199084915189 ], [ 1.939558690061323, 50.712530707777645 ], [ 1.935983127778398, 50.713737629188365 ], [ 1.934610343684144, 50.713907116392498 ], [ 1.932628011190927, 50.71458119092015 ], [ 1.931303868769583, 50.715109841841297 ], [ 1.928335361123825, 50.716191385508132 ], [ 1.927129573674714, 50.716898121539664 ], [ 1.925887252876835, 50.71719849209682 ], [ 1.923998044377765, 50.718309051859968 ], [ 1.923034070778288, 50.718788085313896 ], [ 1.92199185644133, 50.719063724081501 ], [ 1.920593015859396, 50.718957265247226 ], [ 1.91947346005722, 50.718927940706529 ], [ 1.91947346005722, 50.718927940706529 ], [ 1.918870470833175, 50.719281264738925 ], [ 1.916862822464359, 50.720188179939726 ], [ 1.916862822464359, 50.720188179939726 ], [ 1.915423743544188, 50.720106906938312 ], [ 1.913506778527649, 50.719795409077093 ], [ 1.911712752054861, 50.719154261942073 ], [ 1.911712752054861, 50.719154261942073 ], [ 1.909078039962403, 50.718611614190721 ], [ 1.908674483155925, 50.7190163843457 ], [ 1.908587673567664, 50.71977774560856 ], [ 1.908497220094493, 50.720945319574703 ], [ 1.909083717004713, 50.722445395058642 ], [ 1.909792281384003, 50.723717404061794 ], [ 1.909662760771776, 50.724783279305328 ], [ 1.909011671904514, 50.726024996872724 ], [ 1.90815577092906, 50.727799139973214 ], [ 1.90774095639411, 50.729447926925609 ], [ 1.90776955724559, 50.730717480940328 ], [ 1.907316983376239, 50.732112237486405 ], [ 1.90618660057541, 50.733250642683394 ], [ 1.904417923714465, 50.73418359974341 ], [ 1.90228982098231, 50.735039047206193 ], [ 1.899842754009397, 50.735766337061328 ], [ 1.897716365957475, 50.736418597157559 ], [ 1.896912493395901, 50.736821841716619 ], [ 1.895869501119789, 50.737122636421446 ], [ 1.893946097056036, 50.737445527178537 ], [ 1.891344903665618, 50.737511954051726 ], [ 1.888544380113979, 50.737501404042874 ], [ 1.886305398768885, 50.737340588232364 ], [ 1.884109567451117, 50.736849838328929 ], [ 1.884109567451117, 50.736849838328929 ], [ 1.881627446048418, 50.73701806249538 ], [ 1.880178213294726, 50.737951884173825 ], [ 1.878488141578915, 50.738960924489476 ], [ 1.877560864030502, 50.73969361760394 ], [ 1.877591110415272, 50.740709291845185 ], [ 1.877940470262686, 50.741827755855859 ], [ 1.877731142652815, 50.742791724170111 ], [ 1.876843302697896, 50.743575340821501 ], [ 1.875756593148744, 50.744231233575555 ], [ 1.874029636110489, 50.744884620652414 ], [ 1.871784178324147, 50.745358229397489 ], [ 1.870138395662626, 50.745884933660278 ], [ 1.869369673627241, 50.746745128817366 ], [ 1.868601421700675, 50.747554542864165 ], [ 1.866955778123793, 50.748055814523518 ], [ 1.864951706028185, 50.748377916681541 ], [ 1.863027892299024, 50.748674916722926 ], [ 1.861503719160424, 50.749024264840195 ], [ 1.860339679575166, 50.749375040071314 ], [ 1.858893467246326, 50.74992777840189 ], [ 1.856602754285533, 50.750883305728138 ], [ 1.854431238514728, 50.751915439771103 ], [ 1.853500771620754, 50.752901817260152 ], [ 1.853089768752836, 50.753966471968994 ], [ 1.852198483293064, 50.755029164420769 ], [ 1.850828175173748, 50.755962945288395 ], [ 1.849299015149247, 50.756769113889888 ], [ 1.847291595960967, 50.757370180991138 ], [ 1.84532571857247, 50.757819053728547 ], [ 1.844360945568454, 50.758221274509097 ], [ 1.843997579431705, 50.75852443118437 ], [ 1.843993125168266, 50.758956021237481 ], [ 1.844308090420917, 50.759465103252694 ], [ 1.844260732113597, 50.760175790948452 ], [ 1.843849460847468, 50.761240409342726 ], [ 1.843556419635229, 50.762483237943592 ], [ 1.843700276621599, 50.764057933478526 ], [ 1.843605793673744, 50.765453916867031 ], [ 1.843034861073216, 50.766467088800781 ], [ 1.842742292080215, 50.767659136703294 ], [ 1.843047323676043, 50.769132944807325 ], [ 1.843992148504511, 50.770685574183226 ], [ 1.845295794062915, 50.7723920117826 ], [ 1.846360609105122, 50.773970504113031 ], [ 1.846793989148477, 50.774657783374828 ], [ 1.847188384277089, 50.775243345995094 ], [ 1.848058323196421, 50.776313246773917 ], [ 1.848687537413012, 50.777432927896292 ], [ 1.848635552628947, 50.778600582983557 ], [ 1.848702135732057, 50.779921055308698 ], [ 1.850085772359403, 50.78167853530028 ], [ 1.852230123647106, 50.783464492119883 ], [ 1.855456828563507, 50.785818878309293 ], [ 1.859833213100397, 50.788065172351352 ], [ 1.862543727111413, 50.789370829637974 ], [ 1.864653359080001, 50.790699424428823 ], [ 1.866844214783294, 50.791926748896437 ], [ 1.868959804779195, 50.792671359532704 ], [ 1.871314052485486, 50.793594584833336 ], [ 1.873746530416287, 50.794721172974832 ], [ 1.875975898948052, 50.796151579912539 ], [ 1.877765986940521, 50.797453305918943 ], [ 1.88060567034901, 50.798612859660984 ], [ 1.886347507303935, 50.799315194200439 ] ] ] ] } }
]
}
