{
"type": "FeatureCollection",
"name": "Geologie",
"crs": { "type": "name", "properties": { "name": "urn:ogc:def:crs:OGC:1.3:CRS84" } },
"features": [
{ "type": "Feature", "properties": { "fid": 20, "MI_PRINX": 3191371.0, "CARTE": 917, "CODE": 24, "CODE_LEG": 24, "NOTATION": "Fz", "DESCR": "Alluvions récentes, Holocène", "C_FOND": 10, "M_FOND": 0, "J_FOND": 0, "N_FOND": 0, "NOM_SYMB": null, "C_SYMB": -1, "M_SYMB": -1, "J_SYMB": -1, "N_SYMB": -1, "ROT_SYMB": 0 }, "geometry": { "type": "MultiPolygon", "coordinates": [ [ [ [ 2.104394650393894, 50.870785849227133 ], [ 2.106513600832407, 50.873750991484179 ], [ 2.1065272387453, 50.873524483623505 ], [ 2.106526157602897, 50.872841201573387 ], [ 2.106799148432485, 50.871730704352821 ], [ 2.107209711878813, 50.870899332134364 ], [ 2.107430737935413, 50.870602038206343 ], [ 2.107733997589237, 50.870295032091427 ], [ 2.108180761935471, 50.86990489703421 ], [ 2.108634324253568, 50.869575748115587 ], [ 2.108996481389335, 50.869400661482622 ], [ 2.109606853807371, 50.869174917179286 ], [ 2.110849454482236, 50.868899212142829 ], [ 2.111281815101089, 50.86886413163203 ], [ 2.111771915952812, 50.868908063922554 ], [ 2.112369449372197, 50.86901047424098 ], [ 2.11371989533856, 50.869327653182999 ], [ 2.114098031420211, 50.869376754870501 ], [ 2.114481956979526, 50.869398964857204 ], [ 2.115199095361338, 50.869376038283868 ], [ 2.11563156495114, 50.869316732010866 ], [ 2.117293080446852, 50.868834572173775 ], [ 2.118719887525484, 50.868549250781811 ], [ 2.11956622059948, 50.868467344143561 ], [ 2.121441071462041, 50.868442818583425 ], [ 2.121980812005691, 50.868477829873363 ], [ 2.122507621915783, 50.868554064589993 ], [ 2.12306929931968, 50.868760378454276 ], [ 2.123915714907306, 50.868988699899397 ], [ 2.125017268710028, 50.869203104591321 ], [ 2.125578084961079, 50.869282971081454 ], [ 2.1261759367528, 50.869318063107784 ], [ 2.12719921273063, 50.86928124002258 ], [ 2.128391628576651, 50.86912274220748 ], [ 2.12869664001088, 50.869040758596348 ], [ 2.129221817410235, 50.868833605510837 ], [ 2.129633571514081, 50.868639711059117 ], [ 2.131794998181341, 50.867162855410157 ], [ 2.132085045064212, 50.866925709369319 ], [ 2.132319801115497, 50.866694748250168 ], [ 2.132533293007642, 50.866465544963241 ], [ 2.132822807328466, 50.866011394354672 ], [ 2.133055274480707, 50.865300692132635 ], [ 2.133110336499227, 50.865003974081155 ], [ 2.133308105037585, 50.864460000190391 ], [ 2.133506386163606, 50.864135718909587 ], [ 2.133846281120235, 50.863829603294654 ], [ 2.134151760092394, 50.863622964555915 ], [ 2.134817589191161, 50.863303031441795 ], [ 2.135250164673646, 50.863198821377125 ], [ 2.136060391666003, 50.86325662916466 ], [ 2.136550368666435, 50.863322881518855 ], [ 2.138049624018158, 50.863631071934357 ], [ 2.139259575173138, 50.864007829360339 ], [ 2.140957787781443, 50.86417641559482 ], [ 2.142450787778809, 50.864286371075472 ], [ 2.143188953222109, 50.864299183987974 ], [ 2.144077454551899, 50.864275461624231 ], [ 2.14436922004354, 50.864306403070586 ], [ 2.145356108988668, 50.864489066102884 ], [ 2.14582644275362, 50.86451131289504 ], [ 2.147766402555607, 50.864305527426481 ], [ 2.14771691732873, 50.863611114160861 ], [ 2.147717018298521, 50.863585709927534 ], [ 2.147647900623645, 50.863582432210499 ], [ 2.146958296372248, 50.86347108271471 ], [ 2.146477121811928, 50.863322388159993 ], [ 2.145351067264339, 50.862857953300058 ], [ 2.145066588045094, 50.862776809858062 ], [ 2.144433675359473, 50.862665533915177 ], [ 2.144095180333867, 50.862630036323381 ], [ 2.14374543810273, 50.86257210263723 ], [ 2.143111373129946, 50.862394461879056 ], [ 2.142805878758367, 50.862254097731487 ], [ 2.142478095764386, 50.862016853548276 ], [ 2.142029456659917, 50.861527443804228 ], [ 2.141772897031536, 50.861195258454373 ], [ 2.141557643646963, 50.860808438322415 ], [ 2.140775729920816, 50.858971639581831 ], [ 2.140519869246936, 50.858468179662523 ], [ 2.139272024153433, 50.856609104794309 ], [ 2.139020978493794, 50.856326239373303 ], [ 2.138786685371928, 50.856106170108788 ], [ 2.138352478623788, 50.855927029101153 ], [ 2.134541945671522, 50.854799971934334 ], [ 2.132641144555072, 50.853683131483784 ], [ 2.132066552358543, 50.853548572242971 ], [ 2.13150430101435, 50.853513566460251 ], [ 2.130331901045362, 50.853379800443705 ], [ 2.129720408530549, 50.8532639998486 ], [ 2.128271742135821, 50.85313961610148 ], [ 2.12525776660382, 50.853008965566239 ], [ 2.124520998170044, 50.853040883905905 ], [ 2.123514067035095, 50.853307273327516 ], [ 2.123094418195874, 50.853384564658668 ], [ 2.121957144560622, 50.853650716443589 ], [ 2.121440908078111, 50.853786121290256 ], [ 2.121171549355513, 50.853832282110496 ], [ 2.120716598073513, 50.85388170566366 ], [ 2.120269002753874, 50.853868370160946 ], [ 2.11984987710033, 50.853823697775006 ], [ 2.119331781894573, 50.853734911112689 ], [ 2.118862132687603, 50.853582540511049 ], [ 2.118426563675176, 50.853412293798044 ], [ 2.117630913747618, 50.852981360587982 ], [ 2.116457063983934, 50.852227827525375 ], [ 2.116151743119611, 50.852079325321384 ], [ 2.115405053680347, 50.851796423049912 ], [ 2.113408127127691, 50.851385727255582 ], [ 2.112931354679712, 50.851251255213683 ], [ 2.112576366326875, 50.851125968985656 ], [ 2.111759206250403, 50.850772075735144 ], [ 2.111325469163799, 50.850521101638584 ], [ 2.110912040839265, 50.850166143103387 ], [ 2.110405947298224, 50.849631668999862 ], [ 2.108385162963162, 50.84827659601121 ], [ 2.10773091262165, 50.847935529044271 ], [ 2.106451139668498, 50.847478516035295 ], [ 2.105129420624734, 50.846909320146501 ], [ 2.104773343018386, 50.846724824666097 ], [ 2.104447096459888, 50.846522449501371 ], [ 2.102838023612049, 50.845324978714572 ], [ 2.101934121452531, 50.844479445449096 ], [ 2.101591665309367, 50.844116516486146 ], [ 2.101279948044331, 50.843843317973146 ], [ 2.100923725451227, 50.843398758027917 ], [ 2.100831062471844, 50.843227305718678 ], [ 2.100758059530265, 50.842495432687912 ], [ 2.100789525939179, 50.841834599897851 ], [ 2.1007550397613, 50.841640839594255 ], [ 2.100670809980424, 50.84148375054194 ], [ 2.100643994842023, 50.841463971266954 ], [ 2.10019371176702, 50.841147461430346 ], [ 2.099851727795278, 50.840989879151422 ], [ 2.099474571334378, 50.840783804797283 ], [ 2.098693621678095, 50.840316900350132 ], [ 2.098118027489192, 50.840147206287511 ], [ 2.097377939901282, 50.840022028542734 ], [ 2.09654782554703, 50.839771128633643 ], [ 2.095501868054377, 50.839349422728397 ], [ 2.095196793422961, 50.839179344718147 ], [ 2.094577248762592, 50.83873424955722 ], [ 2.093944846872593, 50.838024587739071 ], [ 2.093622872670517, 50.837548684117692 ], [ 2.093458918616104, 50.837194149792246 ], [ 2.093458451366419, 50.837000452914701 ], [ 2.093514157335302, 50.836614066986535 ], [ 2.09352899925801, 50.836475101236701 ], [ 2.093493128947424, 50.836281334628438 ], [ 2.093385142957505, 50.836065904466125 ], [ 2.093165461967035, 50.835814384827529 ], [ 2.092951161432406, 50.835621163559964 ], [ 2.091472440375914, 50.834822832824962 ], [ 2.091196021178828, 50.834593615435729 ], [ 2.090961003014794, 50.83429722370154 ], [ 2.090839719820248, 50.833910486050776 ], [ 2.090852695286053, 50.833577819415943 ], [ 2.090908719591537, 50.833416516479147 ], [ 2.090958155990506, 50.833155661632524 ], [ 2.090922915004471, 50.832837246865154 ], [ 2.090799496373256, 50.832310611612293 ], [ 2.090706884467625, 50.832140045727378 ], [ 2.090144850515143, 50.831830446780394 ], [ 2.089860794705313, 50.831717787379255 ], [ 2.089514901335153, 50.831511742092836 ], [ 2.08931393562186, 50.831206446359488 ], [ 2.089262800360147, 50.830954357846416 ], [ 2.08924037842821, 50.830339143160664 ], [ 2.089152497160518, 50.830073529589022 ], [ 2.088934568537586, 50.829480341785846 ], [ 2.089002192004253, 50.828980986816383 ], [ 2.089129687102365, 50.828684417084759 ], [ 2.089292198138193, 50.828464140991606 ], [ 2.089526940079963, 50.828239525078658 ], [ 2.090029823932325, 50.827906039360826 ], [ 2.090263892458217, 50.827815933465125 ], [ 2.090752998499901, 50.827689567150941 ], [ 2.091307121014372, 50.827585746599894 ], [ 2.09190342974913, 50.827540295933346 ], [ 2.094337793081528, 50.827443752337935 ], [ 2.094841669085147, 50.827479711094966 ], [ 2.096140839236734, 50.827604200726569 ], [ 2.096503521909623, 50.827559170536247 ], [ 2.096644303631366, 50.827433001438244 ], [ 2.096645023197239, 50.827284141819213 ], [ 2.096467054794156, 50.827195018027062 ], [ 2.096106290204616, 50.8271369252233 ], [ 2.095295216377687, 50.827092302157467 ], [ 2.094250918519214, 50.826967406192523 ], [ 2.093797216770636, 50.826805997915834 ], [ 2.092715866786473, 50.826155518147516 ], [ 2.092297219857586, 50.826065913651156 ], [ 2.091936225248431, 50.826057129674012 ], [ 2.091382143208093, 50.826156469533657 ], [ 2.090963210269311, 50.826125149036478 ], [ 2.090622681230577, 50.825986372383632 ], [ 2.090478894557068, 50.825859644022835 ], [ 2.090351407559278, 50.825586776755031 ], [ 2.090442341930251, 50.825236326132632 ], [ 2.09072488691551, 50.824503340983817 ], [ 2.090780444712669, 50.824148335491302 ], [ 2.090758684984203, 50.823968043989424 ], [ 2.090673278569652, 50.823775071354184 ], [ 2.090545422526562, 50.823577530415506 ], [ 2.090039706614649, 50.823065371447953 ], [ 2.089571373388366, 50.822724565709841 ], [ 2.087289621266046, 50.821512950489861 ], [ 2.087004557691455, 50.821332126855182 ], [ 2.08684226800498, 50.821229568618079 ], [ 2.086500571518712, 50.8210504229516 ], [ 2.085889876972963, 50.820875215401209 ], [ 2.085655097303929, 50.820830798178797 ], [ 2.084497747041591, 50.820696621759552 ], [ 2.083632052672082, 50.820558547246101 ], [ 2.082876999947383, 50.820378545711499 ], [ 2.080563723375059, 50.819567591035607 ], [ 2.079826398428588, 50.819249505626928 ], [ 2.079576180634744, 50.819181728864677 ], [ 2.078958008635462, 50.819092560489153 ], [ 2.078489577570348, 50.819064681417366 ], [ 2.078113409749825, 50.818989464802108 ], [ 2.077772848488158, 50.818873070333723 ], [ 2.077551766284384, 50.818648416504431 ], [ 2.077231630180756, 50.818145557310331 ], [ 2.076961265909889, 50.817871476745218 ], [ 2.076598347342292, 50.817701225954536 ], [ 2.073587625903372, 50.816583769240076 ], [ 2.073075972260024, 50.816436507551863 ], [ 2.071963307649294, 50.815911317122492 ], [ 2.07178274125051, 50.815794350893704 ], [ 2.071512539397402, 50.815497838547081 ], [ 2.071469448165884, 50.815349779266313 ], [ 2.071703974524878, 50.814903690119237 ], [ 2.07181658327506, 50.814756860799328 ], [ 2.071851343960023, 50.814608968050209 ], [ 2.071794107152957, 50.814459084886799 ], [ 2.071546172548818, 50.814235258131866 ], [ 2.071311753113212, 50.814131627126606 ], [ 2.0710220782815, 50.814037741571056 ], [ 2.070529895513129, 50.813961355501419 ], [ 2.067951186900682, 50.81337915983282 ], [ 2.067106216700418, 50.813105600517524 ], [ 2.066689262864994, 50.812993491971241 ], [ 2.066256521382703, 50.812921702295611 ], [ 2.065702023637805, 50.812855025263154 ], [ 2.065304714909635, 50.812775238849447 ], [ 2.064709231221355, 50.812697706219652 ], [ 2.062145328961894, 50.812277737148285 ], [ 2.061755365672914, 50.812151323316648 ], [ 2.061244070939669, 50.811953793148312 ], [ 2.060455309936007, 50.811509925666421 ], [ 2.059658661136295, 50.811214003159833 ], [ 2.058254940766693, 50.810895188822599 ], [ 2.05753004583408, 50.810680123563813 ], [ 2.056308810699327, 50.810384117695939 ], [ 2.056088513790302, 50.81029483765294 ], [ 2.055023449028578, 50.809917566095571 ], [ 2.053852963756362, 50.809414495431724 ], [ 2.053604649633488, 50.809275824020148 ], [ 2.050785384103978, 50.808022822015637 ], [ 2.049739397190905, 50.807543314735902 ], [ 2.048790102829517, 50.807233514802782 ], [ 2.048661545934566, 50.807192860606094 ], [ 2.046873463009436, 50.806803071335601 ], [ 2.046169900523158, 50.806588884896961 ], [ 2.045609642319232, 50.806314050237589 ], [ 2.045372746448251, 50.806165523879407 ], [ 2.044856560681013, 50.80561727050042 ], [ 2.044529340679025, 50.805186042551888 ], [ 2.043882784940829, 50.804669760780385 ], [ 2.043576742052499, 50.804489679564831 ], [ 2.042316724425186, 50.803851765676932 ], [ 2.042092315666627, 50.80374899824681 ], [ 2.041340255446224, 50.803371452805834 ], [ 2.040559550786404, 50.8030530219784 ], [ 2.040219052581844, 50.802958941121467 ], [ 2.039501566226113, 50.802720468873538 ], [ 2.035499145492007, 50.801603261925003 ], [ 2.034398897557934, 50.801249935449526 ], [ 2.033312608291735, 50.800930711220005 ], [ 2.032937012833157, 50.800795271656305 ], [ 2.032305440933002, 50.800634091632624 ], [ 2.031836531461777, 50.800485864111266 ], [ 2.030757987647519, 50.800293083654871 ], [ 2.030253211491349, 50.800225472588544 ], [ 2.026464142550825, 50.799678856815056 ], [ 2.02477519134131, 50.799347283573503 ], [ 2.02401659146327, 50.799140901127238 ], [ 2.023761037246169, 50.799049679320326 ], [ 2.023143520574011, 50.798911804251851 ], [ 2.02219919527588, 50.798763231514158 ], [ 2.021298508498709, 50.798651531255253 ], [ 2.020581871421021, 50.798525945853328 ], [ 2.020148535159085, 50.798355344546955 ], [ 2.019715573481209, 50.798126451026796 ], [ 2.018771047879883, 50.797349198378868 ], [ 2.01777870131184, 50.796310846681422 ], [ 2.017346488239918, 50.795969846467152 ], [ 2.017059971777683, 50.795857007353163 ], [ 2.016663459566802, 50.795686488203437 ], [ 2.015846397791641, 50.795124771361351 ], [ 2.014860798947736, 50.794590411328478 ], [ 2.014300255417566, 50.794406902499993 ], [ 2.012497406681825, 50.794005808604673 ], [ 2.012086096760119, 50.793939264312655 ], [ 2.011652477785062, 50.793822439273669 ], [ 2.011305198846689, 50.793701355680831 ], [ 2.01058897816058, 50.793311156340373 ], [ 2.010248077226296, 50.793081573575229 ], [ 2.009757556777291, 50.792797786627638 ], [ 2.008999220210208, 50.792146496887192 ], [ 2.008764589881318, 50.791895667647992 ], [ 2.008444840820488, 50.79167958748917 ], [ 2.007380100050722, 50.791153923105988 ], [ 2.006912679611346, 50.791019054925066 ], [ 2.006408273997423, 50.790914577602074 ], [ 2.006010943134637, 50.790878541411722 ], [ 2.005252781400281, 50.790849609537425 ], [ 2.004876380905686, 50.790857569148486 ], [ 2.004494135331208, 50.79089331285725 ], [ 2.003649746132349, 50.791064127033621 ], [ 2.00327309124347, 50.791109746858538 ], [ 2.002585325218287, 50.791132106107192 ], [ 2.002103160409131, 50.791087757162359 ], [ 2.001612906325359, 50.79098419537312 ], [ 2.00125140245531, 50.790880980590579 ], [ 2.000981868927955, 50.790777117394576 ], [ 2.000243523841841, 50.79053835634425 ], [ 1.99947019895393, 50.790242996784414 ], [ 1.99901704773876, 50.790094685376317 ], [ 1.998151324315066, 50.78986542889411 ], [ 1.997576203491286, 50.789761618772303 ], [ 1.99537663531091, 50.789488325102802 ], [ 1.994533575473281, 50.789259105577585 ], [ 1.99393730332559, 50.789147148718499 ], [ 1.993397970972071, 50.788985125699071 ], [ 1.991489212538606, 50.788607642299105 ], [ 1.991035451800821, 50.788552567578684 ], [ 1.989936190735392, 50.788346814516757 ], [ 1.989219624370508, 50.788243465808755 ], [ 1.988390246307503, 50.788087780670999 ], [ 1.98682298980924, 50.787843912924451 ], [ 1.986475017304987, 50.787835754443257 ], [ 1.985850049357427, 50.787785556998728 ], [ 1.985231178797286, 50.787673493879637 ], [ 1.984481319967048, 50.787479445353597 ], [ 1.983057160314461, 50.787012631079541 ], [ 1.982855591291159, 50.786908921888191 ], [ 1.982644605337369, 50.786737027822618 ], [ 1.98256652518825, 50.786576275374003 ], [ 1.98254963096936, 50.78616728123616 ], [ 1.982587619228815, 50.785997892570521 ], [ 1.98276635508468, 50.785731153891 ], [ 1.982998163809391, 50.785560525410702 ], [ 1.983650932647053, 50.785277202667572 ], [ 1.983934544060749, 50.785182052328885 ], [ 1.984246657059956, 50.785057387675231 ], [ 1.985033397298248, 50.784831834909504 ], [ 1.985416332277089, 50.784693916257417 ], [ 1.985849333948795, 50.78447721876401 ], [ 1.986155167189031, 50.784238636096404 ], [ 1.986461344773139, 50.783950728813316 ], [ 1.986693542701225, 50.783721801230456 ], [ 1.986891851056898, 50.783483809226887 ], [ 1.987217833366576, 50.782993275580225 ], [ 1.987304063002452, 50.782800703755505 ], [ 1.987543960322984, 50.78248121758083 ], [ 1.987735853669642, 50.782148143228454 ], [ 1.987849780326248, 50.781838165931518 ], [ 1.987885245145459, 50.781622133067259 ], [ 1.987884805531773, 50.781281341357861 ], [ 1.987848694482288, 50.780984393009639 ], [ 1.987685938345514, 50.780391137451275 ], [ 1.987089739355996, 50.779078305001462 ], [ 1.98705463313218, 50.778840548456245 ], [ 1.987055241828493, 50.77855267076081 ], [ 1.987160740774714, 50.778233700490652 ], [ 1.987705412623295, 50.777010178819339 ], [ 1.987684134497744, 50.776817301897935 ], [ 1.987429300672137, 50.776246203302613 ], [ 1.987216529175968, 50.775527246437079 ], [ 1.987272360308619, 50.775230555065328 ], [ 1.987378792964165, 50.774978847658929 ], [ 1.98755609335349, 50.774705816217619 ], [ 1.987775834792085, 50.774431110441917 ], [ 1.987951735576217, 50.774155383806963 ], [ 1.988080942625408, 50.773882215765646 ], [ 1.988188002765556, 50.773539929428473 ], [ 1.98824366259267, 50.773266553831881 ], [ 1.988243947969911, 50.772619941698871 ], [ 1.988208198047964, 50.77207008503408 ], [ 1.988223005525409, 50.771773276256035 ], [ 1.988278663187484, 50.771499899953341 ], [ 1.98842069657825, 50.771211520547567 ], [ 1.988569385449114, 50.770982350399926 ], [ 1.988874833296113, 50.770380539066316 ], [ 1.989831377607058, 50.769090889312871 ], [ 1.989987443294561, 50.768815998996878 ], [ 1.990101169309249, 50.768528434119645 ], [ 1.990419410940813, 50.767912303453059 ], [ 1.990782741485795, 50.767318718389454 ], [ 1.990979731813271, 50.766851120940018 ], [ 1.991177850549975, 50.765813137981034 ], [ 1.991447284075254, 50.765093729715808 ], [ 1.992133577615986, 50.763803298478322 ], [ 1.992601551760013, 50.763201924576506 ], [ 1.992906396696338, 50.762878115850661 ], [ 1.993140898659324, 50.762706573866012 ], [ 1.993537538251963, 50.76219378474066 ], [ 1.993642250161823, 50.761977936331036 ], [ 1.993736050983085, 50.761703762790916 ], [ 1.993876452494838, 50.760822555660646 ], [ 1.993863160048695, 50.760494274149245 ], [ 1.993755931400409, 50.760276696818096 ], [ 1.993644555355537, 50.760149467750253 ], [ 1.993443617621026, 50.759919927023383 ], [ 1.993147267052069, 50.759530871117889 ], [ 1.993021535347684, 50.75910541729079 ], [ 1.992765465754631, 50.758512787400946 ], [ 1.992751800313167, 50.75744331872265 ], [ 1.992672097200894, 50.75668900484704 ], [ 1.993428384009591, 50.756232667270218 ], [ 1.993476008598225, 50.755861736100719 ], [ 1.992510500692949, 50.755498165484966 ], [ 1.991998747037244, 50.755183094001943 ], [ 1.991745357794904, 50.754988477775029 ], [ 1.990493194677056, 50.753648215883679 ], [ 1.990445154259041, 50.753440908456277 ], [ 1.990387210794533, 50.752828195534114 ], [ 1.990408282092976, 50.752644399525856 ], [ 1.990636036124123, 50.751810962441311 ], [ 1.990655848237435, 50.751604741228576 ], [ 1.99049494470512, 50.750754071809119 ], [ 1.989809034458431, 50.749371886924841 ], [ 1.989091834352248, 50.748427274923053 ], [ 1.988563979839445, 50.747902024255083 ], [ 1.988406861937077, 50.747729384770743 ], [ 1.988173078772386, 50.74760406262299 ], [ 1.988122059167279, 50.748026339928131 ], [ 1.988133200596643, 50.748655966618465 ], [ 1.988086734480642, 50.74903341319024 ], [ 1.988136332210078, 50.749420098885338 ], [ 1.988639792028863, 50.750605368238638 ], [ 1.988693508266432, 50.750808208919544 ], [ 1.988786702463714, 50.7518353707028 ], [ 1.988624105760243, 50.752646566471284 ], [ 1.988659636555129, 50.753024241828676 ], [ 1.988764247337587, 50.753429913742067 ], [ 1.989148761832856, 50.754447128266129 ], [ 1.990387356933514, 50.756464927679005 ], [ 1.990643481271358, 50.757044111751156 ], [ 1.990700143602232, 50.757638880322318 ], [ 1.990659287956267, 50.758024410316928 ], [ 1.990461603470407, 50.758799629330071 ], [ 1.990376754089899, 50.759004769508692 ], [ 1.990130339280778, 50.759466851640518 ], [ 1.990285184144958, 50.759565938287935 ], [ 1.990698378138231, 50.759926729353374 ], [ 1.99130268600637, 50.760459349746363 ], [ 1.991643593707212, 50.760643257172219 ], [ 1.991771486778099, 50.760755719251826 ], [ 1.991971633024894, 50.761052235368155 ], [ 1.991990465765883, 50.761191298490154 ], [ 1.991969638958947, 50.761340116344641 ], [ 1.991608649226247, 50.762216221448178 ], [ 1.991501784266283, 50.76233340954284 ], [ 1.991162268149535, 50.762558465739346 ], [ 1.990963802026765, 50.762630555398381 ], [ 1.990062972200833, 50.762845967050033 ], [ 1.989843168024332, 50.762935931919117 ], [ 1.989198968279483, 50.764064142551625 ], [ 1.989141809693382, 50.764351867338824 ], [ 1.989197807308578, 50.764635425662071 ], [ 1.989446633012451, 50.765048669876634 ], [ 1.989574376038176, 50.765183554023608 ], [ 1.989714802781219, 50.765324751446059 ], [ 1.989829839159258, 50.765456909124325 ], [ 1.989950953049388, 50.765731680812223 ], [ 1.989972603880994, 50.765871648058052 ], [ 1.989901337811794, 50.766154848729308 ], [ 1.989540114019273, 50.766851574221413 ], [ 1.989435724063767, 50.767422565372812 ], [ 1.989447643880874, 50.767740975158205 ], [ 1.989433871294593, 50.767890707856239 ], [ 1.989399179913014, 50.76820091510173 ], [ 1.989235991918902, 50.768482959590749 ], [ 1.989086776465955, 50.768586573173081 ], [ 1.988874235535657, 50.768645166898672 ], [ 1.987753705868089, 50.768712861808801 ], [ 1.98754126351521, 50.768757104188744 ], [ 1.987363602541847, 50.768883056227331 ], [ 1.987235437431587, 50.76900914778971 ], [ 1.98714404078825, 50.769135343074296 ], [ 1.986874617876192, 50.76984128561913 ], [ 1.986818538178695, 50.770173851647222 ], [ 1.98680341846532, 50.770312817771284 ], [ 1.98680379218076, 50.77046079598896 ], [ 1.986570653292853, 50.772641226605941 ], [ 1.986066598499863, 50.774124945712117 ], [ 1.985251339653418, 50.774407823891679 ], [ 1.9847358194826, 50.77470500184959 ], [ 1.98433755385681, 50.774821352693181 ], [ 1.983202850375749, 50.774673727719076 ], [ 1.982464244734727, 50.774318266199813 ], [ 1.982046613802112, 50.773976275914286 ], [ 1.981739363018232, 50.773428330365178 ], [ 1.98128707905831, 50.77199928114554 ], [ 1.981273903568848, 50.771863822037218 ], [ 1.981181101525354, 50.771590022354836 ], [ 1.980909760579018, 50.771165938604888 ], [ 1.979648558804916, 50.769739034345164 ], [ 1.979578819989158, 50.769603411382313 ], [ 1.979543425287251, 50.769017677259967 ], [ 1.979670014541994, 50.76812838327546 ], [ 1.979649229601011, 50.767674524878394 ], [ 1.979655883555174, 50.767535534621203 ], [ 1.979578469117889, 50.767090480766996 ], [ 1.979556389979625, 50.767014185988032 ], [ 1.979187458605997, 50.766006869876328 ], [ 1.978608413159555, 50.765116429107422 ], [ 1.978230634832441, 50.764753012368416 ], [ 1.97668456886097, 50.764033742445527 ], [ 1.976572288394189, 50.763916826491347 ], [ 1.976522362709068, 50.763781258300334 ], [ 1.976500808967595, 50.763633216895549 ], [ 1.976536829216846, 50.763345435907432 ], [ 1.97695399022165, 50.762365505008795 ], [ 1.976969134981278, 50.762226538511023 ], [ 1.976883515801753, 50.761942887339224 ], [ 1.976718480989461, 50.761691291297481 ], [ 1.976607341202371, 50.761417430730923 ], [ 1.976593255027624, 50.760823679226242 ], [ 1.976649068040236, 50.760535954668093 ], [ 1.976670926039177, 50.760446333830615 ], [ 1.97676944826056, 50.760118375323231 ], [ 1.976820356260203, 50.759922114348704 ], [ 1.976892530198099, 50.759671226408926 ], [ 1.976787776001232, 50.759509677837222 ], [ 1.976640264207273, 50.759401752680475 ], [ 1.976153419620326, 50.759346586866258 ], [ 1.975857330279304, 50.759278538202928 ], [ 1.975560655379664, 50.759291109991743 ], [ 1.975030371135341, 50.759383619448329 ], [ 1.974901997176517, 50.759557925461671 ], [ 1.975221157353337, 50.759922833269563 ], [ 1.975132835650883, 50.760207771922538 ], [ 1.975132256054114, 50.760482204717093 ], [ 1.975203625472788, 50.760779268753836 ], [ 1.975457906711315, 50.761201528091703 ], [ 1.975600812952572, 50.761578619478406 ], [ 1.975622128909155, 50.761758947135107 ], [ 1.97562157587923, 50.761835177163469 ], [ 1.975620966422521, 50.762114093440864 ], [ 1.975473333033526, 50.762388096237892 ], [ 1.975082644351234, 50.762834479057716 ], [ 1.974933689626817, 50.763095024465066 ], [ 1.97484203051941, 50.763449008628371 ], [ 1.97484102544906, 50.763781733539012 ], [ 1.974954760758104, 50.764086991766717 ], [ 1.975148688210977, 50.76425437080011 ], [ 1.97552905838791, 50.764451889553762 ], [ 1.975742825163028, 50.764613944434075 ], [ 1.975870113853401, 50.764806239271834 ], [ 1.97597668338898, 50.7651258246106 ], [ 1.975997976222307, 50.765309738567751 ], [ 1.975870314542332, 50.765948811796861 ], [ 1.975494029122229, 50.767135125830521 ], [ 1.975239295837891, 50.76735500360757 ], [ 1.974770145304074, 50.767306099964891 ], [ 1.974523061739438, 50.767251566862079 ], [ 1.974139414694349, 50.767113227446366 ], [ 1.973658109459565, 50.766986259198219 ], [ 1.972126567272071, 50.766793420634272 ], [ 1.970105690356914, 50.766415262703667 ], [ 1.969744000128937, 50.766370245596242 ], [ 1.96926210411133, 50.766325767380408 ], [ 1.968757854968548, 50.766244450482716 ], [ 1.967766405992889, 50.765880969630928 ], [ 1.966666212540577, 50.765309985730809 ], [ 1.966305474515696, 50.765138507034145 ], [ 1.965986760475234, 50.765020963503488 ], [ 1.965447405427054, 50.764909035209755 ], [ 1.965120747401321, 50.764908951543269 ], [ 1.964979976995779, 50.76501256210431 ], [ 1.964936543124074, 50.765147854340199 ], [ 1.965028841145, 50.765286244819556 ], [ 1.965298465036121, 50.765539066081018 ], [ 1.965553419364335, 50.765673459995206 ], [ 1.96616386042095, 50.765925507318528 ], [ 1.967439602124593, 50.766280881321194 ], [ 1.968255984152056, 50.766415149936378 ], [ 1.968630068803889, 50.766505050116052 ], [ 1.969296778998449, 50.766609270898677 ], [ 1.969453429064137, 50.76665278409132 ], [ 1.97111984124436, 50.767157256546653 ], [ 1.97243057309573, 50.767764692508209 ], [ 1.972643198828719, 50.767889978354823 ], [ 1.972955241451946, 50.768150978167093 ], [ 1.973295478759966, 50.768618331797441 ], [ 1.973764741154726, 50.769041220969889 ], [ 1.974012632558435, 50.769180060142027 ], [ 1.974324517034304, 50.769270657201396 ], [ 1.976303024483118, 50.769661176635694 ], [ 1.976840775214477, 50.769809822174103 ], [ 1.977599662019167, 50.770083766937375 ], [ 1.978011238209114, 50.770275985833855 ], [ 1.978372880253683, 50.770529043265796 ], [ 1.9790963199595, 50.771211830761295 ], [ 1.97930931574288, 50.771486876201386 ], [ 1.979471694146158, 50.771917823436546 ], [ 1.979904375690683, 50.773311846796936 ], [ 1.980046257381483, 50.773644082014783 ], [ 1.980230924339445, 50.773927114668062 ], [ 1.980479142397532, 50.774223782270496 ], [ 1.981684846627481, 50.775320477746597 ], [ 1.982244827771227, 50.775734622332571 ], [ 1.983060177220358, 50.776990088593855 ], [ 1.983145248193859, 50.777481672996643 ], [ 1.98347446826718, 50.777889724542817 ], [ 1.983695076972993, 50.778296559432682 ], [ 1.983780356872419, 50.778466167322378 ], [ 1.983720867272201, 50.778611364280152 ], [ 1.983508054448941, 50.778701336056045 ], [ 1.983288493399742, 50.778745550331713 ], [ 1.982982859674628, 50.778759923170696 ], [ 1.982537646515319, 50.77871022164539 ], [ 1.982118405966016, 50.778588847251676 ], [ 1.981110896792852, 50.778049657500034 ], [ 1.980266654962666, 50.777626619481083 ], [ 1.979401784269953, 50.777123698618354 ], [ 1.977451763386687, 50.776269658467491 ], [ 1.977003702767864, 50.776030698591065 ], [ 1.976549528019468, 50.775855393772027 ], [ 1.976069111097995, 50.775788526592756 ], [ 1.975507652494844, 50.775779714675394 ], [ 1.975380958239366, 50.775891447969904 ], [ 1.975473070771751, 50.776062113547276 ], [ 1.975706786321818, 50.776210771514414 ], [ 1.976820702375689, 50.776692022799303 ], [ 1.977613801717295, 50.776943643371645 ], [ 1.978211202197955, 50.777070033651647 ], [ 1.978536713356959, 50.7772404756385 ], [ 1.979131767272445, 50.777694194837224 ], [ 1.979366561581994, 50.777892173833642 ], [ 1.979684784581714, 50.778093980298259 ], [ 1.979955458804594, 50.778220315825259 ], [ 1.982280569867574, 50.779056555315911 ], [ 1.982607362833554, 50.779249410226235 ], [ 1.982819163713076, 50.779501125586414 ], [ 1.982963943340891, 50.779828878605542 ], [ 1.983054616530995, 50.780206698568513 ], [ 1.983111087627368, 50.78062029328693 ], [ 1.983039761469602, 50.78090348403952 ], [ 1.982679009084753, 50.781704207540749 ], [ 1.982493719312199, 50.782297370017695 ], [ 1.982354231992099, 50.782616237272094 ], [ 1.982175294199091, 50.782912570854648 ], [ 1.981863273533679, 50.783223768475239 ], [ 1.981558846978095, 50.783461448164744 ], [ 1.980572975962674, 50.783838865002913 ], [ 1.979849445879665, 50.783929153104751 ], [ 1.979396659262026, 50.783943092772674 ], [ 1.978985096183447, 50.78392934868306 ], [ 1.978551125457564, 50.78388414989157 ], [ 1.976771403889899, 50.783506809570454 ], [ 1.976337861104218, 50.783403311252414 ], [ 1.975508714554639, 50.783232293333498 ], [ 1.975075241968944, 50.783119822594379 ], [ 1.974699867390941, 50.782994068002182 ], [ 1.973132067897202, 50.782274710465302 ], [ 1.97231647461478, 50.781802380066175 ], [ 1.971778114331882, 50.781528161517251 ], [ 1.971168343249031, 50.781155079638616 ], [ 1.970302755673436, 50.780561516909245 ], [ 1.969927254015615, 50.780265351256311 ], [ 1.969132033829424, 50.779532980842902 ], [ 1.967870757047878, 50.779087096215093 ], [ 1.966608682059666, 50.778561378876347 ], [ 1.964558621258372, 50.777488013156031 ], [ 1.962791910768508, 50.776929348368746 ], [ 1.962232000727441, 50.776713314626676 ], [ 1.961800299497869, 50.776564928536772 ], [ 1.96123874660671, 50.776380274067755 ], [ 1.960161873483828, 50.776071185277182 ], [ 1.959694287522734, 50.775993531725597 ], [ 1.959295525040514, 50.775979760892554 ], [ 1.959049142360636, 50.776015779218696 ], [ 1.958771152314619, 50.776116271979511 ], [ 1.958326087987267, 50.776425213732892 ], [ 1.957835621419053, 50.776937593973578 ], [ 1.957586971268808, 50.777084808635237 ], [ 1.957319085235981, 50.777157527412449 ], [ 1.957007837148157, 50.7771664380831 ], [ 1.956736535179964, 50.777130629395465 ], [ 1.956431595931466, 50.777054359679219 ], [ 1.955658575541875, 50.776595498589259 ], [ 1.955296303692597, 50.776433851104784 ], [ 1.954793802446598, 50.776298674677669 ], [ 1.954545137133781, 50.776262930973992 ], [ 1.954289648313527, 50.776194879967527 ], [ 1.95392877061266, 50.776036819981691 ], [ 1.953678244865353, 50.775875513137123 ], [ 1.953333277053715, 50.775488809840695 ], [ 1.953262560598227, 50.775304741325066 ], [ 1.953029128552638, 50.774027832284936 ], [ 1.952943307224523, 50.773785422503146 ], [ 1.95274510235399, 50.773444012784282 ], [ 1.951930700170956, 50.772495328168901 ], [ 1.951788565247456, 50.772220456038369 ], [ 1.951646224999402, 50.771789534354625 ], [ 1.951590537092252, 50.771492509842147 ], [ 1.951575941038934, 50.771002794121237 ], [ 1.951462989594117, 50.770247309316389 ], [ 1.951378666045933, 50.769995933423246 ], [ 1.950726980541033, 50.768682730581482 ], [ 1.950372025098537, 50.768134553210579 ], [ 1.949237890441477, 50.767037763392722 ], [ 1.94904034861674, 50.766799482737035 ], [ 1.948855997000795, 50.766502051695042 ], [ 1.948643377676132, 50.766021576492122 ], [ 1.947722853550783, 50.763477937062525 ], [ 1.947722708034356, 50.763315608144552 ], [ 1.947759116904767, 50.763180299369061 ], [ 1.948106652923727, 50.762497100021442 ], [ 1.948574558450638, 50.761971224415952 ], [ 1.948787738075122, 50.761651719492342 ], [ 1.948937034715841, 50.761364300302006 ], [ 1.949008107545061, 50.761134930688492 ], [ 1.949043537380049, 50.760943116806146 ], [ 1.949022342789957, 50.760578034234797 ], [ 1.948916409896198, 50.760200130077756 ], [ 1.948944287909534, 50.7598116658341 ], [ 1.948788461541937, 50.75956296782033 ], [ 1.948553308589424, 50.759437568601498 ], [ 1.94817553341682, 50.759288403114496 ], [ 1.946863234139006, 50.758947060678267 ], [ 1.946625085446108, 50.758844069432783 ], [ 1.946508343205412, 50.75876567553707 ], [ 1.946355015819994, 50.758664744897494 ], [ 1.945781021229346, 50.758116751793303 ], [ 1.94566095619477, 50.757921756092621 ], [ 1.945191589287632, 50.757375883956975 ], [ 1.945013285132993, 50.757215680276964 ], [ 1.944792467767025, 50.757067897554613 ], [ 1.943930925775222, 50.756770998545832 ], [ 1.943611067023351, 50.756632764525463 ], [ 1.941317727203072, 50.754596630329303 ], [ 1.941174789832343, 50.754436533438337 ], [ 1.940919634865136, 50.754159284544741 ], [ 1.940702944172367, 50.753761632479716 ], [ 1.940715145858152, 50.753649564645187 ], [ 1.940899925440789, 50.753158895261407 ], [ 1.941067730437722, 50.752691017509513 ], [ 1.941440838957499, 50.75219777301669 ], [ 1.942414945972661, 50.750705094602722 ], [ 1.943224238583399, 50.749731264926936 ], [ 1.943620533178805, 50.749229567295274 ], [ 1.943743031558106, 50.74903806414428 ], [ 1.943752136439687, 50.748891779165419 ], [ 1.943360189086192, 50.748491873286177 ], [ 1.94311333648811, 50.748054541501048 ], [ 1.943101096206195, 50.747993515924996 ], [ 1.94305332917017, 50.747777220093759 ], [ 1.942975877344893, 50.747560829698493 ], [ 1.942474530068309, 50.746963715803354 ], [ 1.941991477341413, 50.746556792936666 ], [ 1.940731521117313, 50.745368904437292 ], [ 1.939902552050853, 50.744205702773307 ], [ 1.939577937443676, 50.743611831503472 ], [ 1.939094644428226, 50.743064982939096 ], [ 1.938647861711715, 50.74272632322041 ], [ 1.938341086909738, 50.742555827303995 ], [ 1.936937470400236, 50.742032011234059 ], [ 1.936416723860352, 50.741754091026188 ], [ 1.936274012098427, 50.741572461220009 ], [ 1.936078531205489, 50.740922493439889 ], [ 1.935965865015319, 50.740696116769051 ], [ 1.935768519820857, 50.74045421863363 ], [ 1.9351386420119, 50.739865620544208 ], [ 1.934748736574058, 50.739316364383093 ], [ 1.934424735978289, 50.738483011633278 ], [ 1.934403680346408, 50.738290115025102 ], [ 1.933076958175401, 50.733878534045282 ], [ 1.932812216284109, 50.732658368172565 ], [ 1.932645311279984, 50.732096820123324 ], [ 1.932539344058481, 50.731768680044787 ], [ 1.932123315988778, 50.731263667388149 ], [ 1.931474867870594, 50.730639385256836 ], [ 1.930707458161271, 50.730288543961024 ], [ 1.930459194420613, 50.730535949739661 ], [ 1.930218226592314, 50.730559672475209 ], [ 1.929933791066762, 50.730608065892888 ], [ 1.929643080996444, 50.730559574405433 ], [ 1.929356948142387, 50.730469840582749 ], [ 1.929104840626234, 50.730366764954226 ], [ 1.928455720245319, 50.730082104747716 ], [ 1.93095025913286, 50.733158554206085 ], [ 1.931204017594107, 50.733581817717187 ], [ 1.931668652031791, 50.734837179188332 ], [ 1.931709028655709, 50.735085747037608 ], [ 1.931689176298264, 50.735267748510807 ], [ 1.931618352447361, 50.735461242420719 ], [ 1.931455937262304, 50.735621251649647 ], [ 1.931203518670028, 50.735726255982975 ], [ 1.930918981571682, 50.735783619854715 ], [ 1.930592331571375, 50.735805866534569 ], [ 1.930267387260956, 50.735792242818022 ], [ 1.929640888039948, 50.735670000669899 ], [ 1.929368777598218, 50.735590179439136 ], [ 1.928791702347177, 50.735473476987799 ], [ 1.928475387125423, 50.735441939433066 ], [ 1.928166558648355, 50.73553150447232 ], [ 1.927936384803334, 50.735680522722035 ], [ 1.927876748737737, 50.735886607704494 ], [ 1.927913316550298, 50.73608045431601 ], [ 1.928075216505969, 50.736501625121377 ], [ 1.92811036491165, 50.736696363689695 ], [ 1.928074952734805, 50.736878312809303 ], [ 1.927898131113706, 50.737069660203744 ], [ 1.927626103223677, 50.737151273463191 ], [ 1.927338154342147, 50.737106373773813 ], [ 1.926798247054227, 50.736936869582692 ], [ 1.926598617485043, 50.736807954351221 ], [ 1.926432730158373, 50.736700675766073 ], [ 1.926655420360656, 50.737118462216053 ], [ 1.926636991577788, 50.737296879630613 ], [ 1.926532373900554, 50.737472320571847 ], [ 1.926278271007654, 50.737607802871736 ], [ 1.925667007989372, 50.737705172918041 ], [ 1.926212966240801, 50.737998470817679 ], [ 1.926867741854418, 50.738281517641575 ], [ 1.92699769004837, 50.738463116998126 ], [ 1.927083899813022, 50.738635602574917 ], [ 1.927138648126803, 50.73885282761654 ], [ 1.927159417783433, 50.739077115059807 ], [ 1.927102785529986, 50.739260786789551 ], [ 1.927010826496582, 50.739443444566 ], [ 1.926870997227688, 50.739603521778832 ], [ 1.926148369295406, 50.739993059123812 ], [ 1.925591784176714, 50.740128432086223 ], [ 1.924654134507772, 50.740196165081876 ], [ 1.924336126109061, 50.740195105309887 ], [ 1.924044771130922, 50.740218349223277 ], [ 1.923398056700395, 50.740313052301801 ], [ 1.923096263273348, 50.740401730843985 ], [ 1.922859282990005, 50.740514841077065 ], [ 1.92271802400842, 50.740674908629238 ], [ 1.922626046308891, 50.740857562783511 ], [ 1.922682302873408, 50.741061341131328 ], [ 1.922877632079979, 50.741198319336114 ], [ 1.923017645961965, 50.741358430889207 ], [ 1.923328043880707, 50.741425837101723 ], [ 1.92372000379806, 50.741543739676345 ], [ 1.924353814990204, 50.741643613147666 ], [ 1.924636400866089, 50.741656214172352 ], [ 1.925268507268507, 50.741620649686531 ], [ 1.925575595069422, 50.741575930293322 ], [ 1.926725764626884, 50.741278398930824 ], [ 1.927872313284284, 50.741075913274152 ], [ 1.928808485185668, 50.740844920368225 ], [ 1.929440754344341, 50.740787810197617 ], [ 1.929744530151906, 50.740801366235388 ], [ 1.930055116766944, 50.740846334443589 ], [ 1.930699844109453, 50.740994642500674 ], [ 1.931004399304116, 50.741086225844867 ], [ 1.933128584746506, 50.741983767732748 ], [ 1.933452582550943, 50.742119354974491 ], [ 1.933686173409359, 50.742248368717 ], [ 1.934004520714458, 50.74238393604319 ], [ 1.934349985914466, 50.742487303420468 ], [ 1.935046118675177, 50.742750554892723 ], [ 1.936106763226542, 50.743059877940034 ], [ 1.936928913325925, 50.743236724977329 ], [ 1.937837018082032, 50.743547036708982 ], [ 1.938249843328459, 50.743890073910457 ], [ 1.938433122355888, 50.744126540337184 ], [ 1.939096223273039, 50.745345721592578 ], [ 1.939570338654512, 50.745974840566078 ], [ 1.940826624678448, 50.746911606337257 ], [ 1.94126302358124, 50.747148190265456 ], [ 1.941549007485049, 50.747449553315448 ], [ 1.941898499570399, 50.747764571207554 ], [ 1.942120282072902, 50.748141064159441 ], [ 1.942189412453341, 50.748515276049311 ], [ 1.942075988037527, 50.748914017596377 ], [ 1.94199254779768, 50.749096711044672 ], [ 1.94171699345645, 50.749439329192128 ], [ 1.941303168855292, 50.749747424029756 ], [ 1.941057596689694, 50.749873993023115 ], [ 1.94064386428052, 50.750169529752789 ], [ 1.940065533872223, 50.750718348511974 ], [ 1.939326843078389, 50.75169624420068 ], [ 1.939130549660851, 50.751846285640333 ], [ 1.938810508260428, 50.751913417926282 ], [ 1.938485786688511, 50.751858561695563 ], [ 1.937853906372064, 50.751674464084118 ], [ 1.937258390993957, 50.751539807799261 ], [ 1.936269801025655, 50.751412845562754 ], [ 1.935335511229655, 50.751390087152323 ], [ 1.934469478704447, 50.751493103803398 ], [ 1.934086027387343, 50.751534008867779 ], [ 1.932890438652739, 50.751655672444492 ], [ 1.932579709360053, 50.751619680380472 ], [ 1.931989863646877, 50.751485017232774 ], [ 1.9317546086968, 50.751382005564757 ], [ 1.931020543437883, 50.750903368597506 ], [ 1.930732980064456, 50.750801080212632 ], [ 1.928755354893952, 50.750264530832069 ], [ 1.928499091388129, 50.750139021977773 ], [ 1.928013979585854, 50.749820828609167 ], [ 1.92705999435558, 50.748759376887804 ], [ 1.926867532457675, 50.748612550897668 ], [ 1.926616663339709, 50.748520239596452 ], [ 1.926344763046815, 50.748578530927411 ], [ 1.926233111747453, 50.748746770658819 ], [ 1.926233002443059, 50.748931523901724 ], [ 1.926311974758037, 50.749126404932738 ], [ 1.926666254038858, 50.749536548498078 ], [ 1.927117072903378, 50.749897683099881 ], [ 1.927388586946262, 50.750059119750787 ], [ 1.928977687914238, 50.751144351208673 ], [ 1.930525450729174, 50.75174902249578 ], [ 1.931401165860088, 50.752091126675623 ], [ 1.932265047502966, 50.752414587398583 ], [ 1.932776528019427, 50.752516257017888 ], [ 1.933039376274153, 50.752500447695574 ], [ 1.933108954562971, 50.752497631649305 ], [ 1.933420446676543, 50.752485024127267 ], [ 1.933966830382427, 50.752462765460585 ], [ 1.93403753085222, 50.75246120187056 ], [ 1.934597436117783, 50.75245405432026 ], [ 1.935463246567779, 50.752380632427077 ], [ 1.936072645249556, 50.752371845002457 ], [ 1.936362175981786, 50.752407759650417 ], [ 1.936628763340969, 50.752483957990066 ], [ 1.937402155395353, 50.752828158884164 ], [ 1.938373008387413, 50.75340886371599 ], [ 1.939006711013207, 50.753898791614134 ], [ 1.939220242211236, 50.754069880228997 ], [ 1.939631757477929, 50.754412006320607 ], [ 1.942024732361936, 50.756807084702189 ], [ 1.943191462586481, 50.757844869364234 ], [ 1.943355560588679, 50.75801310201755 ], [ 1.94443786512194, 50.758826392514827 ], [ 1.944630149782866, 50.759007268450404 ], [ 1.944868876068812, 50.759216093397626 ], [ 1.944918235932801, 50.759232392958829 ], [ 1.945281861769506, 50.759381523660764 ], [ 1.946190981419189, 50.759928782485417 ], [ 1.94661188474546, 50.760167774521491 ], [ 1.946739922679639, 50.760429160395361 ], [ 1.946824461625216, 50.760828523228476 ], [ 1.946807989927469, 50.761126224023307 ], [ 1.946739144768091, 50.76143093440519 ], [ 1.946518934239216, 50.762104667260452 ], [ 1.945957431695319, 50.763202425415713 ], [ 1.945780081916102, 50.763817995924832 ], [ 1.945815266345911, 50.764379529870304 ], [ 1.945837643326244, 50.764591255036656 ], [ 1.946106342213008, 50.765129310933311 ], [ 1.946176933369866, 50.765324148019495 ], [ 1.947111061227301, 50.767027498764705 ], [ 1.94728828886442, 50.767872877177574 ], [ 1.947322734600602, 50.768169838418352 ], [ 1.947323002008306, 50.768497184409554 ], [ 1.94727407470012, 50.768785811533718 ], [ 1.947075354846674, 50.769059617661853 ], [ 1.946854488130476, 50.76909120817912 ], [ 1.946422089963284, 50.769045900424096 ], [ 1.946152324367957, 50.769001104486158 ], [ 1.94584607208207, 50.768920319316209 ], [ 1.945344659485991, 50.768659549262445 ], [ 1.945018545977714, 50.768407403522296 ], [ 1.944820595220594, 50.768222925446949 ], [ 1.94448009757249, 50.767822754503165 ], [ 1.944339035298067, 50.767598098105395 ], [ 1.944305519936922, 50.767544181611449 ], [ 1.944202762361709, 50.767392735418682 ], [ 1.943835602986092, 50.767058398465487 ], [ 1.943651413737227, 50.766923287916676 ], [ 1.943238519842777, 50.766739020868144 ], [ 1.942857507987976, 50.766636466158019 ], [ 1.942468204776601, 50.766509669200907 ], [ 1.94208515726326, 50.766307556474324 ], [ 1.941801498795662, 50.766055536692456 ], [ 1.941602404343219, 50.765839659757205 ], [ 1.941367246982641, 50.765713351207772 ], [ 1.940446398492222, 50.765389337364518 ], [ 1.940016881804158, 50.765164648052078 ], [ 1.9396752561558, 50.764913333951085 ], [ 1.939384547477443, 50.764661285452256 ], [ 1.937315369390264, 50.763118333957863 ], [ 1.93706793154689, 50.76276328193142 ], [ 1.936636089313841, 50.761952933014697 ], [ 1.936543255325856, 50.761715865777589 ], [ 1.936416874666203, 50.760902914876809 ], [ 1.936274930476257, 50.760619052181752 ], [ 1.935700850812169, 50.760092537688152 ], [ 1.935555466992502, 50.759986096775968 ], [ 1.93548644462203, 50.759925939927655 ], [ 1.93372235826194, 50.758388376129588 ], [ 1.93343434661477, 50.758335420533847 ], [ 1.933293071093399, 50.758495496088294 ], [ 1.93330006467475, 50.758679372995644 ], [ 1.933350918294779, 50.758859805437936 ], [ 1.933684440829957, 50.759404382422488 ], [ 1.933897938857698, 50.759929733614769 ], [ 1.9340997312951, 50.760329487373987 ], [ 1.93429713256904, 50.760573174977054 ], [ 1.934836252028086, 50.761050255579924 ], [ 1.935211035045059, 50.761567158437387 ], [ 1.935409072603135, 50.761908601974639 ], [ 1.935502469870284, 50.762250602651967 ], [ 1.935501310674015, 50.762569875459654 ], [ 1.935353925437939, 50.762785536925044 ], [ 1.934905599168146, 50.762969728713671 ], [ 1.934402020569226, 50.76299141055874 ], [ 1.933302249040986, 50.762946575560179 ], [ 1.932296831791718, 50.762775584179927 ], [ 1.93159421592324, 50.762581361415513 ], [ 1.93047520573779, 50.762122992883135 ], [ 1.929199264375272, 50.761664097199052 ], [ 1.927866751012656, 50.761209485340643 ], [ 1.926910233387925, 50.760773144576504 ], [ 1.926415488303776, 50.760554776734622 ], [ 1.925829883251609, 50.759792518524158 ], [ 1.925346399760115, 50.759237660698986 ], [ 1.925151360383912, 50.759051812843083 ], [ 1.924736591816185, 50.758795431492004 ], [ 1.92432305964113, 50.758621936040264 ], [ 1.924053617726651, 50.758528136714823 ], [ 1.923722178196055, 50.758326705179279 ], [ 1.922956095724845, 50.75795464363199 ], [ 1.922703817715693, 50.757856939951523 ], [ 1.922591036248171, 50.757817101125198 ], [ 1.917447075782221, 50.756156745962294 ], [ 1.916869480677879, 50.755909049694949 ], [ 1.916610087782612, 50.755819380791998 ], [ 1.915672947790721, 50.755288845320621 ], [ 1.915325103909705, 50.754959412382476 ], [ 1.915209285477059, 50.754778750028301 ], [ 1.913699128956642, 50.753303649123303 ], [ 1.913238607326845, 50.752761268735242 ], [ 1.912302724184058, 50.751430711048314 ], [ 1.911805785660408, 50.75085232443837 ], [ 1.909531842633978, 50.748790680593139 ], [ 1.908243910390365, 50.747979946464653 ], [ 1.907734137726397, 50.747752170132159 ], [ 1.906833513459111, 50.747441419464089 ], [ 1.906180447423047, 50.747275022266983 ], [ 1.905588914904963, 50.747185966450758 ], [ 1.905008150169901, 50.746996496400889 ], [ 1.904464939408339, 50.746552444757619 ], [ 1.904373307870856, 50.746523424858673 ], [ 1.904314001146151, 50.74651604266495 ], [ 1.904279951401451, 50.746530273520186 ], [ 1.904230153996185, 50.746730100645713 ], [ 1.904323304799961, 50.746909799448531 ], [ 1.904453302353063, 50.74707886448568 ], [ 1.904652643457052, 50.74723920286845 ], [ 1.904760033593407, 50.747407291680993 ], [ 1.904837513772043, 50.747601285042151 ], [ 1.904801993380449, 50.747785018358258 ], [ 1.904695925534707, 50.747953258601726 ], [ 1.904462976077161, 50.748081593464711 ], [ 1.9041140560281, 50.748215800486669 ], [ 1.906345725790771, 50.748924033921639 ], [ 1.906440182372916, 50.748953958931075 ], [ 1.906802576143487, 50.749060151663429 ], [ 1.907869327158568, 50.749453989014484 ], [ 1.9088291239827, 50.749957761078257 ], [ 1.910143116186961, 50.751034047192618 ], [ 1.911398813289069, 50.752486797792436 ], [ 1.912749786500514, 50.753883356937244 ], [ 1.913520596248425, 50.75451469172306 ], [ 1.915207401731417, 50.755669320310517 ], [ 1.916693794090173, 50.756455534028767 ], [ 1.917202592649022, 50.756646495968006 ], [ 1.920488809894953, 50.757617224901004 ], [ 1.922593152406217, 50.758412616966673 ], [ 1.922626966346702, 50.758427079725372 ], [ 1.923209559082244, 50.758777283664244 ], [ 1.923696690850318, 50.75897948191615 ], [ 1.923904976124485, 50.759089949479183 ], [ 1.924156253109877, 50.759282185825079 ], [ 1.924286482228089, 50.759423339100572 ], [ 1.924478078434849, 50.759710940355468 ], [ 1.924740861026584, 50.760169335349843 ], [ 1.924993689840821, 50.760416732753605 ], [ 1.92521231224643, 50.760563745598404 ], [ 1.925720139413819, 50.76082707221299 ], [ 1.926979818400049, 50.76159578310034 ], [ 1.928963841997613, 50.762612183751607 ], [ 1.929734788836001, 50.762922339068808 ], [ 1.930148267724504, 50.763025041513295 ], [ 1.930615576239639, 50.763116260243592 ], [ 1.930927424273156, 50.76319710226128 ], [ 1.932061266753513, 50.763399914143463 ], [ 1.932727938949109, 50.763494467086645 ], [ 1.933536632188105, 50.763688131904935 ], [ 1.933968065179329, 50.763845587334387 ], [ 1.934755344777407, 50.764415848020896 ], [ 1.935875195462208, 50.764956688210432 ], [ 1.936320852526148, 50.765106109607416 ], [ 1.937654632808524, 50.765425208659053 ], [ 1.938306483991904, 50.765609367414569 ], [ 1.938951484498133, 50.765766595466197 ], [ 1.939568092555236, 50.765938078435397 ], [ 1.940050364702394, 50.766109127785775 ], [ 1.940970796099299, 50.766486953198026 ], [ 1.94168789165133, 50.766828249135934 ], [ 1.942034138536577, 50.767034729767381 ], [ 1.942388333154329, 50.767309394347308 ], [ 1.94255261584725, 50.767457895868162 ], [ 1.942891574932761, 50.767871520030077 ], [ 1.942964366168918, 50.767965919503425 ], [ 1.943707611071525, 50.768761085118449 ], [ 1.944607141710031, 50.769467953902215 ], [ 1.94489083378376, 50.769719966034593 ], [ 1.946606395971926, 50.771513670666863 ], [ 1.946889231730812, 50.771877778668802 ], [ 1.947015676253075, 50.772166059705668 ], [ 1.947051010989758, 50.772530284298462 ], [ 1.946980130617517, 50.772731848001257 ], [ 1.94679641474516, 50.772893595668506 ], [ 1.946455702845835, 50.773055744949708 ], [ 1.945987131519713, 50.77310987011662 ], [ 1.945554523057126, 50.773086979789973 ], [ 1.944562654975104, 50.772780712607194 ], [ 1.944092599836194, 50.772664428125935 ], [ 1.942528183400087, 50.772150055715215 ], [ 1.941705281965822, 50.771942954641318 ], [ 1.939557022035088, 50.771579140880341 ], [ 1.93815245997397, 50.771246385276669 ], [ 1.937181661273539, 50.77079214830195 ], [ 1.935402829927862, 50.769523650693003 ], [ 1.93478644329898, 50.769145876512873 ], [ 1.934199031333123, 50.768858773720481 ], [ 1.933531967348534, 50.768628806091343 ], [ 1.930236212706587, 50.767840468271366 ], [ 1.929497695502473, 50.76770530861976 ], [ 1.928831799356348, 50.767682488628424 ], [ 1.928541817623505, 50.767691397850655 ], [ 1.927981136471018, 50.76777205659392 ], [ 1.92773318012727, 50.768001724785151 ], [ 1.92780371826583, 50.768194777906004 ], [ 1.928093762576775, 50.768350888662908 ], [ 1.928306632536778, 50.768433203437866 ], [ 1.928668189979778, 50.768491793526401 ], [ 1.928938120774892, 50.768514207234851 ], [ 1.930142748482645, 50.768721752134454 ], [ 1.931638825333849, 50.768915890060548 ], [ 1.932014349774311, 50.768996936935743 ], [ 1.932396691415613, 50.769109394186735 ], [ 1.933963705486967, 50.769977258761323 ], [ 1.934969267218471, 50.770674676441146 ], [ 1.93763501870623, 50.772104780149469 ], [ 1.938713001775104, 50.772423935814345 ], [ 1.939052956145994, 50.772536235544081 ], [ 1.940137036445439, 50.772802485147217 ], [ 1.940725820647017, 50.772927236005913 ], [ 1.941740235009551, 50.773063208107381 ], [ 1.942172386498622, 50.773143507428983 ], [ 1.942746766947958, 50.773302282222396 ], [ 1.943810161030374, 50.773864387127588 ], [ 1.944745472614388, 50.774170480717508 ], [ 1.945320486719421, 50.774251221214726 ], [ 1.945539539987503, 50.774273437570734 ], [ 1.946058257467655, 50.774319020390521 ], [ 1.947950476939915, 50.774346501912362 ], [ 1.949412173127132, 50.774445251231242 ], [ 1.95043342268498, 50.774800895897307 ], [ 1.950779761191779, 50.775007349743035 ], [ 1.951015705547279, 50.775223323700992 ], [ 1.952150080616032, 50.776684195531601 ], [ 1.952581230161609, 50.777083724484918 ], [ 1.953225785975061, 50.777507230447611 ], [ 1.9534810023529, 50.777795004463599 ], [ 1.953821322787733, 50.778420246531383 ], [ 1.954055095812972, 50.778738444592911 ], [ 1.954699688602692, 50.779345790328691 ], [ 1.95587009390927, 50.780191511575332 ], [ 1.95632500765487, 50.780635939414971 ], [ 1.956721132331019, 50.781185112662136 ], [ 1.956755365763967, 50.781333192864132 ], [ 1.956756544401816, 50.781549329785463 ], [ 1.95669944556614, 50.781802057302272 ], [ 1.95659257616984, 50.782088710965695 ], [ 1.956232183909952, 50.78260058345316 ], [ 1.955938331028744, 50.782919843630125 ], [ 1.955584958373039, 50.78325237199455 ], [ 1.954917494561217, 50.783774055909191 ], [ 1.954825816909322, 50.783922644545136 ], [ 1.954755361233001, 50.784255145698268 ], [ 1.954484851169603, 50.784848002205706 ], [ 1.954102397471782, 50.785463828884076 ], [ 1.953818071631954, 50.785827952924294 ], [ 1.953420187397278, 50.786241049317049 ], [ 1.952519397557602, 50.786924318672774 ], [ 1.951468859006127, 50.787576623448629 ], [ 1.951057437046624, 50.787724213218794 ], [ 1.94970456450412, 50.787953162598612 ], [ 1.948951489048572, 50.788007305426781 ], [ 1.948410873536577, 50.788029825001836 ], [ 1.947652634522275, 50.788020270189776 ], [ 1.947127931440188, 50.787997993635834 ], [ 1.945596029451486, 50.787781516527758 ], [ 1.945042369010881, 50.787664077655762 ], [ 1.944575072454132, 50.787538838541003 ], [ 1.94412087155926, 50.7873679017613 ], [ 1.943582322908157, 50.787129434566275 ], [ 1.943220659089034, 50.786886146354334 ], [ 1.941370376912513, 50.785438175960003 ], [ 1.940861494692272, 50.784853620326025 ], [ 1.940483742091073, 50.784502653927362 ], [ 1.939675917187362, 50.783977222171629 ], [ 1.938717810346397, 50.783495245716985 ], [ 1.938378715279169, 50.783266363582214 ], [ 1.938002047479084, 50.782960233110742 ], [ 1.937783205692144, 50.78273083955353 ], [ 1.937407074138955, 50.782182567700822 ], [ 1.937208503106905, 50.781895841806239 ], [ 1.936542765261884, 50.781477567427252 ], [ 1.935840923957184, 50.781152441597222 ], [ 1.9343657962153, 50.780594317870339 ], [ 1.933770351323937, 50.780409429707696 ], [ 1.93320845178513, 50.780274869970619 ], [ 1.931267650515161, 50.779933117597487 ], [ 1.930671303010585, 50.779861210962444 ], [ 1.92930285413451, 50.779415478364363 ], [ 1.928813895521989, 50.779186075214184 ], [ 1.928566602540569, 50.778983474912565 ], [ 1.92814761480457, 50.77850229211046 ], [ 1.927793582084347, 50.777863480940141 ], [ 1.927574427453728, 50.777508510882221 ], [ 1.927248808041486, 50.776856338710814 ], [ 1.92683878045512, 50.776321369940106 ], [ 1.92610109902404, 50.775727915994736 ], [ 1.925271685292977, 50.775283025765013 ], [ 1.925073298185141, 50.775156810226711 ], [ 1.924662082822918, 50.774769805698362 ], [ 1.92437076060144, 50.774081864189526 ], [ 1.924209217917293, 50.77377730052973 ], [ 1.924046880065827, 50.773398296909257 ], [ 1.923905745355046, 50.773191555180432 ], [ 1.923345779569511, 50.77266683368579 ], [ 1.922594241625855, 50.77222038971977 ], [ 1.922126299756856, 50.772026901115908 ], [ 1.921729629281271, 50.771936785434924 ], [ 1.92127471326559, 50.771877862151165 ], [ 1.92068796415349, 50.771855264327193 ], [ 1.920340046711043, 50.771854991327636 ], [ 1.919908417099455, 50.771886721489679 ], [ 1.919566405775377, 50.772025475323282 ], [ 1.919368498376799, 50.772182650792239 ], [ 1.919098573516546, 50.772663339439156 ], [ 1.918898638017645, 50.772893150569395 ], [ 1.918664977653616, 50.77292823493886 ], [ 1.917984488930291, 50.772951046198344 ], [ 1.917785837922158, 50.773027501593837 ], [ 1.917729253338796, 50.773196811260966 ], [ 1.917891637491241, 50.773396457354515 ], [ 1.918301211816754, 50.773634605851235 ], [ 1.919005157857278, 50.773851325816608 ], [ 1.920054304339533, 50.774057545305666 ], [ 1.920606640287444, 50.77413922108996 ], [ 1.921365972435567, 50.774161501500885 ], [ 1.921620298180744, 50.774192846812113 ], [ 1.922267842269548, 50.774391422262255 ], [ 1.922911556211236, 50.774711053415217 ], [ 1.923306276830044, 50.775038818044543 ], [ 1.924121961752382, 50.775942851788415 ], [ 1.925526832429062, 50.777099051843031 ], [ 1.925737336105819, 50.7773006398712 ], [ 1.92609981658718, 50.777769088789498 ], [ 1.926205612306442, 50.77797570941312 ], [ 1.927750758889255, 50.779976255846897 ], [ 1.928147527947687, 50.780408040433649 ], [ 1.928868964103533, 50.781096487403929 ], [ 1.929031855978175, 50.781415395196518 ], [ 1.929031499820746, 50.781631527683835 ], [ 1.92884528598514, 50.781914309421417 ], [ 1.92841392223149, 50.782076108728248 ], [ 1.92679723285828, 50.782224122599793 ], [ 1.92616632301005, 50.782223825718816 ], [ 1.9246905293772, 50.78209695567022 ], [ 1.924222971935504, 50.782015581817674 ], [ 1.922542638845858, 50.781480848046847 ], [ 1.921519363562644, 50.78120568391558 ], [ 1.92088944083577, 50.781088776699846 ], [ 1.920458189185683, 50.781065803798654 ], [ 1.919954226160339, 50.781110743070322 ], [ 1.918941467423954, 50.781101948823505 ], [ 1.918237325462162, 50.781064594731021 ], [ 1.917989039914795, 50.780983938145056 ], [ 1.917699082101227, 50.780812561027716 ], [ 1.916997539438515, 50.780299892915814 ], [ 1.912680690822373, 50.77826643210814 ], [ 1.911220316643337, 50.777842603955527 ], [ 1.910177899440588, 50.777671310372519 ], [ 1.909666867713976, 50.77755385803642 ], [ 1.909419268000865, 50.777396955878892 ], [ 1.908895168603283, 50.776825660669068 ], [ 1.908181385318279, 50.775616061138876 ], [ 1.907564860509785, 50.774941303323381 ], [ 1.907352431673882, 50.774644612788364 ], [ 1.907168630641837, 50.774472680549643 ], [ 1.906020071287076, 50.773991575832298 ], [ 1.905658686988978, 50.773911396835153 ], [ 1.905516244480948, 50.774027488824593 ], [ 1.905643411199207, 50.77436872748688 ], [ 1.90573115552227, 50.774525978363634 ], [ 1.906089396374204, 50.775133482229265 ], [ 1.90621644572743, 50.775489068601161 ], [ 1.906287743806919, 50.77574939696494 ], [ 1.906308776239337, 50.77593421683185 ], [ 1.906286086902683, 50.776104535383098 ], [ 1.906052257228121, 50.776319857810073 ], [ 1.905513093964122, 50.776513489571968 ], [ 1.905059778568749, 50.776593521164735 ], [ 1.903583418988154, 50.776719301609454 ], [ 1.903363678748954, 50.776776826438983 ], [ 1.903116072008787, 50.776948150397565 ], [ 1.903093488500274, 50.777105016116444 ], [ 1.903256905319806, 50.777343247606581 ], [ 1.903490879734201, 50.777438233416248 ], [ 1.905256073297338, 50.777771739530635 ], [ 1.907363516343024, 50.778114479101276 ], [ 1.908518510394697, 50.778353447576634 ], [ 1.908948923696573, 50.77847062596657 ], [ 1.910118946896484, 50.778938321600272 ], [ 1.911814497725036, 50.779487627860981 ], [ 1.912586738228714, 50.779830171920054 ], [ 1.912834428751955, 50.779978996031815 ], [ 1.91330206877262, 50.780378785572708 ], [ 1.91345082790289, 50.780684213840836 ], [ 1.913463939220534, 50.780972138525613 ], [ 1.913250987415587, 50.781394710120644 ], [ 1.912996206371816, 50.781745392296749 ], [ 1.912748386490102, 50.781942741314971 ], [ 1.912363306520229, 50.782145000343256 ], [ 1.912093652594202, 50.782248106998956 ], [ 1.911788748290551, 50.782337639779847 ], [ 1.911101587598583, 50.782463524811682 ], [ 1.910618782150528, 50.782512982949697 ], [ 1.909861587446118, 50.782557009443806 ], [ 1.90948322722147, 50.782633727793112 ], [ 1.908275449439798, 50.783091416520939 ], [ 1.907893449828582, 50.783261386593601 ], [ 1.906652389284937, 50.783638230239703 ], [ 1.905970467966336, 50.783808945835233 ], [ 1.905552444367639, 50.783889998209126 ], [ 1.904943680436454, 50.783943479629706 ], [ 1.903105031955204, 50.783897594417809 ], [ 1.902615569723417, 50.783896776204685 ], [ 1.901899370592679, 50.783940897799447 ], [ 1.901249021221572, 50.784057889174335 ], [ 1.898905112604976, 50.784680983864455 ], [ 1.898487378202801, 50.784727037506514 ], [ 1.897898567393397, 50.784761721772185 ], [ 1.897195360582816, 50.784774473612543 ], [ 1.896834740294329, 50.784760637601359 ], [ 1.895245750679561, 50.78479533943085 ], [ 1.894542853489031, 50.784773101428478 ], [ 1.894108792742728, 50.784745542940655 ], [ 1.893464383882103, 50.784668801951817 ], [ 1.891878368962031, 50.784370751577605 ], [ 1.890401740491678, 50.784023749976342 ], [ 1.890097872894298, 50.783992162487074 ], [ 1.889771412215857, 50.783956008605692 ], [ 1.889409143482649, 50.783969049586368 ], [ 1.888906255297019, 50.784045255226061 ], [ 1.889011092513643, 50.784185538134409 ], [ 1.889479112779208, 50.784526226997166 ], [ 1.890599374028076, 50.785017240463901 ], [ 1.890960485280046, 50.78513423043735 ], [ 1.892257922270553, 50.785432153517 ], [ 1.892541554641124, 50.785512987981051 ], [ 1.892831653249759, 50.785662003064864 ], [ 1.893011417994882, 50.785809725315303 ], [ 1.893228244861095, 50.786084927968325 ], [ 1.893263427909497, 50.786264417248617 ], [ 1.893228156974066, 50.786412265604852 ], [ 1.893065028689369, 50.786619742573805 ], [ 1.892831085784356, 50.786677197231768 ], [ 1.892622550693851, 50.78674102027739 ], [ 1.893476287302309, 50.786826586101945 ], [ 1.89420605224186, 50.786853410075551 ], [ 1.895043211529536, 50.786575695549466 ], [ 1.895859920421406, 50.786369647770059 ], [ 1.898400214446682, 50.786110517687398 ], [ 1.899819879738182, 50.785868910314093 ], [ 1.902272732101284, 50.78557351965209 ], [ 1.90490517061892, 50.785120867068187 ], [ 1.906124285810806, 50.784833646961445 ], [ 1.908125845653339, 50.784529395627089 ], [ 1.908382086057733, 50.784507861871475 ], [ 1.909247647512428, 50.784368259108426 ], [ 1.910595673433445, 50.784220446632247 ], [ 1.911659729303506, 50.784027700893226 ], [ 1.912127209576056, 50.783952178487091 ], [ 1.912546370056136, 50.783902496516774 ], [ 1.913156272763463, 50.783880370322535 ], [ 1.914779977548097, 50.78391730279322 ], [ 1.916595346243255, 50.783873254052438 ], [ 1.917567968165142, 50.783783281405285 ], [ 1.919787463300215, 50.783793465620093 ], [ 1.920937074163535, 50.783852934168564 ], [ 1.921496787759555, 50.783911311991226 ], [ 1.923785673539858, 50.784254376470358 ], [ 1.924305413927087, 50.784357449074534 ], [ 1.924863566633622, 50.784434639574989 ], [ 1.92526287490415, 50.784560624691863 ], [ 1.926340467799657, 50.785293312395339 ], [ 1.926756396474802, 50.785635480050153 ], [ 1.926913435026488, 50.785806394742416 ], [ 1.927134134784787, 50.785977519796155 ], [ 1.927403016139992, 50.786138938740102 ], [ 1.930175488296517, 50.78739554032861 ], [ 1.931706173892309, 50.788447135990815 ], [ 1.932337404525433, 50.788765773325018 ], [ 1.932585380571635, 50.788892136398282 ], [ 1.932983220176168, 50.789031543025672 ], [ 1.934663771858094, 50.78923430942254 ], [ 1.935054365175466, 50.789396106022153 ], [ 1.935507427955128, 50.789531199489844 ], [ 1.935776890422061, 50.78962623729462 ], [ 1.936282672151821, 50.789715761296641 ], [ 1.9365357368211, 50.789738999659654 ], [ 1.937417049514725, 50.789753503343611 ], [ 1.937954794448856, 50.789739093719255 ], [ 1.938245082389239, 50.789707743106327 ], [ 1.939310599009263, 50.789510282210983 ], [ 1.940572208849116, 50.789204925702649 ], [ 1.941019929993636, 50.789123850830109 ], [ 1.941359486694324, 50.789123141887075 ], [ 1.941778077743491, 50.789146897991081 ], [ 1.942891830364571, 50.78928676050058 ], [ 1.94331141989088, 50.789363426339889 ], [ 1.943568482313485, 50.789418051380295 ], [ 1.945112565827353, 50.789709923361372 ], [ 1.946026081551246, 50.789947773010226 ], [ 1.946679191508015, 50.790016195878188 ], [ 1.947162774475389, 50.790052693767478 ], [ 1.947665325476808, 50.790015711101624 ], [ 1.948403423046177, 50.78989068131829 ], [ 1.949545254430855, 50.789517597471679 ], [ 1.95002052056336, 50.789349585846004 ], [ 1.95188906893331, 50.788853194431468 ], [ 1.952157157486606, 50.788763449635752 ], [ 1.952731367927542, 50.788421753660401 ], [ 1.953164443025605, 50.788034777223324 ], [ 1.953341576531598, 50.787813813632297 ], [ 1.954356235009189, 50.786857363313743 ], [ 1.954604771280582, 50.786732576962656 ], [ 1.955583719738633, 50.786368798297957 ], [ 1.956442450449647, 50.786184005102591 ], [ 1.957705285710929, 50.785878477165106 ], [ 1.95803055562637, 50.785707284420695 ], [ 1.959201806561565, 50.784790730689586 ], [ 1.959492943032639, 50.784641850148176 ], [ 1.959741190381858, 50.784552028064752 ], [ 1.960536012733107, 50.784393915996887 ], [ 1.961003280053045, 50.784337042032313 ], [ 1.963038543220098, 50.784394320587758 ], [ 1.964548279098801, 50.784544152438272 ], [ 1.970571952467411, 50.785308263851249 ], [ 1.971110184497485, 50.785412091260049 ], [ 1.972280787355793, 50.785708800598933 ], [ 1.972819785961421, 50.785902303974474 ], [ 1.973074930324096, 50.786027710574771 ], [ 1.973345205109871, 50.786212350608167 ], [ 1.973486680033195, 50.786405580268756 ], [ 1.973721271731944, 50.786827769585365 ], [ 1.973848596286569, 50.787021853971773 ], [ 1.974011354940269, 50.787207073887089 ], [ 1.974748955932942, 50.787718620785817 ], [ 1.975239956771621, 50.787902107742326 ], [ 1.975429968149242, 50.788037183795133 ], [ 1.975828018340051, 50.788163001255072 ], [ 1.976210833361541, 50.788243932601425 ], [ 1.976458185244409, 50.788276040953406 ], [ 1.977487558476448, 50.788356157710226 ], [ 1.977941205422667, 50.788424733871857 ], [ 1.979253788053113, 50.788667081851521 ], [ 1.979700057554084, 50.788778677016978 ], [ 1.981466257619483, 50.789295834989026 ], [ 1.982424407205726, 50.789646541857394 ], [ 1.982927926850866, 50.789866802618093 ], [ 1.983417589668935, 50.790046665430495 ], [ 1.984170223601467, 50.790253282761981 ], [ 1.985666682503768, 50.790514021588812 ], [ 1.986475236575795, 50.790617650695005 ], [ 1.986985742123755, 50.790653172500782 ], [ 1.987575099989689, 50.790742722912896 ], [ 1.988858860753273, 50.791075464088287 ], [ 1.989397887867643, 50.79128234570311 ], [ 1.990228446440955, 50.791682854000555 ], [ 1.990944266017755, 50.79210455933756 ], [ 1.991271576734076, 50.792239993525243 ], [ 1.991668378969924, 50.792352303643099 ], [ 1.993363243950252, 50.792581216440965 ], [ 1.993917079024781, 50.792697541911735 ], [ 1.9944071179441, 50.792832521347705 ], [ 1.995017023323867, 50.793026121826763 ], [ 1.997649261550709, 50.793987555270334 ], [ 1.998891622960022, 50.794396305213688 ], [ 1.999955687586458, 50.794809938351762 ], [ 2.002643937158941, 50.795676354558317 ], [ 2.003326072171462, 50.795870108080074 ], [ 2.005305389717638, 50.796543536228207 ], [ 2.006427082164496, 50.796817366329272 ], [ 2.007164735205763, 50.796965509836063 ], [ 2.009185953852591, 50.797307171976676 ], [ 2.009938220252617, 50.797387181050802 ], [ 2.010464076839472, 50.797468382703563 ], [ 2.011074400880541, 50.797616167155503 ], [ 2.012316361116242, 50.797900124440744 ], [ 2.013975861219174, 50.798388730566046 ], [ 2.015344776773204, 50.798959065077945 ], [ 2.016751116680068, 50.799655928367379 ], [ 2.017943588066321, 50.800388096084824 ], [ 2.018590157850188, 50.800851606448639 ], [ 2.018753569621378, 50.800967712201363 ], [ 2.019258149584897, 50.801286470753084 ], [ 2.020954062743696, 50.802086259825785 ], [ 2.021351061516119, 50.802190402398438 ], [ 2.022288441606281, 50.802328201603132 ], [ 2.023824930235447, 50.80238859183639 ], [ 2.024127957049638, 50.802359763265905 ], [ 2.024687011672218, 50.802349515245936 ], [ 2.025133012037396, 50.802313870163069 ], [ 2.026268174098006, 50.802281747058473 ], [ 2.026758187421656, 50.802222889989821 ], [ 2.027297645684959, 50.80217760639438 ], [ 2.028234567201476, 50.802163802247428 ], [ 2.029695784215191, 50.802267874811221 ], [ 2.030199225988486, 50.802325619925078 ], [ 2.030810026749397, 50.80241501588818 ], [ 2.032541669633908, 50.802962735777193 ], [ 2.033515931872254, 50.803325633970857 ], [ 2.034054080173536, 50.803496443407937 ], [ 2.036991240858765, 50.804331322346719 ], [ 2.039016510363266, 50.804789085269725 ], [ 2.040385307232804, 50.805219238434759 ], [ 2.040832844755651, 50.805403252730827 ], [ 2.041813807300129, 50.806086251748205 ], [ 2.042764444353842, 50.807115327981947 ], [ 2.043056056209013, 50.807344699222952 ], [ 2.043596053590691, 50.80769482662302 ], [ 2.043851487713743, 50.807820083604327 ], [ 2.044241239714014, 50.807968973696198 ], [ 2.044604424672461, 50.808063096262828 ], [ 2.044909478038812, 50.808175016350731 ], [ 2.045540862827814, 50.808632963699381 ], [ 2.045796385385262, 50.808744765004178 ], [ 2.046244524855927, 50.808834598340766 ], [ 2.047883877539076, 50.809256332517926 ], [ 2.048338763897646, 50.809404464528676 ], [ 2.049098512102894, 50.809701271781435 ], [ 2.050000861866403, 50.810305999121283 ], [ 2.051841194026284, 50.81173074041471 ], [ 2.052039017699919, 50.811789485799686 ], [ 2.053531215462457, 50.812476249939579 ], [ 2.053694716190297, 50.812597688274153 ], [ 2.054163201195629, 50.813100951460981 ], [ 2.054490292116093, 50.813329477828489 ], [ 2.054689413497566, 50.813410641107531 ], [ 2.054994064763193, 50.813603244019866 ], [ 2.055250079423597, 50.813886309560139 ], [ 2.055407064111887, 50.814160181774753 ], [ 2.055898279713761, 50.81465452113261 ], [ 2.056977887173972, 50.815233588563913 ], [ 2.057125935610257, 50.815337051538307 ], [ 2.057303836571824, 50.815418162438611 ], [ 2.057702519409061, 50.81575893725234 ], [ 2.058314002789693, 50.816522567400547 ], [ 2.060012095200353, 50.8181531100565 ], [ 2.060388961734767, 50.818351240245725 ], [ 2.060558225683831, 50.818461023327714 ], [ 2.062412957108952, 50.819181661629976 ], [ 2.063763153530305, 50.819498513024726 ], [ 2.063982202500838, 50.819567149802573 ], [ 2.065403368039766, 50.819853649449712 ], [ 2.066652349529991, 50.820306555240059 ], [ 2.067029896435562, 50.820387190057758 ], [ 2.068457080304211, 50.820615377822449 ], [ 2.068868439278091, 50.820727466944227 ], [ 2.069408047211503, 50.820947443114314 ], [ 2.069712801527934, 50.821140007783626 ], [ 2.069914323941594, 50.82131172372668 ], [ 2.070061993787656, 50.821494084474935 ], [ 2.07014891123862, 50.82191754300824 ], [ 2.069809899935565, 50.823357009612771 ], [ 2.069834125442642, 50.823854763047486 ], [ 2.06993931522786, 50.824039721967772 ], [ 2.070622099332027, 50.824497640943108 ], [ 2.070820888507366, 50.824654103792476 ], [ 2.070927451455006, 50.824848032171381 ], [ 2.071005560322881, 50.825067905303584 ], [ 2.071078119471116, 50.825796227285544 ], [ 2.071220591327747, 50.826159718936303 ], [ 2.071420464827751, 50.826379852384164 ], [ 2.071668622026565, 50.826573186139726 ], [ 2.071996311898766, 50.826720954889517 ], [ 2.072230624934849, 50.826855968772414 ], [ 2.072415122207961, 50.827040197364326 ], [ 2.072593480637313, 50.827314087946021 ], [ 2.072862218121123, 50.827633008444018 ], [ 2.073389878535623, 50.827987452429575 ], [ 2.075243626168934, 50.828728511060689 ], [ 2.078299516948166, 50.829749151550878 ], [ 2.07874604109378, 50.8299249489001 ], [ 2.079052367555945, 50.830104936711734 ], [ 2.079684112516018, 50.830607532724734 ], [ 2.080103815609308, 50.830769818033048 ], [ 2.080351218802116, 50.830845657388849 ], [ 2.081241998222424, 50.831370302826834 ], [ 2.082230279712043, 50.832214383956284 ], [ 2.083510401954956, 50.833593513677251 ], [ 2.083823963073556, 50.834029075806292 ], [ 2.083945995331876, 50.83425799485434 ], [ 2.084180764267525, 50.834873640324112 ], [ 2.084344936236727, 50.835170797115367 ], [ 2.08460097835076, 50.835503113592665 ], [ 2.08575429106121, 50.836504426966997 ], [ 2.086244014954366, 50.836836315952496 ], [ 2.087113717069301, 50.837361768458791 ], [ 2.087865918972535, 50.837882494691883 ], [ 2.087958689053133, 50.838021675708639 ], [ 2.088051344553643, 50.83846664445197 ], [ 2.08888556355921, 50.839584755686225 ], [ 2.089063722151683, 50.839925872220249 ], [ 2.089241476484117, 50.840348590540913 ], [ 2.089277270611357, 50.840554911415779 ], [ 2.089277449032942, 50.840803307655726 ], [ 2.089300542104026, 50.841000635655206 ], [ 2.089244061073772, 50.841534977037206 ], [ 2.089103671040172, 50.841854830742854 ], [ 2.088870934581077, 50.842231890368204 ], [ 2.088671799639854, 50.842402767907082 ], [ 2.088543522679884, 50.842564819748318 ], [ 2.088437596209788, 50.842788790827008 ], [ 2.088416956390577, 50.842951058164815 ], [ 2.088710273275673, 50.84405731685515 ], [ 2.089474395950193, 50.845620949222116 ], [ 2.089688257569794, 50.845908329326669 ], [ 2.089979934185703, 50.84621379854304 ], [ 2.090264915186182, 50.846442134963155 ], [ 2.090626380350934, 50.846671519353556 ], [ 2.091331266222066, 50.847057614046008 ], [ 2.09263267180985, 50.847982020724494 ], [ 2.093969932164566, 50.848825777425041 ], [ 2.094474276952423, 50.849100265914437 ], [ 2.097712298527422, 50.851469421769927 ], [ 2.099334749138349, 50.852551296880165 ], [ 2.100130645859561, 50.853193077453788 ], [ 2.100494825372641, 50.853467271811461 ], [ 2.100779640424285, 50.853749384314185 ], [ 2.101883957711041, 50.855084005233167 ], [ 2.103008873012536, 50.85626890105933 ], [ 2.103314416263243, 50.856668515278642 ], [ 2.103585685519098, 50.857127247140042 ], [ 2.105290832441471, 50.859682487761994 ], [ 2.105469004176603, 50.860060335568846 ], [ 2.105928238631965, 50.86154255555094 ], [ 2.106035408407211, 50.862261914773924 ], [ 2.106073008649632, 50.863012528369744 ], [ 2.106040165464176, 50.86367692627492 ], [ 2.105772016082819, 50.864666388818726 ], [ 2.105496306603988, 50.86514740455172 ], [ 2.104746044235944, 50.865902819518915 ], [ 2.102562316849526, 50.867426476583901 ], [ 2.104394650393894, 50.870785849227133 ] ], [ [ 1.932215464307135, 50.783056254946217 ], [ 1.934235161490461, 50.783628729088271 ], [ 1.934987526070509, 50.784006938905627 ], [ 1.935674795270438, 50.784213641179647 ], [ 1.937256463048038, 50.784555957260139 ], [ 1.937476605668608, 50.784623928518727 ], [ 1.937888211819598, 50.784808205491174 ], [ 1.938192056774167, 50.785023522748602 ], [ 1.938305709379656, 50.785140474483647 ], [ 1.938376779421198, 50.785275225393981 ], [ 1.938390035983397, 50.785563145534688 ], [ 1.938319935057764, 50.785837345147236 ], [ 1.938212750476269, 50.78597241912027 ], [ 1.937943537754532, 50.786201136663237 ], [ 1.937525006494972, 50.786349555827947 ], [ 1.937291288947907, 50.786385571421938 ], [ 1.936844278255028, 50.786380541296822 ], [ 1.935242673999445, 50.786222900047072 ], [ 1.93435459758025, 50.786177866979713 ], [ 1.934139668430264, 50.786164612939345 ], [ 1.933238760168153, 50.786132085542469 ], [ 1.933006746276695, 50.786132226070308 ], [ 1.931651568548856, 50.78611793502364 ], [ 1.930536496336685, 50.785978863067776 ], [ 1.930106113994091, 50.785843825083717 ], [ 1.929601894228068, 50.785569536509321 ], [ 1.928794623887616, 50.784643159453509 ], [ 1.92868247290248, 50.784345943683668 ], [ 1.928667730518133, 50.783901073941728 ], [ 1.928702784212314, 50.783766666882343 ], [ 1.928795954074888, 50.783618102199071 ], [ 1.929044093441679, 50.78337498510875 ], [ 1.929427693268944, 50.783173566770039 ], [ 1.930342683071602, 50.783033979337453 ], [ 1.931498794515517, 50.782989340473669 ], [ 1.932215464307135, 50.783056254946217 ] ] ] ] } }
]
}
