{
"type": "FeatureCollection",
"name": "lieux_inondes",
"crs": { "type": "name", "properties": { "name": "urn:ogc:def:crs:OGC:1.3:CRS84" } },
"features": [
{ "type": "Feature", "properties": { "ID": "P_ESCO_1_NC", "x_L93": 624100.276, "y_L93": 7070214.411, "BASE_BIBLI": "NC", "BASE_BIB_1": "route de Quesques", "BASE_BIB_2": "Escoeuilles", "BASE_BIB_3": "maison inondée 1 mètre", "BASE_BIB_4": "ZIC-NC", "BASE_BIB_5": 3, "BASE_BIB_6": null, "BASE_BIB_7": null, "BASE_BIB_8": "Non précisé", "BASE_BIB_9": "ATELIER", "BASE_BIB10": null }, "geometry": { "type": "Point", "coordinates": [ 1.927048526251634, 50.723994714089564 ] } },
{ "type": "Feature", "properties": { "ID": "P_ESCO_2_NC", "x_L93": 624922.138, "y_L93": 7071213.306, "BASE_BIBLI": "NC", "BASE_BIB_1": "rue du Bout de la", "BASE_BIB_2": "Escoeuilles", "BASE_BIB_3": "20 cm", "BASE_BIB_4": "ZIC-NC", "BASE_BIB_5": 3, "BASE_BIB_6": null, "BASE_BIB_7": null, "BASE_BIB_8": "Ruissellement", "BASE_BIB_9": "ATELIER", "BASE_BIB10": null }, "geometry": { "type": "Point", "coordinates": [ 1.938475492957548, 50.73305665184828 ] } },
{ "type": "Feature", "properties": { "ID": "P_SURQ_3_xx_11_2023", "x_L93": 623823.745, "y_L93": 7071534.929, "BASE_BIBLI": "du 01 au 15 nov 2023", "BASE_BIB_1": "route d'Escoeuilles", "BASE_BIB_2": "Surques", "BASE_BIB_3": null, "BASE_BIB_4": "ZIC-2023-002", "BASE_BIB_5": 3, "BASE_BIB_6": null, "BASE_BIB_7": null, "BASE_BIB_8": "Débordement", "BASE_BIB_9": "ATELIER", "BASE_BIB10": null }, "geometry": { "type": "Point", "coordinates": [ 1.922885225319588, 50.735808817124301 ] } },
{ "type": "Feature", "properties": { "ID": "P_SURQ_4_xx_11_2023", "x_L93": 624496.276, "y_L93": 7072066.04, "BASE_BIBLI": "du 01 au 15 nov 2023", "BASE_BIB_1": "rue des Moulins", "BASE_BIB_2": "Surques", "BASE_BIB_3": "débordement sur rue des moulins\ncascade à la femre (surélevée) donc ferme pas inondée", "BASE_BIB_4": "ZIC-2023-002", "BASE_BIB_5": 3, "BASE_BIB_6": null, "BASE_BIB_7": null, "BASE_BIB_8": "Débordement", "BASE_BIB_9": "ATELIER", "BASE_BIB10": null }, "geometry": { "type": "Point", "coordinates": [ 1.932291956262912, 50.740655920330312 ] } },
{ "type": "Feature", "properties": { "ID": "P_SURQ_5_xx_11_2023", "x_L93": 625136.919, "y_L93": 7073230.328, "BASE_BIBLI": "du 01 au 15 nov 2023", "BASE_BIB_1": "route de Rebergues", "BASE_BIB_2": "Surques", "BASE_BIB_3": "inondation\n(12?) novembre 2023 le plus fort par débordement Hem", "BASE_BIB_4": "ZIC-2023-002", "BASE_BIB_5": 3, "BASE_BIB_6": null, "BASE_BIB_7": null, "BASE_BIB_8": "Débordement", "BASE_BIB_9": "ATELIER", "BASE_BIB10": null }, "geometry": { "type": "Point", "coordinates": [ 1.941129506138509, 50.751179261175935 ] } },
{ "type": "Feature", "properties": { "ID": "P_SURQ_6_26_02_2024", "x_L93": 625136.919, "y_L93": 7073230.328, "BASE_BIBLI": "2024/02/26", "BASE_BIB_1": "route de Rebergues", "BASE_BIB_2": "Surques", "BASE_BIB_3": "26 février 2024 inondation dans les sous-sols", "BASE_BIB_4": "ZIC-2024-002", "BASE_BIB_5": 3, "BASE_BIB_6": null, "BASE_BIB_7": null, "BASE_BIB_8": "Débordement", "BASE_BIB_9": "ATELIER", "BASE_BIB10": null }, "geometry": { "type": "Point", "coordinates": [ 1.941129506138509, 50.751179261175935 ] } },
{ "type": "Feature", "properties": { "ID": "P_SURQ_7_xx_11_2023", "x_L93": 625095.242, "y_L93": 7073235.812, "BASE_BIBLI": "du 01 au 15 nov 2023", "BASE_BIB_1": "route de Rebergues", "BASE_BIB_2": "Surques", "BASE_BIB_3": "inondation\n(12?) novembre 2023 le plus fort par débordement Hem", "BASE_BIB_4": "ZIC-2023-002", "BASE_BIB_5": 3, "BASE_BIB_6": null, "BASE_BIB_7": null, "BASE_BIB_8": "Débordement", "BASE_BIB_9": "ATELIER", "BASE_BIB10": null }, "geometry": { "type": "Point", "coordinates": [ 1.940539061809246, 50.751223444756718 ] } },
{ "type": "Feature", "properties": { "ID": "P_SURQ_8_26_02_2024", "x_L93": 625095.242, "y_L93": 7073235.812, "BASE_BIBLI": "2024/02/26", "BASE_BIB_1": "route de Rebergues", "BASE_BIB_2": "Surques", "BASE_BIB_3": "26 février 2024 inondation dans les sous-sols", "BASE_BIB_4": "ZIC-2024-002", "BASE_BIB_5": 3, "BASE_BIB_6": null, "BASE_BIB_7": null, "BASE_BIB_8": "Débordement", "BASE_BIB_9": "ATELIER", "BASE_BIB10": null }, "geometry": { "type": "Point", "coordinates": [ 1.940539061809246, 50.751223444756718 ] } },
{ "type": "Feature", "properties": { "ID": "P_SURQ_9_NC", "x_L93": 624872.603, "y_L93": 7073134.912, "BASE_BIBLI": "NC", "BASE_BIB_1": "rue noble", "BASE_BIB_2": "Surques", "BASE_BIB_3": "régulièrement inondés (petit rus ?)", "BASE_BIB_4": "ZIC-NC", "BASE_BIB_5": 3, "BASE_BIB_6": null, "BASE_BIB_7": null, "BASE_BIB_8": "Non précisé", "BASE_BIB_9": "ATELIER", "BASE_BIB10": null }, "geometry": { "type": "Point", "coordinates": [ 1.937409607882507, 50.750291333134143 ] } },
{ "type": "Feature", "properties": { "ID": "P_SURQ_10_13_08_2006", "x_L93": 623823.745, "y_L93": 7071534.929, "BASE_BIBLI": "2006/08/13", "BASE_BIB_1": "route d'Escoeuilles", "BASE_BIB_2": "Surques", "BASE_BIB_3": null, "BASE_BIB_4": "ZIC-2006-001", "BASE_BIB_5": 3, "BASE_BIB_6": null, "BASE_BIB_7": null, "BASE_BIB_8": "Débordement", "BASE_BIB_9": "QUESTIONNAIRE", "BASE_BIB10": null }, "geometry": { "type": "Point", "coordinates": [ 1.922885225319588, 50.735808817124301 ] } },
{ "type": "Feature", "properties": { "ID": "P_SURQ_11_13_08_2006", "x_L93": 624496.276, "y_L93": 7072066.04, "BASE_BIBLI": "2006/08/13", "BASE_BIB_1": "rue des Moulins", "BASE_BIB_2": "Surques", "BASE_BIB_3": null, "BASE_BIB_4": "ZIC-2006-001", "BASE_BIB_5": 3, "BASE_BIB_6": null, "BASE_BIB_7": null, "BASE_BIB_8": "Débordement", "BASE_BIB_9": "QUESTIONNAIRE", "BASE_BIB10": null }, "geometry": { "type": "Point", "coordinates": [ 1.932291956262912, 50.740655920330312 ] } },
{ "type": "Feature", "properties": { "ID": "P_BAIN_12_NC", "x_L93": 622073.35, "y_L93": 7072610.868, "BASE_BIBLI": "NC", "BASE_BIB_1": "rue de la Mairie", "BASE_BIB_2": "Bainghen", "BASE_BIB_3": "maison inondée par ruissellement rue de la mairie", "BASE_BIB_4": "ZIC-NC", "BASE_BIB_5": 3, "BASE_BIB_6": null, "BASE_BIB_7": null, "BASE_BIB_8": "Ruissellement", "BASE_BIB_9": "ATELIER", "BASE_BIB10": null }, "geometry": { "type": "Point", "coordinates": [ 1.897925899190109, 50.745245403285921 ] } },
{ "type": "Feature", "properties": { "ID": "P_BAIN_13_xx_11_2023", "x_L93": 623054.39, "y_L93": 7073260.69, "BASE_BIBLI": "du 01 au 15 nov 2023", "BASE_BIB_1": "rue de la fontaine", "BASE_BIB_2": "Bainghen", "BASE_BIB_3": "50 cm d'eau dans le garage du n°37\npremière fois que ça déborde à ce niveau", "BASE_BIB_4": "ZIC-2023-002", "BASE_BIB_5": 2, "BASE_BIB_6": 0.5, "BASE_BIB_7": "R", "BASE_BIB_8": "Non précisé", "BASE_BIB_9": "ATELIER", "BASE_BIB10": null }, "geometry": { "type": "Point", "coordinates": [ 1.911671782809155, 50.751197610710598 ] } },
{ "type": "Feature", "properties": { "ID": "P_JOUR_14_xx_11_2023", "x_L93": 629006.82, "y_L93": 7073431.924, "BASE_BIBLI": "du 01 au 15 nov 2023", "BASE_BIB_1": "route d'Alquines", "BASE_BIB_2": "Journy", "BASE_BIB_3": "hauteur 30 cm", "BASE_BIB_4": "ZIC-2023-002", "BASE_BIB_5": 2, "BASE_BIB_6": 0.3, "BASE_BIB_7": "R", "BASE_BIB_8": "Debordement + ruissellement", "BASE_BIB_9": "ATELIER", "BASE_BIB10": null }, "geometry": { "type": "Point", "coordinates": [ 1.995823430536848, 50.753441555783986 ] } },
{ "type": "Feature", "properties": { "ID": "P_JOUR_15_xx_11_2023", "x_L93": 628821.469, "y_L93": 7073725.441, "BASE_BIBLI": "du 01 au 15 nov 2023", "BASE_BIB_1": "rue du bas Loquin", "BASE_BIB_2": "Journy", "BASE_BIB_3": "Installations de batardeau", "BASE_BIB_4": "ZIC-2023-002", "BASE_BIB_5": 3, "BASE_BIB_6": null, "BASE_BIB_7": null, "BASE_BIB_8": "Debordement + ruissellement", "BASE_BIB_9": "ATELIER", "BASE_BIB10": null }, "geometry": { "type": "Point", "coordinates": [ 1.993149058282682, 50.756053786226531 ] } },
{ "type": "Feature", "properties": { "ID": "P_AUDM_16_xx_11_2023", "x_L93": 627398.047, "y_L93": 7074083.881, "BASE_BIBLI": "du 01 au 15 nov 2023", "BASE_BIB_1": "rue de la commune", "BASE_BIB_2": "Audrehem", "BASE_BIB_3": "2-3 cm dans la maison", "BASE_BIB_4": "ZIC-2023-002", "BASE_BIB_5": 2, "BASE_BIB_6": 0.03, "BASE_BIB_7": "R", "BASE_BIB_8": "Débordement", "BASE_BIB_9": "ATELIER", "BASE_BIB10": null }, "geometry": { "type": "Point", "coordinates": [ 1.972950443219385, 50.759105175918585 ] } },
{ "type": "Feature", "properties": { "ID": "P_AUDM_17_xx_11_2023", "x_L93": 627635.656, "y_L93": 7074274.142, "BASE_BIBLI": "du 01 au 15 nov 2023", "BASE_BIB_1": "rue de Fouquesolles", "BASE_BIB_2": "Audrehem", "BASE_BIB_3": null, "BASE_BIB_4": "ZIC-2023-002", "BASE_BIB_5": 3, "BASE_BIB_6": null, "BASE_BIB_7": null, "BASE_BIB_8": "Débordement", "BASE_BIB_9": "ATELIER", "BASE_BIB10": null }, "geometry": { "type": "Point", "coordinates": [ 1.976276458829388, 50.760839851998448 ] } },
{ "type": "Feature", "properties": { "ID": "P_AUDM_18_xx_11_2023", "x_L93": 627657.389, "y_L93": 7074328.475, "BASE_BIBLI": "du 01 au 15 nov 2023", "BASE_BIB_1": "rue de Fouquesolles", "BASE_BIB_2": "Audrehem", "BASE_BIB_3": null, "BASE_BIB_4": "ZIC-2023-002", "BASE_BIB_5": 3, "BASE_BIB_6": null, "BASE_BIB_7": null, "BASE_BIB_8": "Débordement", "BASE_BIB_9": "ATELIER", "BASE_BIB10": null }, "geometry": { "type": "Point", "coordinates": [ 1.976573916345017, 50.761329842238446 ] } },
{ "type": "Feature", "properties": { "ID": "P_AUDM_19_xx_11_2023", "x_L93": 627739.664, "y_L93": 7074586.556, "BASE_BIBLI": "du 01 au 15 nov 2023", "BASE_BIB_1": "rue de Fouquesolles", "BASE_BIB_2": "Audrehem", "BASE_BIB_3": "hangar inondé", "BASE_BIB_4": "ZIC-2023-002", "BASE_BIB_5": 3, "BASE_BIB_6": null, "BASE_BIB_7": null, "BASE_BIB_8": "Débordement", "BASE_BIB_9": "ATELIER", "BASE_BIB10": null }, "geometry": { "type": "Point", "coordinates": [ 1.977690462397347, 50.763654847149795 ] } },
{ "type": "Feature", "properties": { "ID": "P_AUDM_20_xx_11_2023", "x_L93": 628771.027, "y_L93": 7074351.239, "BASE_BIBLI": "du 01 au 15 nov 2023", "BASE_BIB_1": "rue de Raminghem", "BASE_BIB_2": "Audrehem", "BASE_BIB_3": "débordements dus à l'OH limitant", "BASE_BIB_4": "ZIC-2023-002", "BASE_BIB_5": 3, "BASE_BIB_6": null, "BASE_BIB_7": null, "BASE_BIB_8": "Débordement", "BASE_BIB_9": "ATELIER", "BASE_BIB10": null }, "geometry": { "type": "Point", "coordinates": [ 1.992322640856655, 50.761662582395509 ] } },
{ "type": "Feature", "properties": { "ID": "P_AUDM_21_xx_11_2023", "x_L93": 628445.979, "y_L93": 7075134.864, "BASE_BIBLI": "du 01 au 15 nov 2023", "BASE_BIB_1": "rue du Moulin", "BASE_BIB_2": "Audrehem", "BASE_BIB_3": null, "BASE_BIB_4": "ZIC-2023-002", "BASE_BIB_5": 3, "BASE_BIB_6": null, "BASE_BIB_7": null, "BASE_BIB_8": "Debordement + ruissellement", "BASE_BIB_9": "ATELIER", "BASE_BIB10": null }, "geometry": { "type": "Point", "coordinates": [ 1.987582550559462, 50.768655781194141 ] } },
{ "type": "Feature", "properties": { "ID": "P_AUDM_22_xx_11_2023", "x_L93": 628473.946, "y_L93": 7075205.056, "BASE_BIBLI": "du 01 au 15 nov 2023", "BASE_BIB_1": "rue du Moulin", "BASE_BIB_2": "Audrehem", "BASE_BIB_3": null, "BASE_BIB_4": "ZIC-2023-002", "BASE_BIB_5": 3, "BASE_BIB_6": null, "BASE_BIB_7": null, "BASE_BIB_8": "Debordement + ruissellement", "BASE_BIB_9": "ATELIER", "BASE_BIB10": null }, "geometry": { "type": "Point", "coordinates": [ 1.987965484558132, 50.769288738204153 ] } },
{ "type": "Feature", "properties": { "ID": "P_AUDM_23_xx_11_2023", "x_L93": 628423.495, "y_L93": 7075369.294, "BASE_BIBLI": "du 01 au 15 nov 2023", "BASE_BIB_1": "rue du poirier", "BASE_BIB_2": "Audrehem", "BASE_BIB_3": null, "BASE_BIB_4": "ZIC-2023-002", "BASE_BIB_5": 3, "BASE_BIB_6": null, "BASE_BIB_7": null, "BASE_BIB_8": "Débordement", "BASE_BIB_9": "ATELIER", "BASE_BIB10": null }, "geometry": { "type": "Point", "coordinates": [ 1.987221928324803, 50.770756426290134 ] } },
{ "type": "Feature", "properties": { "ID": "P_AUDM_24_xx_11_2023", "x_L93": 628477.236, "y_L93": 7075379.713, "BASE_BIBLI": "du 01 au 15 nov 2023", "BASE_BIB_1": "rue du poirier", "BASE_BIB_2": "Audrehem", "BASE_BIB_3": null, "BASE_BIB_4": "ZIC-2023-002", "BASE_BIB_5": 3, "BASE_BIB_6": null, "BASE_BIB_7": null, "BASE_BIB_8": "Débordement", "BASE_BIB_9": "ATELIER", "BASE_BIB10": null }, "geometry": { "type": "Point", "coordinates": [ 1.987980362669013, 50.77085608514367 ] } },
{ "type": "Feature", "properties": { "ID": "P_AUDM_25_xx_11_2023", "x_L93": 628334.11, "y_L93": 7076087.114, "BASE_BIBLI": "du 01 au 15 nov 2023", "BASE_BIB_1": "versant rue du Wissocq", "BASE_BIB_2": "Audrehem", "BASE_BIB_3": "debordement fossé/cours d'eau", "BASE_BIB_4": "ZIC-2023-002", "BASE_BIB_5": 3, "BASE_BIB_6": null, "BASE_BIB_7": null, "BASE_BIB_8": "Débordement", "BASE_BIB_9": "ATELIER", "BASE_BIB10": null }, "geometry": { "type": "Point", "coordinates": [ 1.985826863766228, 50.777186162012448 ] } },
{ "type": "Feature", "properties": { "ID": "P_LICQ_26_xx_11_2023", "x_L93": 624613.616, "y_L93": 7076664.689, "BASE_BIBLI": "du 01 au 15 nov 2023", "BASE_BIB_1": "rue Léonce Clipet", "BASE_BIB_2": "Licques", "BASE_BIB_3": "sous-sol inondé", "BASE_BIB_4": "ZIC-2023-002", "BASE_BIB_5": 3, "BASE_BIB_6": null, "BASE_BIB_7": null, "BASE_BIB_8": "Débordement", "BASE_BIB_9": "ATELIER", "BASE_BIB10": null }, "geometry": { "type": "Point", "coordinates": [ 1.933072450853883, 50.781928003692535 ] } },
{ "type": "Feature", "properties": { "ID": "P_LICQ_27_xx_11_2023", "x_L93": 624947.496, "y_L93": 7076911.124, "BASE_BIBLI": "du 01 au 15 nov 2023", "BASE_BIB_1": "rue Antoine de Lumbres", "BASE_BIB_2": "Licques", "BASE_BIB_3": "boucherie inondée, h>1 m d'eau dans la rue", "BASE_BIB_4": "ZIC-2023-002", "BASE_BIB_5": 3, "BASE_BIB_6": null, "BASE_BIB_7": null, "BASE_BIB_8": "Débordement", "BASE_BIB_9": "ATELIER", "BASE_BIB10": null }, "geometry": { "type": "Point", "coordinates": [ 1.937750295532014, 50.784179269547231 ] } },
{ "type": "Feature", "properties": { "ID": "P_HERB_28_xx_11_2023", "x_L93": 623389.35, "y_L93": 7075653.243, "BASE_BIBLI": "du 01 au 15 nov 2023", "BASE_BIB_1": "86 impasse de la folie", "BASE_BIB_2": "Herbinghen", "BASE_BIB_3": "photo", "BASE_BIB_4": "ZIC-2023-002", "BASE_BIB_5": 3, "BASE_BIB_6": null, "BASE_BIB_7": null, "BASE_BIB_8": "Ruissellement", "BASE_BIB_9": "ATELIER", "BASE_BIB10": null }, "geometry": { "type": "Point", "coordinates": [ 1.915944348701226, 50.772704204804604 ] } },
{ "type": "Feature", "properties": { "ID": "P_HERB_29_xx_11_2023", "x_L93": 622304.031, "y_L93": 7074870.633, "BASE_BIBLI": "du 01 au 15 nov 2023", "BASE_BIB_1": "40 impasse du Piré Aller", "BASE_BIB_2": "Herbinghen", "BASE_BIB_3": "photos", "BASE_BIB_4": "ZIC-2023-002", "BASE_BIB_5": 3, "BASE_BIB_6": null, "BASE_BIB_7": null, "BASE_BIB_8": "Ruissellement", "BASE_BIB_9": "ATELIER", "BASE_BIB10": null }, "geometry": { "type": "Point", "coordinates": [ 1.900742997954836, 50.765548329428462 ] } },
{ "type": "Feature", "properties": { "ID": "P_HERB_30_xx_11_2023", "x_L93": 622795.646, "y_L93": 7075270.724, "BASE_BIBLI": "du 01 au 15 nov 2023", "BASE_BIB_1": "600 rue princiaple", "BASE_BIB_2": "Herbinghen", "BASE_BIB_3": "photos : eau dans la rue + vers le portail", "BASE_BIB_4": "ZIC-2023-002", "BASE_BIB_5": 3, "BASE_BIB_6": null, "BASE_BIB_7": null, "BASE_BIB_8": "Ruissellement", "BASE_BIB_9": "ATELIER", "BASE_BIB10": null }, "geometry": { "type": "Point", "coordinates": [ 1.907619267031937, 50.769199002384838 ] } },
{ "type": "Feature", "properties": { "ID": "P_HERB_31_xx_11_2023", "x_L93": 622872.527, "y_L93": 7075364.863, "BASE_BIBLI": "du 01 au 15 nov 2023", "BASE_BIB_1": "454 rue principale", "BASE_BIB_2": "Herbinghen", "BASE_BIB_3": "photos : sous-sol inondé", "BASE_BIB_4": "ZIC-2023-002", "BASE_BIB_5": 3, "BASE_BIB_6": null, "BASE_BIB_7": null, "BASE_BIB_8": "Ruissellement", "BASE_BIB_9": "ATELIER", "BASE_BIB10": null }, "geometry": { "type": "Point", "coordinates": [ 1.908688515582187, 50.770053116853674 ] } },
{ "type": "Feature", "properties": { "ID": "P_HERB_32_xx_11_2023", "x_L93": 623030.715, "y_L93": 7075621.479, "BASE_BIBLI": "du 01 au 15 nov 2023", "BASE_BIB_1": "27 rue principale", "BASE_BIB_2": "Herbinghen", "BASE_BIB_3": "photo : qq centimètres dans le rue + tampon soulevé", "BASE_BIB_4": "ZIC-2023-002", "BASE_BIB_5": 3, "BASE_BIB_6": null, "BASE_BIB_7": null, "BASE_BIB_8": "Ruissellement", "BASE_BIB_9": "ATELIER", "BASE_BIB10": null }, "geometry": { "type": "Point", "coordinates": [ 1.910876433793941, 50.772374960951126 ] } },
{ "type": "Feature", "properties": { "ID": "P_ALEM_33_xx_11_2023", "x_L93": 620576.195, "y_L93": 7076107.69, "BASE_BIBLI": "du 01 au 15 nov 2023", "BASE_BIB_1": "rue haute", "BASE_BIB_2": "Alembon", "BASE_BIB_3": "sous sol inondé 50 cm", "BASE_BIB_4": "ZIC-2023-002", "BASE_BIB_5": 2, "BASE_BIB_6": 0.5, "BASE_BIB_7": "R", "BASE_BIB_8": "Ruissellement", "BASE_BIB_9": "ATELIER", "BASE_BIB10": null }, "geometry": { "type": "Point", "coordinates": [ 1.876051414444355, 50.776428393509711 ] } },
{ "type": "Feature", "properties": { "ID": "P_TOUR_34_xx_11_2023", "x_L93": 632719.69, "y_L93": 7079353.965, "BASE_BIBLI": "du 01 au 15 nov 2023", "BASE_BIB_1": "21  rue de l'Etang", "BASE_BIB_2": "Tournehem-sur-la-Hem", "BASE_BIB_3": "listing des maisons inondées par ruissellement ou débordement de la Hem en novembre 2023\npas d'indication de hauteur", "BASE_BIB_4": "ZIC-2023-002", "BASE_BIB_5": 3, "BASE_BIB_6": null, "BASE_BIB_7": null, "BASE_BIB_8": "Débordement", "BASE_BIB_9": "ATELIER", "BASE_BIB10": null }, "geometry": { "type": "Point", "coordinates": [ 2.047325034552395, 50.806984551840749 ] } },
{ "type": "Feature", "properties": { "ID": "P_TOUR_35_xx_11_2023", "x_L93": 632717.041, "y_L93": 7079383.95, "BASE_BIBLI": "du 01 au 15 nov 2023", "BASE_BIB_1": "67  rue de l'Etang", "BASE_BIB_2": "Tournehem-sur-la-Hem", "BASE_BIB_3": "listing des maisons inondées par ruissellement ou débordement de la Hem en novembre 2023\npas d'indication de hauteur", "BASE_BIB_4": "ZIC-2023-002", "BASE_BIB_5": 3, "BASE_BIB_6": null, "BASE_BIB_7": null, "BASE_BIB_8": "Débordement", "BASE_BIB_9": "ATELIER", "BASE_BIB10": null }, "geometry": { "type": "Point", "coordinates": [ 2.047282394484237, 50.807253269022645 ] } },
{ "type": "Feature", "properties": { "ID": "P_TOUR_36_xx_11_2023", "x_L93": 632720.388, "y_L93": 7079404.312, "BASE_BIBLI": "du 01 au 15 nov 2023", "BASE_BIB_1": "74  rue de l'Etang", "BASE_BIB_2": "Tournehem-sur-la-Hem", "BASE_BIB_3": "listing des maisons inondées par ruissellement ou débordement de la Hem en novembre 2023\npas d'indication de hauteur", "BASE_BIB_4": "ZIC-2023-002", "BASE_BIB_5": 3, "BASE_BIB_6": null, "BASE_BIB_7": null, "BASE_BIB_8": "Débordement", "BASE_BIB_9": "ATELIER", "BASE_BIB10": null }, "geometry": { "type": "Point", "coordinates": [ 2.047326306915374, 50.80743630376778 ] } },
{ "type": "Feature", "properties": { "ID": "P_TOUR_37_xx_11_2023", "x_L93": 632711.741, "y_L93": 7079397.06, "BASE_BIBLI": "du 01 au 15 nov 2023", "BASE_BIB_1": "77 rue de l'Etang", "BASE_BIB_2": "Tournehem-sur-la-Hem", "BASE_BIB_3": "listing des maisons inondées par ruissellement ou débordement de la Hem en novembre 2023\npas d'indication de hauteur", "BASE_BIB_4": "ZIC-2023-002", "BASE_BIB_5": 3, "BASE_BIB_6": null, "BASE_BIB_7": null, "BASE_BIB_8": "Débordement", "BASE_BIB_9": "ATELIER", "BASE_BIB10": null }, "geometry": { "type": "Point", "coordinates": [ 2.047205119181975, 50.807370306342946 ] } },
{ "type": "Feature", "properties": { "ID": "P_TOUR_38_xx_11_2023", "x_L93": 632707.975, "y_L93": 7079404.452, "BASE_BIBLI": "du 01 au 15 nov 2023", "BASE_BIB_1": "81 rue de l'Etang", "BASE_BIB_2": "Tournehem-sur-la-Hem", "BASE_BIB_3": "listing des maisons inondées par ruissellement ou débordement de la Hem en novembre 2023\npas d'indication de hauteur", "BASE_BIB_4": "ZIC-2023-002", "BASE_BIB_5": 3, "BASE_BIB_6": null, "BASE_BIB_7": null, "BASE_BIB_8": "Débordement", "BASE_BIB_9": "ATELIER", "BASE_BIB10": null }, "geometry": { "type": "Point", "coordinates": [ 2.047150541418654, 50.807436211272204 ] } },
{ "type": "Feature", "properties": { "ID": "P_TOUR_39_xx_11_2023", "x_L93": 632705.186, "y_L93": 7079411.286, "BASE_BIBLI": "du 01 au 15 nov 2023", "BASE_BIB_1": "91 rue de l'Etang", "BASE_BIB_2": "Tournehem-sur-la-Hem", "BASE_BIB_3": "listing des maisons inondées par ruissellement ou débordement de la Hem en novembre 2023\npas d'indication de hauteur", "BASE_BIB_4": "ZIC-2023-002", "BASE_BIB_5": 3, "BASE_BIB_6": null, "BASE_BIB_7": null, "BASE_BIB_8": "Débordement", "BASE_BIB_9": "ATELIER", "BASE_BIB10": null }, "geometry": { "type": "Point", "coordinates": [ 2.047109881228969, 50.807497217145553 ] } },
{ "type": "Feature", "properties": { "ID": "P_TOUR_40_xx_11_2023", "x_L93": 632716.762, "y_L93": 7079419.375, "BASE_BIBLI": "du 01 au 15 nov 2023", "BASE_BIB_1": "98 rue de l'Etang", "BASE_BIB_2": "Tournehem-sur-la-Hem", "BASE_BIB_3": "listing des maisons inondées par ruissellement ou débordement de la Hem en novembre 2023\npas d'indication de hauteur", "BASE_BIB_4": "ZIC-2023-002", "BASE_BIB_5": 3, "BASE_BIB_6": null, "BASE_BIB_7": null, "BASE_BIB_8": "Débordement", "BASE_BIB_9": "ATELIER", "BASE_BIB10": null }, "geometry": { "type": "Point", "coordinates": [ 2.047272393427874, 50.807571038776466 ] } },
{ "type": "Feature", "properties": { "ID": "P_TOUR_41_xx_11_2023", "x_L93": 632709.649, "y_L93": 7079427.464, "BASE_BIBLI": "du 01 au 15 nov 2023", "BASE_BIB_1": "102 et 104 rue de l'Etang", "BASE_BIB_2": "Tournehem-sur-la-Hem", "BASE_BIB_3": "listing des maisons inondées par ruissellement ou débordement de la Hem en novembre 2023\npas d'indication de hauteur", "BASE_BIB_4": "ZIC-2023-002", "BASE_BIB_5": 3, "BASE_BIB_6": null, "BASE_BIB_7": null, "BASE_BIB_8": "Débordement", "BASE_BIB_9": "ATELIER", "BASE_BIB10": null }, "geometry": { "type": "Point", "coordinates": [ 2.047170305188557, 50.807642837260637 ] } },
{ "type": "Feature", "properties": { "ID": "P_TOUR_42_xx_11_2023", "x_L93": 632699.05, "y_L93": 7079423.419, "BASE_BIBLI": "du 01 au 15 nov 2023", "BASE_BIB_1": "107 rue de l'Etang", "BASE_BIB_2": "Tournehem-sur-la-Hem", "BASE_BIB_3": "listing des maisons inondées par ruissellement ou débordement de la Hem en novembre 2023\npas d'indication de hauteur", "BASE_BIB_4": "ZIC-2023-002", "BASE_BIB_5": 3, "BASE_BIB_6": null, "BASE_BIB_7": null, "BASE_BIB_8": "Débordement", "BASE_BIB_9": "ATELIER", "BASE_BIB10": null }, "geometry": { "type": "Point", "coordinates": [ 2.047020924179277, 50.807605405446758 ] } },
{ "type": "Feature", "properties": { "ID": "P_TOUR_43_xx_11_2023", "x_L93": 632692.076, "y_L93": 7079432.484, "BASE_BIBLI": "du 01 au 15 nov 2023", "BASE_BIB_1": "117 rue de l'Etang", "BASE_BIB_2": "Tournehem-sur-la-Hem", "BASE_BIB_3": "listing des maisons inondées par ruissellement ou débordement de la Hem en novembre 2023\npas d'indication de hauteur", "BASE_BIB_4": "ZIC-2023-002", "BASE_BIB_5": 3, "BASE_BIB_6": null, "BASE_BIB_7": null, "BASE_BIB_8": "Débordement", "BASE_BIB_9": "ATELIER", "BASE_BIB10": null }, "geometry": { "type": "Point", "coordinates": [ 2.046920643298465, 50.807685977085846 ] } },
{ "type": "Feature", "properties": { "ID": "P_TOUR_44_xx_11_2023", "x_L93": 632683.708, "y_L93": 7079448.523, "BASE_BIBLI": "du 01 au 15 nov 2023", "BASE_BIB_1": "129 et 137 rue de l'Etang", "BASE_BIB_2": "Tournehem-sur-la-Hem", "BASE_BIB_3": "listing des maisons inondées par ruissellement ou débordement de la Hem en novembre 2023\npas d'indication de hauteur", "BASE_BIB_4": "ZIC-2023-002", "BASE_BIB_5": 3, "BASE_BIB_6": null, "BASE_BIB_7": null, "BASE_BIB_8": "Débordement", "BASE_BIB_9": "ATELIER", "BASE_BIB10": null }, "geometry": { "type": "Point", "coordinates": [ 2.046799423803905, 50.807828956594932 ] } },
{ "type": "Feature", "properties": { "ID": "P_TOUR_45_xx_11_2023", "x_L93": 632678.688, "y_L93": 7079455.914, "BASE_BIBLI": "du 01 au 15 nov 2023", "BASE_BIB_1": "141 rue de l'Etang", "BASE_BIB_2": "Tournehem-sur-la-Hem", "BASE_BIB_3": "listing des maisons inondées par ruissellement ou débordement de la Hem en novembre 2023\npas d'indication de hauteur", "BASE_BIB_4": "ZIC-2023-002", "BASE_BIB_5": 3, "BASE_BIB_6": null, "BASE_BIB_7": null, "BASE_BIB_8": "Débordement", "BASE_BIB_9": "ATELIER", "BASE_BIB10": null }, "geometry": { "type": "Point", "coordinates": [ 2.046727073214841, 50.807894725351197 ] } },
{ "type": "Feature", "properties": { "ID": "P_TOUR_46_xx_11_2023", "x_L93": 632702.257, "y_L93": 7079467.49, "BASE_BIBLI": "du 01 au 15 nov 2023", "BASE_BIB_1": "142 rue de l'Etang", "BASE_BIB_2": "Tournehem-sur-la-Hem", "BASE_BIB_3": "listing des maisons inondées par ruissellement ou débordement de la Hem en novembre 2023\npas d'indication de hauteur", "BASE_BIB_4": "ZIC-2023-002", "BASE_BIB_5": 3, "BASE_BIB_6": null, "BASE_BIB_7": null, "BASE_BIB_8": "Débordement", "BASE_BIB_9": "ATELIER", "BASE_BIB10": null }, "geometry": { "type": "Point", "coordinates": [ 2.047058809941712, 50.808001125672682 ] } },
{ "type": "Feature", "properties": { "ID": "P_TOUR_47_xx_11_2023", "x_L93": 632670.599, "y_L93": 7079466.095, "BASE_BIBLI": "du 01 au 15 nov 2023", "BASE_BIB_1": "151 rue de l'Etang", "BASE_BIB_2": "Tournehem-sur-la-Hem", "BASE_BIB_3": "listing des maisons inondées par ruissellement ou débordement de la Hem en novembre 2023\npas d'indication de hauteur", "BASE_BIB_4": "ZIC-2023-002", "BASE_BIB_5": 3, "BASE_BIB_6": null, "BASE_BIB_7": null, "BASE_BIB_8": "Débordement", "BASE_BIB_9": "ATELIER", "BASE_BIB10": null }, "geometry": { "type": "Point", "coordinates": [ 2.046610803364624, 50.807985185297163 ] } },
{ "type": "Feature", "properties": { "ID": "P_TOUR_48_xx_11_2023", "x_L93": 632653.723, "y_L93": 7079484.784, "BASE_BIBLI": "du 01 au 15 nov 2023", "BASE_BIB_1": "185 rue de l'Etang", "BASE_BIB_2": "Tournehem-sur-la-Hem", "BASE_BIB_3": "listing des maisons inondées par ruissellement ou débordement de la Hem en novembre 2023\npas d'indication de hauteur", "BASE_BIB_4": "ZIC-2023-002", "BASE_BIB_5": 3, "BASE_BIB_6": null, "BASE_BIB_7": null, "BASE_BIB_8": "Débordement", "BASE_BIB_9": "ATELIER", "BASE_BIB10": null }, "geometry": { "type": "Point", "coordinates": [ 2.046368675321803, 50.808151015118661 ] } },
{ "type": "Feature", "properties": { "ID": "P_TOUR_49_xx_11_2023", "x_L93": 632669.483, "y_L93": 7079490.781, "BASE_BIBLI": "du 01 au 15 nov 2023", "BASE_BIB_1": "186 rue de l'Etang", "BASE_BIB_2": "Tournehem-sur-la-Hem", "BASE_BIB_3": "listing des maisons inondées par ruissellement ou débordement de la Hem en novembre 2023\npas d'indication de hauteur", "BASE_BIB_4": "ZIC-2023-002", "BASE_BIB_5": 3, "BASE_BIB_6": null, "BASE_BIB_7": null, "BASE_BIB_8": "Débordement", "BASE_BIB_9": "ATELIER", "BASE_BIB10": null }, "geometry": { "type": "Point", "coordinates": [ 2.046590785897155, 50.808206523199992 ] } },
{ "type": "Feature", "properties": { "ID": "P_TOUR_50_xx_11_2023", "x_L93": 632639.498, "y_L93": 7079507.098, "BASE_BIBLI": "du 01 au 15 nov 2023", "BASE_BIB_1": "199 rue de l'Etang", "BASE_BIB_2": "Tournehem-sur-la-Hem", "BASE_BIB_3": "listing des maisons inondées par ruissellement ou débordement de la Hem en novembre 2023\npas d'indication de hauteur", "BASE_BIB_4": "ZIC-2023-002", "BASE_BIB_5": 3, "BASE_BIB_6": null, "BASE_BIB_7": null, "BASE_BIB_8": "Débordement", "BASE_BIB_9": "ATELIER", "BASE_BIB10": null }, "geometry": { "type": "Point", "coordinates": [ 2.046163444000827, 50.808349662260305 ] } },
{ "type": "Feature", "properties": { "ID": "P_TOUR_51_xx_11_2023", "x_L93": 632658.326, "y_L93": 7079533.597, "BASE_BIBLI": "du 01 au 15 nov 2023", "BASE_BIB_1": "216 rue de l'Etang", "BASE_BIB_2": "Tournehem-sur-la-Hem", "BASE_BIB_3": "listing des maisons inondées par ruissellement ou débordement de la Hem en novembre 2023\npas d'indication de hauteur", "BASE_BIB_4": "ZIC-2023-002", "BASE_BIB_5": 3, "BASE_BIB_6": null, "BASE_BIB_7": null, "BASE_BIB_8": "Débordement", "BASE_BIB_9": "ATELIER", "BASE_BIB10": null }, "geometry": { "type": "Point", "coordinates": [ 2.046425492202216, 50.808589426386057 ] } },
{ "type": "Feature", "properties": { "ID": "P_TOUR_52_xx_11_2023", "x_L93": 632732.94, "y_L93": 7079427.324, "BASE_BIBLI": "du 01 au 15 nov 2023", "BASE_BIB_1": "21 rue du grand batard de Bourgogne", "BASE_BIB_2": "Tournehem-sur-la-Hem", "BASE_BIB_3": "listing des maisons inondées par ruissellement ou débordement de la Hem en novembre 2023\npas d'indication de hauteur", "BASE_BIB_4": "ZIC-2023-002", "BASE_BIB_5": 3, "BASE_BIB_6": null, "BASE_BIB_7": null, "BASE_BIB_8": "Débordement", "BASE_BIB_9": "ATELIER", "BASE_BIB10": null }, "geometry": { "type": "Point", "coordinates": [ 2.04750009284277, 50.807644107103755 ] } },
{ "type": "Feature", "properties": { "ID": "P_TOUR_53_xx_11_2023", "x_L93": 632740.192, "y_L93": 7079429.556, "BASE_BIBLI": "du 01 au 15 nov 2023", "BASE_BIB_1": "31  rue du grand batard de Bourgogne", "BASE_BIB_2": "Tournehem-sur-la-Hem", "BASE_BIB_3": "listing des maisons inondées par ruissellement ou débordement de la Hem en novembre 2023\npas d'indication de hauteur", "BASE_BIB_4": "ZIC-2023-002", "BASE_BIB_5": 3, "BASE_BIB_6": null, "BASE_BIB_7": null, "BASE_BIB_8": "Débordement", "BASE_BIB_9": "ATELIER", "BASE_BIB10": null }, "geometry": { "type": "Point", "coordinates": [ 2.047602392713238, 50.807664910802828 ] } },
{ "type": "Feature", "properties": { "ID": "P_TOUR_54_xx_11_2023", "x_L93": 632748.42, "y_L93": 7079432.903, "BASE_BIBLI": "du 01 au 15 nov 2023", "BASE_BIB_1": "37  rue du grand batard de Bourgogne", "BASE_BIB_2": "Tournehem-sur-la-Hem", "BASE_BIB_3": "listing des maisons inondées par ruissellement ou débordement de la Hem en novembre 2023\npas d'indication de hauteur", "BASE_BIB_4": "ZIC-2023-002", "BASE_BIB_5": 3, "BASE_BIB_6": null, "BASE_BIB_7": null, "BASE_BIB_8": "Débordement", "BASE_BIB_9": "ATELIER", "BASE_BIB10": null }, "geometry": { "type": "Point", "coordinates": [ 2.047718324596295, 50.807695829490733 ] } },
{ "type": "Feature", "properties": { "ID": "P_TOUR_55_xx_11_2023", "x_L93": 632735.032, "y_L93": 7079467.351, "BASE_BIBLI": "du 01 au 15 nov 2023", "BASE_BIB_1": "43 rue du Marais", "BASE_BIB_2": "Tournehem-sur-la-Hem", "BASE_BIB_3": "listing des maisons inondées par ruissellement ou débordement de la Hem en novembre 2023\npas d'indication de hauteur", "BASE_BIB_4": "ZIC-2023-002", "BASE_BIB_5": 3, "BASE_BIB_6": null, "BASE_BIB_7": null, "BASE_BIB_8": "Débordement", "BASE_BIB_9": "ATELIER", "BASE_BIB10": null }, "geometry": { "type": "Point", "coordinates": [ 2.047522876014128, 50.808003422204294 ] } },
{ "type": "Feature", "properties": { "ID": "P_TOUR_56_xx_11_2023", "x_L93": 632678.409, "y_L93": 7079505.425, "BASE_BIBLI": "du 01 au 15 nov 2023", "BASE_BIB_1": "135 rue du Marais", "BASE_BIB_2": "Tournehem-sur-la-Hem", "BASE_BIB_3": "listing des maisons inondées par ruissellement ou débordement de la Hem en novembre 2023\npas d'indication de hauteur", "BASE_BIB_4": "ZIC-2023-002", "BASE_BIB_5": 3, "BASE_BIB_6": null, "BASE_BIB_7": null, "BASE_BIB_8": "Débordement", "BASE_BIB_9": "ATELIER", "BASE_BIB10": null }, "geometry": { "type": "Point", "coordinates": [ 2.046714660616134, 50.808338863840056 ] } },
{ "type": "Feature", "properties": { "ID": "P_TOUR_57_xx_11_2023", "x_L93": 632529.181, "y_L93": 7079477.671, "BASE_BIBLI": "du 01 au 15 nov 2023", "BASE_BIB_1": "85 rue des Prés du roi", "BASE_BIB_2": "Tournehem-sur-la-Hem", "BASE_BIB_3": "listing des maisons inondées par ruissellement ou débordement de la Hem en novembre 2023\npas d'indication de hauteur", "BASE_BIB_4": "ZIC-2023-002", "BASE_BIB_5": 3, "BASE_BIB_6": null, "BASE_BIB_7": null, "BASE_BIB_8": "Débordement", "BASE_BIB_9": "ATELIER", "BASE_BIB10": null }, "geometry": { "type": "Point", "coordinates": [ 2.044606528818106, 50.80807369816263 ] } },
{ "type": "Feature", "properties": { "ID": "P_TOUR_58_xx_11_2023", "x_L93": 632676.317, "y_L93": 7079584.78, "BASE_BIBLI": "du 01 au 15 nov 2023", "BASE_BIB_1": "34 impasse du long jardin", "BASE_BIB_2": "Tournehem-sur-la-Hem", "BASE_BIB_3": "listing des maisons inondées par ruissellement ou débordement de la Hem en novembre 2023\npas d'indication de hauteur", "BASE_BIB_4": "ZIC-2023-002", "BASE_BIB_5": 3, "BASE_BIB_6": null, "BASE_BIB_7": null, "BASE_BIB_8": "Débordement", "BASE_BIB_9": "ATELIER", "BASE_BIB10": null }, "geometry": { "type": "Point", "coordinates": [ 2.04667147482765, 50.809050557714208 ] } },
{ "type": "Feature", "properties": { "ID": "P_TOUR_59_xx_11_2023", "x_L93": 632694.656, "y_L93": 7079585.338, "BASE_BIBLI": "du 01 au 15 nov 2023", "BASE_BIB_1": "50 impasse du long jardin", "BASE_BIB_2": "Tournehem-sur-la-Hem", "BASE_BIB_3": "listing des maisons inondées par ruissellement ou débordement de la Hem en novembre 2023\npas d'indication de hauteur", "BASE_BIB_4": "ZIC-2023-002", "BASE_BIB_5": 3, "BASE_BIB_6": null, "BASE_BIB_7": null, "BASE_BIB_8": "Débordement", "BASE_BIB_9": "ATELIER", "BASE_BIB10": null }, "geometry": { "type": "Point", "coordinates": [ 2.046931051105461, 50.809057548650429 ] } },
{ "type": "Feature", "properties": { "ID": "P_TOUR_60_xx_11_2023", "x_L93": 632763.204, "y_L93": 7079605.561, "BASE_BIBLI": "du 01 au 15 nov 2023", "BASE_BIB_1": "122 impasse du long jardin", "BASE_BIB_2": "Tournehem-sur-la-Hem", "BASE_BIB_3": "listing des maisons inondées par ruissellement ou débordement de la Hem en novembre 2023\npas d'indication de hauteur", "BASE_BIB_4": "ZIC-2023-002", "BASE_BIB_5": 3, "BASE_BIB_6": null, "BASE_BIB_7": null, "BASE_BIB_8": "Débordement", "BASE_BIB_9": "ATELIER", "BASE_BIB10": null }, "geometry": { "type": "Point", "coordinates": [ 2.047898158453817, 50.809246388423574 ] } },
{ "type": "Feature", "properties": { "ID": "P_TOUR_61_xx_11_2023", "x_L93": 632800.58, "y_L93": 7079619.089, "BASE_BIBLI": "du 01 au 15 nov 2023", "BASE_BIB_1": "160 impasse du long jardin", "BASE_BIB_2": "Tournehem-sur-la-Hem", "BASE_BIB_3": "listing des maisons inondées par ruissellement ou débordement de la Hem en novembre 2023\npas d'indication de hauteur", "BASE_BIB_4": "ZIC-2023-002", "BASE_BIB_5": 3, "BASE_BIB_6": null, "BASE_BIB_7": null, "BASE_BIB_8": "Débordement", "BASE_BIB_9": "ATELIER", "BASE_BIB10": null }, "geometry": { "type": "Point", "coordinates": [ 2.048425068906955, 50.809371794828479 ] } },
{ "type": "Feature", "properties": { "ID": "P_TOUR_62_xx_11_2023", "x_L93": 632747.862, "y_L93": 7079047.421, "BASE_BIBLI": "du 01 au 15 nov 2023", "BASE_BIB_1": "70 rue de Valenciennes", "BASE_BIB_2": "Tournehem-sur-la-Hem", "BASE_BIB_3": "listing des maisons inondées par ruissellement ou débordement de la Hem en novembre 2023\npas d'indication de hauteur", "BASE_BIB_4": "ZIC-2023-002", "BASE_BIB_5": 3, "BASE_BIB_6": null, "BASE_BIB_7": null, "BASE_BIB_8": "Ruissellement", "BASE_BIB_9": "ATELIER", "BASE_BIB10": null }, "geometry": { "type": "Point", "coordinates": [ 2.047776247044479, 50.804237497224328 ] } },
{ "type": "Feature", "properties": { "ID": "P_TOUR_63_xx_11_2023", "x_L93": 632763.761, "y_L93": 7079040.447, "BASE_BIBLI": "du 01 au 15 nov 2023", "BASE_BIB_1": "81 rue de Valenciennes", "BASE_BIB_2": "Tournehem-sur-la-Hem", "BASE_BIB_3": "listing des maisons inondées par ruissellement ou débordement de la Hem en novembre 2023\npas d'indication de hauteur", "BASE_BIB_4": "ZIC-2023-002", "BASE_BIB_5": 3, "BASE_BIB_6": null, "BASE_BIB_7": null, "BASE_BIB_8": "Ruissellement", "BASE_BIB_9": "ATELIER", "BASE_BIB10": null }, "geometry": { "type": "Point", "coordinates": [ 2.048002530305618, 50.80417665781254 ] } },
{ "type": "Feature", "properties": { "ID": "P_TOUR_64_xx_11_2023", "x_L93": 632541.24, "y_L93": 7079162.209, "BASE_BIBLI": "du 01 au 15 nov 2023", "BASE_BIB_1": "154 rue du marché aux chevaux", "BASE_BIB_2": "Tournehem-sur-la-Hem", "BASE_BIB_3": "listing des maisons inondées par ruissellement ou débordement de la Hem en novembre 2023\npas d'indication de hauteur", "BASE_BIB_4": "ZIC-2023-002", "BASE_BIB_5": 3, "BASE_BIB_6": null, "BASE_BIB_7": null, "BASE_BIB_8": "Débordement", "BASE_BIB_9": "ATELIER", "BASE_BIB10": null }, "geometry": { "type": "Point", "coordinates": [ 2.04483129886075, 50.805244911004081 ] } },
{ "type": "Feature", "properties": { "ID": "P_TOUR_65_xx_11_2023", "x_L93": 632443.549, "y_L93": 7079098.046, "BASE_BIBLI": "du 01 au 15 nov 2023", "BASE_BIB_1": "254 rue du marché aux chevaux", "BASE_BIB_2": "Tournehem-sur-la-Hem", "BASE_BIB_3": "listing des maisons inondées par ruissellement ou débordement de la Hem en novembre 2023\npas d'indication de hauteur", "BASE_BIB_4": "ZIC-2023-002", "BASE_BIB_5": 3, "BASE_BIB_6": null, "BASE_BIB_7": null, "BASE_BIB_8": "Débordement", "BASE_BIB_9": "ATELIER", "BASE_BIB10": null }, "geometry": { "type": "Point", "coordinates": [ 2.043459209183304, 50.804658678934274 ] } },
{ "type": "Feature", "properties": { "ID": "P_TOUR_66_xx_11_2023", "x_L93": 631561.013, "y_L93": 7078626.654, "BASE_BIBLI": "du 01 au 15 nov 2023", "BASE_BIB_1": "222 rue du mont Saint Louis", "BASE_BIB_2": "Tournehem-sur-la-Hem", "BASE_BIB_3": "listing des maisons inondées par ruissellement ou débordement de la Hem en novembre 2023\npas d'indication de hauteur", "BASE_BIB_4": "ZIC-2023-002", "BASE_BIB_5": 3, "BASE_BIB_6": null, "BASE_BIB_7": null, "BASE_BIB_8": "Débordement", "BASE_BIB_9": "ATELIER", "BASE_BIB10": null }, "geometry": { "type": "Point", "coordinates": [ 2.031046403099456, 50.800333123260067 ] } },
{ "type": "Feature", "properties": { "ID": "P_TOUR_67_xx_11_2023", "x_L93": 631687.508, "y_L93": 7078725.116, "BASE_BIBLI": "du 01 au 15 nov 2023", "BASE_BIB_1": "rue du Pont de Fer", "BASE_BIB_2": "Tournehem-sur-la-Hem", "BASE_BIB_3": "listing des maisons inondées par ruissellement ou débordement de la Hem en novembre 2023\npas d'indication de hauteur : environ 15 mobil-homes", "BASE_BIB_4": "ZIC-2023-002", "BASE_BIB_5": 3, "BASE_BIB_6": null, "BASE_BIB_7": null, "BASE_BIB_8": "Débordement", "BASE_BIB_9": "ATELIER", "BASE_BIB10": null }, "geometry": { "type": "Point", "coordinates": [ 2.032820056234019, 50.801230377384258 ] } },
{ "type": "Feature", "properties": { "ID": "P_TOUR_68_xx_11_2023", "x_L93": 631716.377, "y_L93": 7078892.754, "BASE_BIBLI": "du 01 au 15 nov 2023", "BASE_BIB_1": "1015 route de Guemy", "BASE_BIB_2": "Tournehem-sur-la-Hem", "BASE_BIB_3": "listing des maisons inondées par ruissellement ou débordement de la Hem en novembre 2023\npas d'indication de hauteur", "BASE_BIB_4": "ZIC-2023-002", "BASE_BIB_5": 3, "BASE_BIB_6": null, "BASE_BIB_7": null, "BASE_BIB_8": "Débordement", "BASE_BIB_9": "ATELIER", "BASE_BIB10": null }, "geometry": { "type": "Point", "coordinates": [ 2.033199693704875, 50.802737477905495 ] } },
{ "type": "Feature", "properties": { "ID": "P_MUNC_69_xx_11_2023", "x_L93": 637936.253, "y_L93": 7085526.512, "BASE_BIBLI": "du 01 au 15 nov 2023", "BASE_BIB_1": "rue de Robecq", "BASE_BIB_2": "Muncq-Nieurlet", "BASE_BIB_3": "inondé, voiture sous l'eau, pas de hauteru précise", "BASE_BIB_4": "ZIC-2023-002", "BASE_BIB_5": 3, "BASE_BIB_6": null, "BASE_BIB_7": null, "BASE_BIB_8": "Débordement", "BASE_BIB_9": "ATELIER", "BASE_BIB10": null }, "geometry": { "type": "Point", "coordinates": [ 2.12021031156701, 50.862901130145971 ] } },
{ "type": "Feature", "properties": { "ID": "P_POLI_70_xx_11_2023", "x_L93": 637643.376, "y_L93": 7087184.588, "BASE_BIBLI": "du 01 au 15 nov 2023", "BASE_BIB_1": "le Marais", "BASE_BIB_2": "Polincove", "BASE_BIB_3": "ouvrage à surversé, environ 20 cm", "BASE_BIB_4": "ZIC-2023-002", "BASE_BIB_5": 2, "BASE_BIB_6": 0.2, "BASE_BIB_7": "R", "BASE_BIB_8": "Débordement", "BASE_BIB_9": "ATELIER", "BASE_BIB10": null }, "geometry": { "type": "Point", "coordinates": [ 2.115795770221016, 50.877745532304019 ] } },
{ "type": "Feature", "properties": { "ID": "P_POLI_71_xx_11_2023", "x_L93": 636028.256, "y_L93": 7083636.478, "BASE_BIBLI": "du 01 au 15 nov 2023", "BASE_BIB_1": "le Moulin Bleu", "BASE_BIB_2": "Polincove", "BASE_BIB_3": null, "BASE_BIB_4": "ZIC-2023-002", "BASE_BIB_5": 3, "BASE_BIB_6": null, "BASE_BIB_7": null, "BASE_BIB_8": "Débordement", "BASE_BIB_9": "ATELIER", "BASE_BIB10": null }, "geometry": { "type": "Point", "coordinates": [ 2.093473261764156, 50.845752591985359 ] } },
{ "type": "Feature", "properties": { "ID": "P_HAUT_72_xx_11_2023", "x_L93": 627251.313, "y_L93": 7071963.957, "BASE_BIBLI": "du 01 au 15 nov 2023", "BASE_BIB_1": "croisement rue de la manuette et route d'Alquines", "BASE_BIB_2": "Haut-Loquin", "BASE_BIB_3": "débordement quelques centimètres d'eau", "BASE_BIB_4": "ZIC-2023-002", "BASE_BIB_5": 3, "BASE_BIB_6": null, "BASE_BIB_7": null, "BASE_BIB_8": "Débordement", "BASE_BIB_9": "ATELIER", "BASE_BIB10": null }, "geometry": { "type": "Point", "coordinates": [ 1.971265612938208, 50.740068181322165 ] } },
{ "type": "Feature", "properties": { "ID": "P_HAUT_73_xx_11_2023", "x_L93": 627266.543, "y_L93": 7071986.216, "BASE_BIBLI": "du 01 au 15 nov 2023", "BASE_BIB_1": "croisement rue de la manuette et route d'Alquines", "BASE_BIB_2": "Haut-Loquin", "BASE_BIB_3": "débordement quelques centimètres d'eau", "BASE_BIB_4": "ZIC-2023-002", "BASE_BIB_5": 3, "BASE_BIB_6": null, "BASE_BIB_7": null, "BASE_BIB_8": "Débordement", "BASE_BIB_9": "ATELIER", "BASE_BIB10": null }, "geometry": { "type": "Point", "coordinates": [ 1.971476849874675, 50.740269667928686 ] } },
{ "type": "Feature", "properties": { "ID": "P_REBE_74_xx_11_2023", "x_L93": 626047.79, "y_L93": 7072768.377, "BASE_BIBLI": "du 01 au 15 nov 2023", "BASE_BIB_1": "route du Rougemont", "BASE_BIB_2": "Rebergues", "BASE_BIB_3": "1 cm d'eau dans les jardins", "BASE_BIB_4": "ZIC-2023-002", "BASE_BIB_5": 2, "BASE_BIB_6": 0.01, "BASE_BIB_7": "R", "BASE_BIB_8": "Ruissellement", "BASE_BIB_9": "ATELIER", "BASE_BIB10": null }, "geometry": { "type": "Point", "coordinates": [ 1.954097984194434, 50.747143590662603 ] } },
{ "type": "Feature", "properties": { "ID": "P_REBE_75_xx_11_2023", "x_L93": 626059.366, "y_L93": 7072898.023, "BASE_BIBLI": "du 01 au 15 nov 2023", "BASE_BIB_1": "route du Rougemont", "BASE_BIB_2": "Rebergues", "BASE_BIB_3": "1 cm d'eau dans les jardins", "BASE_BIB_4": "ZIC-2023-002", "BASE_BIB_5": 2, "BASE_BIB_6": 0.01, "BASE_BIB_7": "R", "BASE_BIB_8": "Ruissellement", "BASE_BIB_9": "ATELIER", "BASE_BIB10": null }, "geometry": { "type": "Point", "coordinates": [ 1.954237394948643, 50.748308142404518 ] } },
{ "type": "Feature", "properties": { "ID": "P_REBE_76_xx_11_2023", "x_L93": 626043.491, "y_L93": 7072912.905, "BASE_BIBLI": "du 01 au 15 nov 2023", "BASE_BIB_1": "route du Rougemont", "BASE_BIB_2": "Rebergues", "BASE_BIB_3": "1 cm d'eau dans les jardins", "BASE_BIB_4": "ZIC-2023-002", "BASE_BIB_5": 2, "BASE_BIB_6": 0.01, "BASE_BIB_7": "R", "BASE_BIB_8": "Ruissellement", "BASE_BIB_9": "ATELIER", "BASE_BIB10": null }, "geometry": { "type": "Point", "coordinates": [ 1.954010108594069, 50.748439783521839 ] } },
{ "type": "Feature", "properties": { "ID": "P_REBE_77_xx_11_2023", "x_L93": 627143.496, "y_L93": 7073922.291, "BASE_BIBLI": "du 01 au 15 nov 2023", "BASE_BIB_1": "rue de la commune", "BASE_BIB_2": "Rebergues", "BASE_BIB_3": "pont submergé", "BASE_BIB_4": "ZIC-2023-002", "BASE_BIB_5": 3, "BASE_BIB_6": null, "BASE_BIB_7": null, "BASE_BIB_8": "Débordement", "BASE_BIB_9": "ATELIER", "BASE_BIB10": null }, "geometry": { "type": "Point", "coordinates": [ 1.969379723383275, 50.757625659282446 ] } },
{ "type": "Feature", "properties": { "ID": "P_REBE_78_xx_11_2023", "x_L93": 626560.751, "y_L93": 7073592.223, "BASE_BIBLI": "du 01 au 15 nov 2023", "BASE_BIB_1": "rue de l'Eglise", "BASE_BIB_2": "Rebergues", "BASE_BIB_3": "4-5 cm d'eau", "BASE_BIB_4": "ZIC-2023-002", "BASE_BIB_5": 2, "BASE_BIB_6": 0.05, "BASE_BIB_7": "R", "BASE_BIB_8": "Ruissellement", "BASE_BIB_9": "ATELIER", "BASE_BIB10": null }, "geometry": { "type": "Point", "coordinates": [ 1.961198647028773, 50.754595825220953 ] } },
{ "type": "Feature", "properties": { "ID": "P_REBE_79_xx_11_2023", "x_L93": 626429.452, "y_L93": 7073705.333, "BASE_BIBLI": "du 01 au 15 nov 2023", "BASE_BIB_1": "rue de l'Eglise", "BASE_BIB_2": "Rebergues", "BASE_BIB_3": null, "BASE_BIB_4": "ZIC-2023-002", "BASE_BIB_5": 3, "BASE_BIB_6": null, "BASE_BIB_7": null, "BASE_BIB_8": "Ruissellement", "BASE_BIB_9": "ATELIER", "BASE_BIB10": null }, "geometry": { "type": "Point", "coordinates": [ 1.959320540055037, 50.755595114505887 ] } },
{ "type": "Feature", "properties": { "ID": "P_REBE_80_xx_11_2023", "x_L93": 626245.732, "y_L93": 7074849.49, "BASE_BIBLI": "du 01 au 15 nov 2023", "BASE_BIB_1": "Route de Licques", "BASE_BIB_2": "Rebergues", "BASE_BIB_3": "Pont submergé", "BASE_BIB_4": "ZIC-2023-002", "BASE_BIB_5": 3, "BASE_BIB_6": null, "BASE_BIB_7": null, "BASE_BIB_8": "Débordement", "BASE_BIB_9": "ATELIER", "BASE_BIB10": null }, "geometry": { "type": "Point", "coordinates": [ 1.956508195900045, 50.765838490697682 ] } },
{ "type": "Feature", "properties": { "ID": "P_SANG_81_xx_11_2023", "x_L93": 622246.224, "y_L93": 7075320.448, "BASE_BIBLI": "du 01 au 15 nov 2023", "BASE_BIB_1": "route de Boulogne", "BASE_BIB_2": "Sanghen", "BASE_BIB_3": "route effondrée", "BASE_BIB_4": "ZIC-2023-002", "BASE_BIB_5": 3, "BASE_BIB_6": null, "BASE_BIB_7": null, "BASE_BIB_8": "Ruissellement", "BASE_BIB_9": "ATELIER", "BASE_BIB10": null }, "geometry": { "type": "Point", "coordinates": [ 1.899836572110303, 50.769576669455837 ] } },
{ "type": "Feature", "properties": { "ID": "P_SANG_82_xx_11_2023", "x_L93": 622596.135, "y_L93": 7075860.86, "BASE_BIBLI": "du 01 au 15 nov 2023", "BASE_BIB_1": "Ferme Pérard", "BASE_BIB_2": "Sanghen", "BASE_BIB_3": "4 coulées de boue, 30 m de large sur 30 à 40 cm de haut", "BASE_BIB_4": "ZIC-2023-002", "BASE_BIB_5": 2, "BASE_BIB_6": 0.4, "BASE_BIB_7": "R", "BASE_BIB_8": "Ruissellement", "BASE_BIB_9": "ATELIER", "BASE_BIB10": null }, "geometry": { "type": "Point", "coordinates": [ 1.904680886328252, 50.774468637606091 ] } },
{ "type": "Feature", "properties": { "ID": "P_RUMI_83_NC", "x_L93": 640370.182, "y_L93": 7084838.586, "BASE_BIBLI": "NC", "BASE_BIB_1": "petit chemin de l'Eglise", "BASE_BIB_2": "Ruminghem", "BASE_BIB_3": "Débordement du watergang Beck du curé\ndans la rivière de la Liette", "BASE_BIB_4": "ZIC-NC", "BASE_BIB_5": 3, "BASE_BIB_6": null, "BASE_BIB_7": null, "BASE_BIB_8": "Débordement", "BASE_BIB_9": "ATELIER", "BASE_BIB10": null }, "geometry": { "type": "Point", "coordinates": [ 2.154814360338931, 50.856968470706683 ] } },
{ "type": "Feature", "properties": { "ID": "P_RECQ_84_xx_11_2023", "x_L93": 635521.858, "y_L93": 7082289.491, "BASE_BIBLI": "du 01 au 15 nov 2023", "BASE_BIB_1": "rue basse", "BASE_BIB_2": "Recques-sur-Hem", "BASE_BIB_3": "70 cm", "BASE_BIB_4": "ZIC-2023-002", "BASE_BIB_5": 2, "BASE_BIB_6": 0.7, "BASE_BIB_7": "R", "BASE_BIB_8": "Débordement", "BASE_BIB_9": "ATELIER", "BASE_BIB10": null }, "geometry": { "type": "Point", "coordinates": [ 2.086518677232836, 50.833616568933238 ] } },
{ "type": "Feature", "properties": { "ID": "P_RECQ_85_xx_11_2023", "x_L93": 635530.87, "y_L93": 7082278.701, "BASE_BIBLI": "du 01 au 15 nov 2023", "BASE_BIB_1": "Station de Recques", "BASE_BIB_2": "Recques-sur-Hem", "BASE_BIB_3": "Hauteur estimée 2,68 m puisque les capteurs étaient sous l'eau. Dans la nuit du 14 au 15 novembre 2023, la Hem s'étendait sur 1 km de large", "BASE_BIB_4": "ZIC-2023-002", "BASE_BIB_5": 3, "BASE_BIB_6": null, "BASE_BIB_7": null, "BASE_BIB_8": "Débordement", "BASE_BIB_9": "QUESTIONNAIRE", "BASE_BIB10": null }, "geometry": { "type": "Point", "coordinates": [ 2.086648114915642, 50.833520707197522 ] } },
{ "type": "Feature", "properties": { "ID": "P_RECQ_86_xx_11_2023", "x_L93": 635881.112, "y_L93": 7082743.871, "BASE_BIBLI": "du 01 au 15 nov 2023", "BASE_BIB_1": "pont de la RD217", "BASE_BIB_2": "Recques-sur-Hem", "BASE_BIB_3": "Il m'a été précisé qu'en novembre la montée des eaux a été équivalente (voire un peu plus) que le repère sur le parapet du pont de la RD217 (année 1891)", "BASE_BIB_4": "ZIC-2023-002", "BASE_BIB_5": 2, "BASE_BIB_6": null, "BASE_BIB_7": "R", "BASE_BIB_8": "Débordement", "BASE_BIB_9": "QUESTIONNAIRE", "BASE_BIB10": null }, "geometry": { "type": "Point", "coordinates": [ 2.091533836119102, 50.837729970395955 ] } },
{ "type": "Feature", "properties": { "ID": "P_BONN_87_26_11_2009", "x_L93": 631133.165, "y_L93": 7076252.319, "BASE_BIBLI": "2009/11/26", "BASE_BIB_1": "Impasse du héricat", "BASE_BIB_2": "Bonningues-lès-Ardres", "BASE_BIB_3": "voirie degradée", "BASE_BIB_4": "ZIC-2009-002", "BASE_BIB_5": 3, "BASE_BIB_6": null, "BASE_BIB_7": null, "BASE_BIB_8": "Ruissellement", "BASE_BIB_9": "QUESTIONNAIRE", "BASE_BIB10": null }, "geometry": { "type": "Point", "coordinates": [ 2.025404459100701, 50.77898457117584 ] } },
{ "type": "Feature", "properties": { "ID": "P_BONN_88_26_11_2009", "x_L93": 630898.099, "y_L93": 7078294.158, "BASE_BIBLI": "2009/11/26", "BASE_BIB_1": "72 rue de Bremes", "BASE_BIB_2": "Bonningues-lès-Ardres", "BASE_BIB_3": "maison touchée par les inondations 20 à 50 cm", "BASE_BIB_4": "ZIC-2009-002", "BASE_BIB_5": 3, "BASE_BIB_6": null, "BASE_BIB_7": null, "BASE_BIB_8": "Non précisé", "BASE_BIB_9": "QUESTIONNAIRE", "BASE_BIB10": null }, "geometry": { "type": "Point", "coordinates": [ 2.021720197522583, 50.797276854578016 ] } },
{ "type": "Feature", "properties": { "ID": "P_BONN_89_26_11_2009", "x_L93": 630836.004, "y_L93": 7078227.062, "BASE_BIBLI": "2009/11/26", "BASE_BIB_1": "64 rue de Bremes", "BASE_BIB_2": "Bonningues-lès-Ardres", "BASE_BIB_3": "maison touchée par les inondations 20 à 50 cm", "BASE_BIB_4": "ZIC-2009-002", "BASE_BIB_5": 3, "BASE_BIB_6": null, "BASE_BIB_7": null, "BASE_BIB_8": "Non précisé", "BASE_BIB_9": "QUESTIONNAIRE", "BASE_BIB10": null }, "geometry": { "type": "Point", "coordinates": [ 2.020852991598871, 50.796667999898702 ] } },
{ "type": "Feature", "properties": { "ID": "P_BONN_90_26_11_2009", "x_L93": 630852.458, "y_L93": 7078233.263, "BASE_BIBLI": "2009/11/26", "BASE_BIB_1": "68 rue de Bremes", "BASE_BIB_2": "Bonningues-lès-Ardres", "BASE_BIB_3": "maison touchée par les inondations 20 à 50 cm", "BASE_BIB_4": "ZIC-2009-002", "BASE_BIB_5": 3, "BASE_BIB_6": null, "BASE_BIB_7": null, "BASE_BIB_8": "Non précisé", "BASE_BIB_9": "QUESTIONNAIRE", "BASE_BIB10": null }, "geometry": { "type": "Point", "coordinates": [ 2.021084813723585, 50.796725463271905 ] } },
{ "type": "Feature", "properties": { "ID": "P_BONN_91_26_11_2009", "x_L93": 630876.188, "y_L93": 7078238.141, "BASE_BIBLI": "2009/11/26", "BASE_BIB_1": "70 rue de Bremes", "BASE_BIB_2": "Bonningues-lès-Ardres", "BASE_BIB_3": "maison touchée par les inondations 20 à 50 cm", "BASE_BIB_4": "ZIC-2009-002", "BASE_BIB_5": 3, "BASE_BIB_6": null, "BASE_BIB_7": null, "BASE_BIB_8": "Non précisé", "BASE_BIB_9": "QUESTIONNAIRE", "BASE_BIB10": null }, "geometry": { "type": "Point", "coordinates": [ 2.021419864270954, 50.796771866870799 ] } },
{ "type": "Feature", "properties": { "ID": "P_BONN_92_26_11_2009", "x_L93": 630791.273, "y_L93": 7077999.024, "BASE_BIBLI": "2009/11/26", "BASE_BIB_1": "23 rue de Licques", "BASE_BIB_2": "Bonningues-lès-Ardres", "BASE_BIB_3": "maison touchée par les inondations 20 à 50 cm", "BASE_BIB_4": "ZIC-2009-002", "BASE_BIB_5": 3, "BASE_BIB_6": null, "BASE_BIB_7": null, "BASE_BIB_8": "Non précisé", "BASE_BIB_9": "QUESTIONNAIRE", "BASE_BIB10": null }, "geometry": { "type": "Point", "coordinates": [ 2.020259856760678, 50.794617205327526 ] } },
{ "type": "Feature", "properties": { "ID": "P_BONN_93_26_11_2009", "x_L93": 630911.328, "y_L93": 7078074.926, "BASE_BIBLI": "2009/11/26", "BASE_BIB_1": "12 rue de Licques", "BASE_BIB_2": "Bonningues-lès-Ardres", "BASE_BIB_3": "maison touchée par les inondations 20 à 50 cm", "BASE_BIB_4": "ZIC-2009-002", "BASE_BIB_5": 3, "BASE_BIB_6": null, "BASE_BIB_7": null, "BASE_BIB_8": "Non précisé", "BASE_BIB_9": "QUESTIONNAIRE", "BASE_BIB10": null }, "geometry": { "type": "Point", "coordinates": [ 2.02194590570069, 50.795311508909698 ] } },
{ "type": "Feature", "properties": { "ID": "P_BONN_94_26_11_2009", "x_L93": 630962.426, "y_L93": 7078070.131, "BASE_BIBLI": "2009/11/26", "BASE_BIB_1": "9 rue de Licques", "BASE_BIB_2": "Bonningues-lès-Ardres", "BASE_BIB_3": "maison touchée par les inondations 20 à 50 cm", "BASE_BIB_4": "ZIC-2009-002", "BASE_BIB_5": 3, "BASE_BIB_6": null, "BASE_BIB_7": null, "BASE_BIB_8": "Non précisé", "BASE_BIB_9": "QUESTIONNAIRE", "BASE_BIB10": null }, "geometry": { "type": "Point", "coordinates": [ 2.022670036221643, 50.795274162193536 ] } },
{ "type": "Feature", "properties": { "ID": "P_BONN_95_xx_11_2023", "x_L93": 630898.099, "y_L93": 7078294.158, "BASE_BIBLI": "du 01 au 15 nov 2023", "BASE_BIB_1": "72 rue de Bremes", "BASE_BIB_2": "Bonningues-lès-Ardres", "BASE_BIB_3": "maison touchée par les inondations 20 à 50 cm", "BASE_BIB_4": "ZIC-2023-002", "BASE_BIB_5": 3, "BASE_BIB_6": null, "BASE_BIB_7": null, "BASE_BIB_8": "Débordement", "BASE_BIB_9": "QUESTIONNAIRE", "BASE_BIB10": null }, "geometry": { "type": "Point", "coordinates": [ 2.021720197522583, 50.797276854578016 ] } },
{ "type": "Feature", "properties": { "ID": "P_BONN_96_xx_11_2023", "x_L93": 630836.004, "y_L93": 7078227.062, "BASE_BIBLI": "du 01 au 15 nov 2023", "BASE_BIB_1": "64 rue de Bremes", "BASE_BIB_2": "Bonningues-lès-Ardres", "BASE_BIB_3": "maison touchée par les inondations 20 à 50 cm", "BASE_BIB_4": "ZIC-2023-002", "BASE_BIB_5": 3, "BASE_BIB_6": null, "BASE_BIB_7": null, "BASE_BIB_8": "Non précisé", "BASE_BIB_9": "QUESTIONNAIRE", "BASE_BIB10": null }, "geometry": { "type": "Point", "coordinates": [ 2.020852991598871, 50.796667999898702 ] } },
{ "type": "Feature", "properties": { "ID": "P_BONN_97_xx_11_2023", "x_L93": 630852.458, "y_L93": 7078233.263, "BASE_BIBLI": "du 01 au 15 nov 2023", "BASE_BIB_1": "68 rue de Bremes", "BASE_BIB_2": "Bonningues-lès-Ardres", "BASE_BIB_3": "maison touchée par les inondations 20 à 50 cm", "BASE_BIB_4": "ZIC-2023-002", "BASE_BIB_5": 3, "BASE_BIB_6": null, "BASE_BIB_7": null, "BASE_BIB_8": "Non précisé", "BASE_BIB_9": "QUESTIONNAIRE", "BASE_BIB10": null }, "geometry": { "type": "Point", "coordinates": [ 2.021084813723585, 50.796725463271905 ] } },
{ "type": "Feature", "properties": { "ID": "P_BONN_98_xx_11_2023", "x_L93": 630876.188, "y_L93": 7078238.141, "BASE_BIBLI": "du 01 au 15 nov 2023", "BASE_BIB_1": "70 rue de Bremes", "BASE_BIB_2": "Bonningues-lès-Ardres", "BASE_BIB_3": "maison touchée par les inondations 20 à 50 cm", "BASE_BIB_4": "ZIC-2023-002", "BASE_BIB_5": 3, "BASE_BIB_6": null, "BASE_BIB_7": null, "BASE_BIB_8": "Non précisé", "BASE_BIB_9": "QUESTIONNAIRE", "BASE_BIB10": null }, "geometry": { "type": "Point", "coordinates": [ 2.021419864270954, 50.796771866870799 ] } },
{ "type": "Feature", "properties": { "ID": "P_BONN_99_xx_11_2023", "x_L93": 630791.273, "y_L93": 7077999.024, "BASE_BIBLI": "du 01 au 15 nov 2023", "BASE_BIB_1": "23 rue de Licques", "BASE_BIB_2": "Bonningues-lès-Ardres", "BASE_BIB_3": "maison touchée par les inondations 20 à 50 cm", "BASE_BIB_4": "ZIC-2023-002", "BASE_BIB_5": 3, "BASE_BIB_6": null, "BASE_BIB_7": null, "BASE_BIB_8": "Non précisé", "BASE_BIB_9": "QUESTIONNAIRE", "BASE_BIB10": null }, "geometry": { "type": "Point", "coordinates": [ 2.020259856760678, 50.794617205327526 ] } },
{ "type": "Feature", "properties": { "ID": "P_BONN_100_xx_11_2023", "x_L93": 630911.328, "y_L93": 7078074.926, "BASE_BIBLI": "du 01 au 15 nov 2023", "BASE_BIB_1": "12 rue de Licques", "BASE_BIB_2": "Bonningues-lès-Ardres", "BASE_BIB_3": "maison touchée par les inondations 20 à 50 cm", "BASE_BIB_4": "ZIC-2023-002", "BASE_BIB_5": 3, "BASE_BIB_6": null, "BASE_BIB_7": null, "BASE_BIB_8": "Non précisé", "BASE_BIB_9": "QUESTIONNAIRE", "BASE_BIB10": null }, "geometry": { "type": "Point", "coordinates": [ 2.02194590570069, 50.795311508909698 ] } },
{ "type": "Feature", "properties": { "ID": "P_BONN_101_xx_11_2023", "x_L93": 630962.426, "y_L93": 7078070.131, "BASE_BIBLI": "du 01 au 15 nov 2023", "BASE_BIB_1": "9 rue de Licques", "BASE_BIB_2": "Bonningues-lès-Ardres", "BASE_BIB_3": "maison touchée par les inondations 20 à 50 cm", "BASE_BIB_4": "ZIC-2023-002", "BASE_BIB_5": 3, "BASE_BIB_6": null, "BASE_BIB_7": null, "BASE_BIB_8": "Non précisé", "BASE_BIB_9": "QUESTIONNAIRE", "BASE_BIB10": null }, "geometry": { "type": "Point", "coordinates": [ 2.022670036221643, 50.795274162193536 ] } },
{ "type": "Feature", "properties": { "ID": "P_NORD_102_xx_11_2023", "x_L93": 635642.039, "y_L93": 7081687.716, "BASE_BIBLI": "du 01 au 15 nov 2023", "BASE_BIB_1": "rue basse", "BASE_BIB_2": "Nordausques", "BASE_BIB_3": "50 cm", "BASE_BIB_4": "ZIC-2023-002", "BASE_BIB_5": 2, "BASE_BIB_6": 0.5, "BASE_BIB_7": "R", "BASE_BIB_8": "Ruissellement", "BASE_BIB_9": "ATELIER", "BASE_BIB10": null }, "geometry": { "type": "Point", "coordinates": [ 2.088319600888281, 50.828230513425886 ] } },
{ "type": "Feature", "properties": { "ID": "P_ZUTK_103_xx_11_2023", "x_L93": 637077.955, "y_L93": 7085712.389, "BASE_BIBLI": "du 01 au 15 nov 2023", "BASE_BIB_1": "route de Gravelines", "BASE_BIB_2": "Zutkerque", "BASE_BIB_3": "souvent inondés 40 cm dans la maison en nov 2023", "BASE_BIB_4": "ZIC-2023-002", "BASE_BIB_5": 2, "BASE_BIB_6": 0.4, "BASE_BIB_7": "R", "BASE_BIB_8": "Débordement", "BASE_BIB_9": "ATELIER", "BASE_BIB10": null }, "geometry": { "type": "Point", "coordinates": [ 2.108014704085318, 50.864482167222945 ] } },
{ "type": "Feature", "properties": { "ID": "P_ZUTK_104_xx_11_2023", "x_L93": 636683.726, "y_L93": 7086228.988, "BASE_BIBLI": "du 01 au 15 nov 2023", "BASE_BIB_1": "rue de l'Oudrecq", "BASE_BIB_2": "Zutkerque", "BASE_BIB_3": "souvent inondés", "BASE_BIB_4": "ZIC-2023-002", "BASE_BIB_5": 3, "BASE_BIB_6": null, "BASE_BIB_7": null, "BASE_BIB_8": "Débordement", "BASE_BIB_9": "ATELIER", "BASE_BIB10": null }, "geometry": { "type": "Point", "coordinates": [ 2.102343327376565, 50.869076253328352 ] } },
{ "type": "Feature", "properties": { "ID": "P_ZUTK_105_xx_11_2023", "x_L93": 636324.554, "y_L93": 7086243.54, "BASE_BIBLI": "du 01 au 15 nov 2023", "BASE_BIB_1": "rue de la Palme", "BASE_BIB_2": "Zutkerque", "BASE_BIB_3": null, "BASE_BIB_4": "ZIC-2023-002", "BASE_BIB_5": 3, "BASE_BIB_6": null, "BASE_BIB_7": null, "BASE_BIB_8": "Débordement", "BASE_BIB_9": "ATELIER", "BASE_BIB10": null }, "geometry": { "type": "Point", "coordinates": [ 2.097249307623263, 50.869170059509884 ] } },
{ "type": "Feature", "properties": { "ID": "P_ZOUA_106_xx_11_2023", "x_L93": 633493.264, "y_L93": 7080203.681, "BASE_BIBLI": "du 01 au 15 nov 2023", "BASE_BIB_1": "28 rue de la placette", "BASE_BIB_2": "Zouafques", "BASE_BIB_3": "10 à 20 cm d'eau dans la maison + jardin", "BASE_BIB_4": "ZIC-2023-002", "BASE_BIB_5": 2, "BASE_BIB_6": 0.2, "BASE_BIB_7": "R", "BASE_BIB_8": "Débordement", "BASE_BIB_9": "ATELIER", "BASE_BIB10": null }, "geometry": { "type": "Point", "coordinates": [ 2.058134121285024, 50.814690808085444 ] } },
{ "type": "Feature", "properties": { "ID": "P_ZOUA_107_xx_11_2023", "x_L93": 633389.084, "y_L93": 7080050.554, "BASE_BIBLI": "du 01 au 15 nov 2023", "BASE_BIB_1": "14 rue de la placette", "BASE_BIB_2": "Zouafques", "BASE_BIB_3": "eau dans la dépendance + jardin", "BASE_BIB_4": "ZIC-2023-002", "BASE_BIB_5": 3, "BASE_BIB_6": null, "BASE_BIB_7": null, "BASE_BIB_8": "Débordement", "BASE_BIB_9": "ATELIER", "BASE_BIB10": null }, "geometry": { "type": "Point", "coordinates": [ 2.056684778278214, 50.813305913620276 ] } },
{ "type": "Feature", "properties": { "ID": "P_ZOUA_108_xx_11_2023", "x_L93": 634629.484, "y_L93": 7080743.266, "BASE_BIBLI": "du 01 au 15 nov 2023", "BASE_BIB_1": "3 route nationale", "BASE_BIB_2": "Zouafques", "BASE_BIB_3": "eau dans la maison  le jardin", "BASE_BIB_4": "ZIC-2023-002", "BASE_BIB_5": 3, "BASE_BIB_6": null, "BASE_BIB_7": null, "BASE_BIB_8": "Non précisé", "BASE_BIB_9": "ATELIER", "BASE_BIB10": null }, "geometry": { "type": "Point", "coordinates": [ 2.074134142839634, 50.819652066337696 ] } },
{ "type": "Feature", "properties": { "ID": "P_ZOUA_109_xx_11_2023", "x_L93": 634605.672, "y_L93": 7080750.542, "BASE_BIBLI": "du 01 au 15 nov 2023", "BASE_BIB_1": "5 route nationale", "BASE_BIB_2": "Zouafques", "BASE_BIB_3": "eau dans la partie la plus basse de la maison", "BASE_BIB_4": "ZIC-2023-002", "BASE_BIB_5": 3, "BASE_BIB_6": null, "BASE_BIB_7": null, "BASE_BIB_8": "Non précisé", "BASE_BIB_9": "ATELIER", "BASE_BIB10": null }, "geometry": { "type": "Point", "coordinates": [ 2.073795700139455, 50.819714835289311 ] } },
{ "type": "Feature", "properties": { "ID": "P_ZOUA_110_xx_11_2023", "x_L93": 634427.739, "y_L93": 7080770.882, "BASE_BIBLI": "du 01 au 15 nov 2023", "BASE_BIB_1": "17 route nationale", "BASE_BIB_2": "Zouafques", "BASE_BIB_3": "eau dans la maison / dépendance ?", "BASE_BIB_4": "ZIC-2023-002", "BASE_BIB_5": 3, "BASE_BIB_6": null, "BASE_BIB_7": null, "BASE_BIB_8": "Non précisé", "BASE_BIB_9": "ATELIER", "BASE_BIB10": null }, "geometry": { "type": "Point", "coordinates": [ 2.071272422574398, 50.819878556819361 ] } },
{ "type": "Feature", "properties": { "ID": "P_ZOUA_111_xx_11_2023", "x_L93": 634413.849, "y_L93": 7080822.641, "BASE_BIBLI": "du 01 au 15 nov 2023", "BASE_BIB_1": "19 route nationale", "BASE_BIB_2": "Zouafques", "BASE_BIB_3": "eau dans la maison", "BASE_BIB_4": "ZIC-2023-002", "BASE_BIB_5": 3, "BASE_BIB_6": null, "BASE_BIB_7": null, "BASE_BIB_8": "Non précisé", "BASE_BIB_9": "ATELIER", "BASE_BIB10": null }, "geometry": { "type": "Point", "coordinates": [ 2.071067078145419, 50.820341428505678 ] } },
{ "type": "Feature", "properties": { "ID": "P_ZOUA_112_xx_11_2023", "x_L93": 634398.635, "y_L93": 7080834.217, "BASE_BIBLI": "du 01 au 15 nov 2023", "BASE_BIB_1": "21 route nationale", "BASE_BIB_2": "Zouafques", "BASE_BIB_3": "20 à 30 cm d'eau dans la maison", "BASE_BIB_4": "ZIC-2023-002", "BASE_BIB_5": 2, "BASE_BIB_6": 0.3, "BASE_BIB_7": "R", "BASE_BIB_8": "Non précisé", "BASE_BIB_9": "ATELIER", "BASE_BIB10": null }, "geometry": { "type": "Point", "coordinates": [ 2.070849691116407, 50.820443668049371 ] } },
{ "type": "Feature", "properties": { "ID": "P_ZOUA_113_xx_11_2023", "x_L93": 634566.976, "y_L93": 7080831.571, "BASE_BIBLI": "du 01 au 15 nov 2023", "BASE_BIB_1": "10 route nationale", "BASE_BIB_2": "Zouafques", "BASE_BIB_3": "eau dans les dépendances", "BASE_BIB_4": "ZIC-2023-002", "BASE_BIB_5": 3, "BASE_BIB_6": null, "BASE_BIB_7": null, "BASE_BIB_8": "Non précisé", "BASE_BIB_9": "ATELIER", "BASE_BIB10": null }, "geometry": { "type": "Point", "coordinates": [ 2.073234225310033, 50.82043768057774 ] } },
{ "type": "Feature", "properties": { "ID": "P_ZOUA_114_xx_11_2023", "x_L93": 634616.916, "y_L93": 7080776.174, "BASE_BIBLI": "du 01 au 15 nov 2023", "BASE_BIB_1": "4 et 6 route nationale", "BASE_BIB_2": "Zouafques", "BASE_BIB_3": "eau dans la maison léèrement et dans la cave + jardin", "BASE_BIB_4": "ZIC-2023-002", "BASE_BIB_5": 3, "BASE_BIB_6": null, "BASE_BIB_7": null, "BASE_BIB_8": "Non précisé", "BASE_BIB_9": "ATELIER", "BASE_BIB10": null }, "geometry": { "type": "Point", "coordinates": [ 2.07395069241875, 50.819945962241981 ] } },
{ "type": "Feature", "properties": { "ID": "P_ZOUA_115_xx_11_2023", "x_L93": 634310.992, "y_L93": 7080963.036, "BASE_BIBLI": "du 01 au 15 nov 2023", "BASE_BIB_1": "11 chemin de Recques", "BASE_BIB_2": "Zouafques", "BASE_BIB_3": "eau dans les jardins", "BASE_BIB_4": "ZIC-2023-002", "BASE_BIB_5": 3, "BASE_BIB_6": null, "BASE_BIB_7": null, "BASE_BIB_8": "Non précisé", "BASE_BIB_9": "ATELIER", "BASE_BIB10": null }, "geometry": { "type": "Point", "coordinates": [ 2.069586966364713, 50.82159005937303 ] } },
{ "type": "Feature", "properties": { "ID": "P_ZOUA_116_xx_11_2023", "x_L93": 634281.888, "y_L93": 7080992.47, "BASE_BIBLI": "du 01 au 15 nov 2023", "BASE_BIB_1": "15 chemin de Recques", "BASE_BIB_2": "Zouafques", "BASE_BIB_3": "eau dans les jardins", "BASE_BIB_4": "ZIC-2023-002", "BASE_BIB_5": 3, "BASE_BIB_6": null, "BASE_BIB_7": null, "BASE_BIB_8": "Non précisé", "BASE_BIB_9": "ATELIER", "BASE_BIB10": null }, "geometry": { "type": "Point", "coordinates": [ 2.069169861366773, 50.821851045509121 ] } },
{ "type": "Feature", "properties": { "ID": "P_ZOUA_117_xx_11_2023", "x_L93": 634270.312, "y_L93": 7081006.196, "BASE_BIBLI": "du 01 au 15 nov 2023", "BASE_BIB_1": "17 chemin de Recques", "BASE_BIB_2": "Zouafques", "BASE_BIB_3": "eau dans le garage", "BASE_BIB_4": "ZIC-2023-002", "BASE_BIB_5": 3, "BASE_BIB_6": null, "BASE_BIB_7": null, "BASE_BIB_8": "Non précisé", "BASE_BIB_9": "ATELIER", "BASE_BIB10": null }, "geometry": { "type": "Point", "coordinates": [ 2.069003629102164, 50.821972951863266 ] } },
{ "type": "Feature", "properties": { "ID": "P_MENT_118_xx_11_2023", "x_L93": 634133.17, "y_L93": 7073534.7, "BASE_BIBLI": "du 01 au 15 nov 2023", "BASE_BIB_1": "la Wattine, corisement rue de la motte et rue du Hurteau la Wattine", "BASE_BIB_2": "Mentque-Nortbécourt", "BASE_BIB_3": null, "BASE_BIB_4": "ZIC-2023-002", "BASE_BIB_5": 3, "BASE_BIB_6": null, "BASE_BIB_7": null, "BASE_BIB_8": "Ruissellement", "BASE_BIB_9": "ATELIER", "BASE_BIB10": null }, "geometry": { "type": "Point", "coordinates": [ 2.068309929608613, 50.754927480217667 ] } },
{ "type": "Feature", "properties": { "ID": "P_MENT_119_xx_11_2023", "x_L93": 635427.038, "y_L93": 7076413.856, "BASE_BIBLI": "du 01 au 15 nov 2023", "BASE_BIB_1": "rue de la basse Boulogne", "BASE_BIB_2": "Mentque-Nortbécourt", "BASE_BIB_3": "30 cm novembre 2023 + janv 2024", "BASE_BIB_4": "ZIC-2023-002", "BASE_BIB_5": 2, "BASE_BIB_6": 0.3, "BASE_BIB_7": "R", "BASE_BIB_8": "Ruissellement", "BASE_BIB_9": "ATELIER", "BASE_BIB10": null }, "geometry": { "type": "Point", "coordinates": [ 2.086138794308841, 50.780894502228826 ] } },
{ "type": "Feature", "properties": { "ID": "P_MENT_120_03_01_2024", "x_L93": 635427.038, "y_L93": 7076413.856, "BASE_BIBLI": "2024/01/03", "BASE_BIB_1": "rue de la basse Boulogne", "BASE_BIB_2": "Mentque-Nortbécourt", "BASE_BIB_3": "30 cm novembre 2023 + janv 2024", "BASE_BIB_4": "ZIC-2024-001", "BASE_BIB_5": 3, "BASE_BIB_6": 0.3, "BASE_BIB_7": null, "BASE_BIB_8": "Ruissellement", "BASE_BIB_9": "ATELIER", "BASE_BIB10": null }, "geometry": { "type": "Point", "coordinates": [ 2.086138794308841, 50.780894502228826 ] } },
{ "type": "Feature", "properties": { "ID": "P_CLER_121_xx_11_2023", "x_L93": 627028.148, "y_L93": 7076623.24, "BASE_BIBLI": "du 01 au 15 nov 2023", "BASE_BIB_1": null, "BASE_BIB_2": "Clerques", "BASE_BIB_3": "évenement du 1er au 2 novembre 23", "BASE_BIB_4": "ZIC-2023-002", "BASE_BIB_5": 1, "BASE_BIB_6": 0.34, "BASE_BIB_7": "R", "BASE_BIB_8": "Débordement", "BASE_BIB_9": "DDTM62", "BASE_BIB10": "10:55:00.000" }, "geometry": { "type": "Point", "coordinates": [ 1.967248523409347, 50.78184417169485 ] } },
{ "type": "Feature", "properties": { "ID": "P_RECQ_122_xx_11_2023", "x_L93": 635763.548, "y_L93": 7082752.39, "BASE_BIBLI": "du 01 au 15 nov 2023", "BASE_BIB_1": null, "BASE_BIB_2": "Recques-sur-Hem", "BASE_BIB_3": "évenement du 1er au 2 novembre 23", "BASE_BIB_4": "ZIC-2023-002", "BASE_BIB_5": 1, "BASE_BIB_6": 0.27, "BASE_BIB_7": "R", "BASE_BIB_8": "Débordement", "BASE_BIB_9": "DDTM62", "BASE_BIB10": "13:39:00.000" }, "geometry": { "type": "Point", "coordinates": [ 2.089866881474973, 50.837794249763597 ] } },
{ "type": "Feature", "properties": { "ID": "P_RECQ_123_xx_11_2023", "x_L93": 635725.088, "y_L93": 7082721.044, "BASE_BIBLI": "du 01 au 15 nov 2023", "BASE_BIB_1": null, "BASE_BIB_2": "Recques-sur-Hem", "BASE_BIB_3": "évenement du 1er au 2 novembre 23", "BASE_BIB_4": "ZIC-2023-002", "BASE_BIB_5": 1, "BASE_BIB_6": 0.52, "BASE_BIB_7": "R", "BASE_BIB_8": "Débordement", "BASE_BIB_9": "DDTM62", "BASE_BIB10": "13:42:00.000" }, "geometry": { "type": "Point", "coordinates": [ 2.08932712883212, 50.837509067365453 ] } },
{ "type": "Feature", "properties": { "ID": "P_LICQ_124_xx_11_2023", "x_L93": 625985.445, "y_L93": 7076152.107, "BASE_BIBLI": "du 01 au 15 nov 2023", "BASE_BIB_1": null, "BASE_BIB_2": "Licques", "BASE_BIB_3": "évenement du 14 novembre 2023", "BASE_BIB_4": "ZIC-2023-002", "BASE_BIB_5": 1, "BASE_BIB_6": 0.67, "BASE_BIB_7": "R", "BASE_BIB_8": "Débordement", "BASE_BIB_9": "DDTM62", "BASE_BIB10": "08:28:00.000" }, "geometry": { "type": "Point", "coordinates": [ 1.952581580156733, 50.777494161809777 ] } },
{ "type": "Feature", "properties": { "ID": "P_LICQ_125_xx_11_2023", "x_L93": 625011.572, "y_L93": 7076831.094, "BASE_BIBLI": "du 01 au 15 nov 2023", "BASE_BIB_1": null, "BASE_BIB_2": "Licques", "BASE_BIB_3": "évenement du 14 novembre 2023", "BASE_BIB_4": "ZIC-2023-002", "BASE_BIB_5": 1, "BASE_BIB_6": 0.45, "BASE_BIB_7": "R", "BASE_BIB_8": "Débordement", "BASE_BIB_9": "DDTM62", "BASE_BIB10": "08:39:00.000" }, "geometry": { "type": "Point", "coordinates": [ 1.938672310375856, 50.783469020652326 ] } },
{ "type": "Feature", "properties": { "ID": "P_LICQ_126_xx_11_2023", "x_L93": 626070.91, "y_L93": 7077069.559, "BASE_BIBLI": "du 01 au 15 nov 2023", "BASE_BIB_1": null, "BASE_BIB_2": "Licques", "BASE_BIB_3": "évenement du 14 novembre 2023", "BASE_BIB_4": "ZIC-2023-002", "BASE_BIB_5": 1, "BASE_BIB_6": 0.67, "BASE_BIB_7": "R", "BASE_BIB_8": "Débordement", "BASE_BIB_9": "DDTM62", "BASE_BIB10": "08:55:00.000" }, "geometry": { "type": "Point", "coordinates": [ 1.953618863989076, 50.785735242299673 ] } },
{ "type": "Feature", "properties": { "ID": "P_CLER_127_xx_11_2023", "x_L93": 627081.661, "y_L93": 7076588.689, "BASE_BIBLI": "du 01 au 15 nov 2023", "BASE_BIB_1": null, "BASE_BIB_2": "Clerques", "BASE_BIB_3": "évenement du 14 novembre 2023", "BASE_BIB_4": "ZIC-2023-002", "BASE_BIB_5": 1, "BASE_BIB_6": 0.48, "BASE_BIB_7": "R", "BASE_BIB_8": "Débordement", "BASE_BIB_9": "DDTM62", "BASE_BIB10": "09:05:00.000" }, "geometry": { "type": "Point", "coordinates": [ 1.968012178248207, 50.781540472496268 ] } },
{ "type": "Feature", "properties": { "ID": "P_CLER_128_xx_11_2023", "x_L93": 627345.917, "y_L93": 7076755.186, "BASE_BIBLI": "du 01 au 15 nov 2023", "BASE_BIB_1": null, "BASE_BIB_2": "Clerques", "BASE_BIB_3": "évenement du 14 novembre 2023", "BASE_BIB_4": "ZIC-2023-002", "BASE_BIB_5": 1, "BASE_BIB_6": 0.96, "BASE_BIB_7": "R", "BASE_BIB_8": "Débordement", "BASE_BIB_9": "DDTM62", "BASE_BIB10": "09:30:00.000" }, "geometry": { "type": "Point", "coordinates": [ 1.971720996632204, 50.783065133319525 ] } },
{ "type": "Feature", "properties": { "ID": "P_CLER_129_xx_11_2023", "x_L93": 629535.565, "y_L93": 7078015.591, "BASE_BIBLI": "du 01 au 15 nov 2023", "BASE_BIB_1": null, "BASE_BIB_2": "Clerques", "BASE_BIB_3": "évenement du 14 novembre 2023", "BASE_BIB_4": "ZIC-2023-002", "BASE_BIB_5": 1, "BASE_BIB_6": 0.85, "BASE_BIB_7": "R", "BASE_BIB_8": "Débordement", "BASE_BIB_9": "DDTM62", "BASE_BIB10": "09:42:00.000" }, "geometry": { "type": "Point", "coordinates": [ 2.00248256728217, 50.794624782543352 ] } },
{ "type": "Feature", "properties": { "ID": "P_CLER_130_xx_11_2023", "x_L93": 629569.219, "y_L93": 7078083.39, "BASE_BIBLI": "du 01 au 15 nov 2023", "BASE_BIB_1": null, "BASE_BIB_2": "Clerques", "BASE_BIB_3": "évenement du 14 novembre 2023", "BASE_BIB_4": "ZIC-2023-002", "BASE_BIB_5": 1, "BASE_BIB_6": 0.65, "BASE_BIB_7": "R", "BASE_BIB_8": "Débordement", "BASE_BIB_9": "DDTM62", "BASE_BIB10": "09:51:00.000" }, "geometry": { "type": "Point", "coordinates": [ 2.002946820141706, 50.79523684314789 ] } },
{ "type": "Feature", "properties": { "ID": "P_TOUR_131_xx_11_2023", "x_L93": 631460.625, "y_L93": 7078652.161, "BASE_BIBLI": "du 01 au 15 nov 2023", "BASE_BIB_1": null, "BASE_BIB_2": "Tournehem-sur-la-Hem", "BASE_BIB_3": "évenement du 14 novembre 2023", "BASE_BIB_4": "ZIC-2023-002", "BASE_BIB_5": 1, "BASE_BIB_6": 1.09, "BASE_BIB_7": "R", "BASE_BIB_8": "Débordement", "BASE_BIB_9": "DDTM62", "BASE_BIB10": "09:59:00.000" }, "geometry": { "type": "Point", "coordinates": [ 2.029620822926365, 50.800550900755923 ] } },
{ "type": "Feature", "properties": { "ID": "P_TOUR_132_xx_11_2023", "x_L93": 631772.65, "y_L93": 7078767.655, "BASE_BIBLI": "du 01 au 15 nov 2023", "BASE_BIB_1": null, "BASE_BIB_2": "Tournehem-sur-la-Hem", "BASE_BIB_3": "évenement du 14 novembre 2023", "BASE_BIB_4": "ZIC-2023-002", "BASE_BIB_5": 1, "BASE_BIB_6": 1.0, "BASE_BIB_7": "R", "BASE_BIB_8": "Débordement", "BASE_BIB_9": "DDTM62", "BASE_BIB10": "10:03:00.000" }, "geometry": { "type": "Point", "coordinates": [ 2.034018028017076, 50.801621357483143 ] } },
{ "type": "Feature", "properties": { "ID": "P_TOUR_133_xx_11_2023", "x_L93": 632704.174, "y_L93": 7079414.733, "BASE_BIBLI": "du 01 au 15 nov 2023", "BASE_BIB_1": null, "BASE_BIB_2": "Tournehem-sur-la-Hem", "BASE_BIB_3": "évenement du 14 novembre 2023", "BASE_BIB_4": "ZIC-2023-002", "BASE_BIB_5": 1, "BASE_BIB_6": 0.36, "BASE_BIB_7": "R", "BASE_BIB_8": "Débordement", "BASE_BIB_9": "DDTM62", "BASE_BIB10": "10:13:00.000" }, "geometry": { "type": "Point", "coordinates": [ 2.047094960071347, 50.807528035991879 ] } },
{ "type": "Feature", "properties": { "ID": "P_TOUR_134_xx_11_2023", "x_L93": 632761.077, "y_L93": 7079398.291, "BASE_BIBLI": "du 01 au 15 nov 2023", "BASE_BIB_1": null, "BASE_BIB_2": "Tournehem-sur-la-Hem", "BASE_BIB_3": "évenement du 14 novembre 2023", "BASE_BIB_4": "ZIC-2023-002", "BASE_BIB_5": 1, "BASE_BIB_6": 0.4, "BASE_BIB_7": "R", "BASE_BIB_8": "Débordement", "BASE_BIB_9": "DDTM62", "BASE_BIB10": "10:21:00.000" }, "geometry": { "type": "Point", "coordinates": [ 2.047903436892695, 50.807386688809309 ] } },
{ "type": "Feature", "properties": { "ID": "P_ZOUA_135_xx_11_2023", "x_L93": 634594.394, "y_L93": 7080747.039, "BASE_BIBLI": "du 01 au 15 nov 2023", "BASE_BIB_1": null, "BASE_BIB_2": "Zouafques", "BASE_BIB_3": "évenement du 14 novembre 2023", "BASE_BIB_4": "ZIC-2023-002", "BASE_BIB_5": 1, "BASE_BIB_6": 0.6, "BASE_BIB_7": "R", "BASE_BIB_8": "Débordement", "BASE_BIB_9": "DDTM62", "BASE_BIB10": "10:37:00.000" }, "geometry": { "type": "Point", "coordinates": [ 2.073636571037275, 50.819682223206641 ] } },
{ "type": "Feature", "properties": { "ID": "P_ZOUA_136_xx_11_2023", "x_L93": 634608.047, "y_L93": 7080759.983, "BASE_BIBLI": "du 01 au 15 nov 2023", "BASE_BIB_1": null, "BASE_BIB_2": "Zouafques", "BASE_BIB_3": "évenement du 14 novembre 2023", "BASE_BIB_4": "ZIC-2023-002", "BASE_BIB_5": 1, "BASE_BIB_6": 0.44, "BASE_BIB_7": "R", "BASE_BIB_8": "Débordement", "BASE_BIB_9": "DDTM62", "BASE_BIB10": "10:40:00.000" }, "geometry": { "type": "Point", "coordinates": [ 2.073827771493842, 50.819799781706898 ] } },
{ "type": "Feature", "properties": { "ID": "P_RECQ_137_xx_11_2023", "x_L93": 635488.788, "y_L93": 7082323.208, "BASE_BIBLI": "du 01 au 15 nov 2023", "BASE_BIB_1": null, "BASE_BIB_2": "Recques-sur-Hem", "BASE_BIB_3": "évenement du 14 novembre 2023", "BASE_BIB_4": "ZIC-2023-002", "BASE_BIB_5": 1, "BASE_BIB_6": 0.6, "BASE_BIB_7": "R", "BASE_BIB_8": "Débordement", "BASE_BIB_9": "DDTM62", "BASE_BIB10": "11:54:00.000" }, "geometry": { "type": "Point", "coordinates": [ 2.086044680290625, 50.833915608155827 ] } },
{ "type": "Feature", "properties": { "ID": "P_RECQ_138_xx_11_2023", "x_L93": 635556.028, "y_L93": 7082259.845, "BASE_BIBLI": "du 01 au 15 nov 2023", "BASE_BIB_1": null, "BASE_BIB_2": "Recques-sur-Hem", "BASE_BIB_3": "évenement du 14 novembre 2023", "BASE_BIB_4": "ZIC-2023-002", "BASE_BIB_5": 1, "BASE_BIB_6": 0.55, "BASE_BIB_7": "R", "BASE_BIB_8": "Débordement", "BASE_BIB_9": "DDTM62", "BASE_BIB10": "12:08:00.000" }, "geometry": { "type": "Point", "coordinates": [ 2.087007593481356, 50.833354163610643 ] } },
{ "type": "Feature", "properties": { "ID": "P_RECQ_139_xx_11_2023", "x_L93": 635678.749, "y_L93": 7082711.307, "BASE_BIBLI": "du 01 au 15 nov 2023", "BASE_BIB_1": null, "BASE_BIB_2": "Recques-sur-Hem", "BASE_BIB_3": "évenement du 14 novembre 2023", "BASE_BIB_4": "ZIC-2023-002", "BASE_BIB_5": 1, "BASE_BIB_6": 0.43, "BASE_BIB_7": "R", "BASE_BIB_8": "Débordement", "BASE_BIB_9": "DDTM62", "BASE_BIB10": "12:16:00.000" }, "geometry": { "type": "Point", "coordinates": [ 2.088672234925668, 50.837416918295311 ] } },
{ "type": "Feature", "properties": { "ID": "P_RECQ_140_xx_11_2023", "x_L93": 635725.053, "y_L93": 7082721.232, "BASE_BIBLI": "du 01 au 15 nov 2023", "BASE_BIB_1": null, "BASE_BIB_2": "Recques-sur-Hem", "BASE_BIB_3": "évenement du 14 novembre 2023", "BASE_BIB_4": "ZIC-2023-002", "BASE_BIB_5": 1, "BASE_BIB_6": 0.67, "BASE_BIB_7": "R", "BASE_BIB_8": "Débordement", "BASE_BIB_9": "DDTM62", "BASE_BIB10": "12:18:00.000" }, "geometry": { "type": "Point", "coordinates": [ 2.089326605498382, 50.837510748344656 ] } },
{ "type": "Feature", "properties": { "ID": "P_RECQ_141_xx_11_2023", "x_L93": 635759.837, "y_L93": 7082685.852, "BASE_BIBLI": "du 01 au 15 nov 2023", "BASE_BIB_1": null, "BASE_BIB_2": "Recques-sur-Hem", "BASE_BIB_3": "évenement du 14 novembre 2023", "BASE_BIB_4": "ZIC-2023-002", "BASE_BIB_5": 1, "BASE_BIB_6": 0.4, "BASE_BIB_7": "R", "BASE_BIB_8": "Débordement", "BASE_BIB_9": "DDTM62", "BASE_BIB10": "12:26:00.000" }, "geometry": { "type": "Point", "coordinates": [ 2.08982517532506, 50.837196951863021 ] } },
{ "type": "Feature", "properties": { "ID": "P_RECQ_142_xx_11_2023", "x_L93": 635776.022, "y_L93": 7082685.67, "BASE_BIBLI": "du 01 au 15 nov 2023", "BASE_BIB_1": null, "BASE_BIB_2": "Recques-sur-Hem", "BASE_BIB_3": "évenement du 14 novembre 2023", "BASE_BIB_4": "ZIC-2023-002", "BASE_BIB_5": 1, "BASE_BIB_6": 0.55, "BASE_BIB_7": "R", "BASE_BIB_8": "Débordement", "BASE_BIB_9": "DDTM62", "BASE_BIB10": "12:28:00.000" }, "geometry": { "type": "Point", "coordinates": [ 2.090054498365123, 50.837196999302648 ] } },
{ "type": "Feature", "properties": { "ID": "P_RECQ_143_xx_11_2023", "x_L93": 635730.493, "y_L93": 7082708.678, "BASE_BIBLI": "du 01 au 15 nov 2023", "BASE_BIB_1": null, "BASE_BIB_2": "Recques-sur-Hem", "BASE_BIB_3": "évenement du 14 novembre 2023", "BASE_BIB_4": "ZIC-2023-002", "BASE_BIB_5": 1, "BASE_BIB_6": 0.44, "BASE_BIB_7": "R", "BASE_BIB_8": "Débordement", "BASE_BIB_9": "DDTM62", "BASE_BIB10": "12:34:00.000" }, "geometry": { "type": "Point", "coordinates": [ 2.089405724275658, 50.837398692981459 ] } },
{ "type": "Feature", "properties": { "ID": "P_RECQ_144_xx_11_2023", "x_L93": 635733.846, "y_L93": 7082871.492, "BASE_BIBLI": "du 01 au 15 nov 2023", "BASE_BIB_1": null, "BASE_BIB_2": "Recques-sur-Hem", "BASE_BIB_3": "évenement du 14 novembre 2023", "BASE_BIB_4": "ZIC-2023-002", "BASE_BIB_5": 1, "BASE_BIB_6": 0.34, "BASE_BIB_7": "R", "BASE_BIB_8": "Débordement", "BASE_BIB_9": "DDTM62", "BASE_BIB10": "12:43:00.000" }, "geometry": { "type": "Point", "coordinates": [ 2.089426631510993, 50.838859628261211 ] } },
{ "type": "Feature", "properties": { "ID": "P_POLI_145_xx_11_2023", "x_L93": 636669.996, "y_L93": 7084475.812, "BASE_BIBLI": "du 01 au 15 nov 2023", "BASE_BIB_1": null, "BASE_BIB_2": "Polincove", "BASE_BIB_3": "évenement du 14 novembre 2023", "BASE_BIB_4": "ZIC-2023-002", "BASE_BIB_5": 1, "BASE_BIB_6": 0.24, "BASE_BIB_7": "R", "BASE_BIB_8": "Débordement", "BASE_BIB_9": "DDTM62", "BASE_BIB10": "12:52:00.000" }, "geometry": { "type": "Point", "coordinates": [ 2.102431219601312, 50.853347815432592 ] } },
{ "type": "Feature", "properties": { "ID": "P_POLI_146_26_11_2009", "x_L93": 636739.362, "y_L93": 7084606.38, "BASE_BIBLI": "2009/11/26", "BASE_BIB_1": null, "BASE_BIB_2": "Polincove", "BASE_BIB_3": null, "BASE_BIB_4": "ZIC-2009-002", "BASE_BIB_5": 1, "BASE_BIB_6": null, "BASE_BIB_7": "R", "BASE_BIB_8": "Débordement", "BASE_BIB_9": "DDTM62", "BASE_BIB10": null }, "geometry": { "type": "Point", "coordinates": [ 2.103393238971101, 50.854526168912308 ] } },
{ "type": "Feature", "properties": { "ID": "P_POLI_147_26_11_2009", "x_L93": 636684.11, "y_L93": 7084654.482, "BASE_BIBLI": "2009/11/26", "BASE_BIB_1": null, "BASE_BIB_2": "Polincove", "BASE_BIB_3": null, "BASE_BIB_4": "ZIC-2009-002", "BASE_BIB_5": 1, "BASE_BIB_6": null, "BASE_BIB_7": "R", "BASE_BIB_8": "Débordement", "BASE_BIB_9": "DDTM62", "BASE_BIB10": null }, "geometry": { "type": "Point", "coordinates": [ 2.102602458827406, 50.854952048666341 ] } },
{ "type": "Feature", "properties": { "ID": "P_POLI_148_26_11_2009", "x_L93": 636674.768, "y_L93": 7084468.926, "BASE_BIBLI": "2009/11/26", "BASE_BIB_1": null, "BASE_BIB_2": "Polincove", "BASE_BIB_3": null, "BASE_BIB_4": "ZIC-2009-002", "BASE_BIB_5": 1, "BASE_BIB_6": null, "BASE_BIB_7": "R", "BASE_BIB_8": "Débordement", "BASE_BIB_9": "DDTM62", "BASE_BIB10": null }, "geometry": { "type": "Point", "coordinates": [ 2.102499948583001, 50.853286525399596 ] } },
{ "type": "Feature", "properties": { "ID": "P_POLI_149_26_11_2009", "x_L93": 636207.754, "y_L93": 7083757.442, "BASE_BIBLI": "2009/11/26", "BASE_BIB_1": null, "BASE_BIB_2": "Polincove", "BASE_BIB_3": null, "BASE_BIB_4": "ZIC-2009-002", "BASE_BIB_5": 1, "BASE_BIB_6": null, "BASE_BIB_7": "R", "BASE_BIB_8": "Débordement", "BASE_BIB_9": "DDTM62", "BASE_BIB10": null }, "geometry": { "type": "Point", "coordinates": [ 2.095997040091946, 50.846856189936041 ] } },
{ "type": "Feature", "properties": { "ID": "P_POLI_150_26_11_2009", "x_L93": 636389.842, "y_L93": 7084236.322, "BASE_BIBLI": "2009/11/26", "BASE_BIB_1": null, "BASE_BIB_2": "Polincove", "BASE_BIB_3": null, "BASE_BIB_4": "ZIC-2009-002", "BASE_BIB_5": 1, "BASE_BIB_6": null, "BASE_BIB_7": "R", "BASE_BIB_8": "Débordement", "BASE_BIB_9": "DDTM62", "BASE_BIB10": null }, "geometry": { "type": "Point", "coordinates": [ 2.098499721753365, 50.851170788676669 ] } },
{ "type": "Feature", "properties": { "ID": "P_TOUR_151_xx_01_2023", "x_L93": 631659.262, "y_L93": 7078704.056, "BASE_BIBLI": "du 11 au 17 janvier 2023", "BASE_BIB_1": "Camping domanial de Tournehem-sur-la-Hem", "BASE_BIB_2": "Tournehem-sur-la-Hem", "BASE_BIB_3": "LC au sol en face des n°8 et 18, à 6.73m du boitier électrique du n°8", "BASE_BIB_4": "ZIC-2023-001", "BASE_BIB_5": 1, "BASE_BIB_6": null, "BASE_BIB_7": "R", "BASE_BIB_8": "Débordement", "BASE_BIB_9": "SPC", "BASE_BIB10": null }, "geometry": { "type": "Point", "coordinates": [ 2.03242384648509, 50.801038330874306 ] } },
{ "type": "Feature", "properties": { "ID": "P_TOUR_152_xx_01_2023", "x_L93": 632641.03, "y_L93": 7079304.025, "BASE_BIBLI": "du 11 au 17 janvier 2023", "BASE_BIB_1": "Parc public rue de la Blanchisserie", "BASE_BIB_2": "Tournehem-sur-la-Hem", "BASE_BIB_3": "LC au sol en forme d'arc de cercle\nsur le sentier. A 16m depuis l'angle de la dernière maison avant le parc.", "BASE_BIB_4": "ZIC-2023-001", "BASE_BIB_5": 1, "BASE_BIB_6": null, "BASE_BIB_7": "R", "BASE_BIB_8": "Débordement", "BASE_BIB_9": "SPC", "BASE_BIB10": null }, "geometry": { "type": "Point", "coordinates": [ 2.04621987015169, 50.806528002569891 ] } },
{ "type": "Feature", "properties": { "ID": "P_TOUR_153_xx_01_2023", "x_L93": 632765.958, "y_L93": 7079387.989, "BASE_BIBLI": "du 11 au 17 janvier 2023", "BASE_BIB_1": "rue du Marais", "BASE_BIB_2": "Tournehem-sur-la-Hem", "BASE_BIB_3": "LC au sol en arc de cercle qui part du muret à l'arrière de l'entreprise (en face du n°67 rue de l'Etang)", "BASE_BIB_4": "ZIC-2023-001", "BASE_BIB_5": 1, "BASE_BIB_6": null, "BASE_BIB_7": "R", "BASE_BIB_8": "Débordement", "BASE_BIB_9": "SPC", "BASE_BIB10": null }, "geometry": { "type": "Point", "coordinates": [ 2.047974297158287, 50.80729479263362 ] } },
{ "type": "Feature", "properties": { "ID": "P_TOUR_154_xx_01_2023", "x_L93": 633552.866, "y_L93": 7079839.267, "BASE_BIBLI": "du 11 au 17 janvier 2023", "BASE_BIB_1": "chemin Leulenne", "BASE_BIB_2": "Tournehem-sur-la-Hem", "BASE_BIB_3": "LC visible sur la berge avec hautes herbes couchées.", "BASE_BIB_4": "ZIC-2023-001", "BASE_BIB_5": 1, "BASE_BIB_6": null, "BASE_BIB_7": "R", "BASE_BIB_8": "Débordement", "BASE_BIB_9": "SPC", "BASE_BIB10": null }, "geometry": { "type": "Point", "coordinates": [ 2.059039611762837, 50.811427947415346 ] } },
{ "type": "Feature", "properties": { "ID": "P_RECQ_155_xx_01_2023", "x_L93": 635500.106, "y_L93": 7082313.376, "BASE_BIBLI": "du 11 au 17 janvier 2023", "BASE_BIB_1": "155 rue basse", "BASE_BIB_2": "Recques-sur-Hem", "BASE_BIB_3": "A environ 40m du pont supportant la station", "BASE_BIB_4": "ZIC-2023-001", "BASE_BIB_5": 1, "BASE_BIB_6": null, "BASE_BIB_7": "R", "BASE_BIB_8": "Débordement", "BASE_BIB_9": "SPC", "BASE_BIB10": null }, "geometry": { "type": "Point", "coordinates": [ 2.086206628656655, 50.833828587880525 ] } },
{ "type": "Feature", "properties": { "ID": "P_RECQ_156_xx_01_2023", "x_L93": 635584.523, "y_L93": 7082238.465, "BASE_BIBLI": "du 11 au 17 janvier 2023", "BASE_BIB_1": "280 rue basse", "BASE_BIB_2": "Recques-sur-Hem", "BASE_BIB_3": "LC sur muret devant n°280", "BASE_BIB_4": "ZIC-2023-001", "BASE_BIB_5": 1, "BASE_BIB_6": null, "BASE_BIB_7": "R", "BASE_BIB_8": "Débordement", "BASE_BIB_9": "SPC", "BASE_BIB10": null }, "geometry": { "type": "Point", "coordinates": [ 2.087414748352082, 50.833165319973112 ] } },
{ "type": "Feature", "properties": { "ID": "P_POLI_157_xx_01_2023", "x_L93": 636041.912, "y_L93": 7083652.048, "BASE_BIBLI": "du 11 au 17 janvier 2023", "BASE_BIB_1": "Etang du Moulin Bleu", "BASE_BIB_2": "Polincove", "BASE_BIB_3": "LC sur muret arrière du batiment", "BASE_BIB_4": "ZIC-2023-001", "BASE_BIB_5": 1, "BASE_BIB_6": null, "BASE_BIB_7": "R", "BASE_BIB_8": "Débordement", "BASE_BIB_9": "SPC", "BASE_BIB10": null }, "geometry": { "type": "Point", "coordinates": [ 2.093664229621988, 50.845893667860921 ] } },
{ "type": "Feature", "properties": { "ID": "P_POLI_158_xx_01_2023", "x_L93": 636683.297, "y_L93": 7084453.214, "BASE_BIBLI": "du 11 au 17 janvier 2023", "BASE_BIB_1": "Ancienne écluse 274 rue Saint Léger", "BASE_BIB_2": "Polincove", "BASE_BIB_3": "LC sur passerelle métallique au dessus de ancienne écluse", "BASE_BIB_4": "ZIC-2023-001", "BASE_BIB_5": 1, "BASE_BIB_6": null, "BASE_BIB_7": "R", "BASE_BIB_8": "Débordement", "BASE_BIB_9": "SPC", "BASE_BIB10": null }, "geometry": { "type": "Point", "coordinates": [ 2.102623354604131, 50.853146450086847 ] } },
{ "type": "Feature", "properties": { "ID": "P_POLI_159_xx_01_2023", "x_L93": 636733.993, "y_L93": 7084544.194, "BASE_BIBLI": "du 11 au 17 janvier 2023", "BASE_BIB_1": "54 rue Saint Léger", "BASE_BIB_2": "Polincove", "BASE_BIB_3": "En amont du pont de pierre sur la structure métallique", "BASE_BIB_4": "ZIC-2023-001", "BASE_BIB_5": 1, "BASE_BIB_6": null, "BASE_BIB_7": "R", "BASE_BIB_8": "Débordement", "BASE_BIB_9": "SPC", "BASE_BIB10": null }, "geometry": { "type": "Point", "coordinates": [ 2.103327145938822, 50.8539677702056 ] } },
{ "type": "Feature", "properties": { "ID": "P_POLI_160_xx_01_2023", "x_L93": 636748.024, "y_L93": 7084590.249, "BASE_BIBLI": "du 11 au 17 janvier 2023", "BASE_BIB_1": "sur le pont de la RD219", "BASE_BIB_2": "Polincove", "BASE_BIB_3": "Sur le pont en rive gauche", "BASE_BIB_4": "ZIC-2023-001", "BASE_BIB_5": 1, "BASE_BIB_6": null, "BASE_BIB_7": "R", "BASE_BIB_8": "Débordement", "BASE_BIB_9": "SPC", "BASE_BIB10": null }, "geometry": { "type": "Point", "coordinates": [ 2.103518590729897, 50.854382351527249 ] } },
{ "type": "Feature", "properties": { "ID": "P_POLI_161_xx_01_2023", "x_L93": 636818.126, "y_L93": 7084707.086, "BASE_BIBLI": "du 11 au 17 janvier 2023", "BASE_BIB_1": "Impasse de l'Ecluse", "BASE_BIB_2": "Polincove", "BASE_BIB_3": "Selon le témoignage des sacs de\nsable ont été posé sur la RG et un pompage a été effectué pour\nrenvoyer du débit dans la Marie-Voort qui se trouve en face.", "BASE_BIB_4": "ZIC-2023-001", "BASE_BIB_5": 1, "BASE_BIB_6": null, "BASE_BIB_7": "R", "BASE_BIB_8": "Débordement", "BASE_BIB_9": "SPC", "BASE_BIB10": null }, "geometry": { "type": "Point", "coordinates": [ 2.104493294717702, 50.855437593288656 ] } },
{ "type": "Feature", "properties": { "ID": "P_POLI_162_xx_01_2023", "x_L93": 637043.539, "y_L93": 7085152.706, "BASE_BIBLI": "du 11 au 17 janvier 2023", "BASE_BIB_1": "RD650 rue de la rivière", "BASE_BIB_2": "Polincove", "BASE_BIB_3": "LC sur végétation", "BASE_BIB_4": "ZIC-2023-001", "BASE_BIB_5": 1, "BASE_BIB_6": null, "BASE_BIB_7": "R", "BASE_BIB_8": "Débordement", "BASE_BIB_9": "SPC", "BASE_BIB10": null }, "geometry": { "type": "Point", "coordinates": [ 2.107616528802672, 50.859457992972395 ] } },
{ "type": "Feature", "properties": { "ID": "P_SURQ_163_xx_11_2023", "x_L93": null, "y_L93": null, "BASE_BIBLI": null, "BASE_BIB_1": null, "BASE_BIB_2": null, "BASE_BIB_3": null, "BASE_BIB_4": null, "BASE_BIB_5": null, "BASE_BIB_6": null, "BASE_BIB_7": null, "BASE_BIB_8": null, "BASE_BIB_9": null, "BASE_BIB10": null }, "geometry": { "type": "Point", "coordinates": [ 1.928390760263206, 50.756569482283808 ] } },
{ "type": "Feature", "properties": { "ID": "P_SURQ_164_xx_11_2023", "x_L93": null, "y_L93": null, "BASE_BIBLI": null, "BASE_BIB_1": null, "BASE_BIB_2": null, "BASE_BIB_3": null, "BASE_BIB_4": null, "BASE_BIB_5": null, "BASE_BIB_6": null, "BASE_BIB_7": null, "BASE_BIB_8": null, "BASE_BIB_9": null, "BASE_BIB10": null }, "geometry": { "type": "Point", "coordinates": [ 1.937032989809957, 50.742500775735543 ] } }
]
}
