{
"type": "FeatureCollection",
"name": "LIT_perche_WGS",
"crs": { "type": "name", "properties": { "name": "urn:ogc:def:crs:OGC:1.3:CRS84" } },
"features": [
{ "type": "Feature", "properties": { "fid": 1, "ID": 0 }, "geometry": { "type": "MultiPolygon", "coordinates": [ [ [ [ 1.932024179674166, 50.73349170908169 ], [ 1.932630092431568, 50.732776491516013 ], [ 1.932721903004577, 50.73261884962406 ], [ 1.932910541855992, 50.732252462004929 ], [ 1.93177250208225, 50.730821193308302 ], [ 1.93172820679446, 50.730778398621908 ], [ 1.931181739259078, 50.730411935474507 ], [ 1.930080435023801, 50.729703878844219 ], [ 1.929562668925349, 50.729375079136581 ], [ 1.92951378048107, 50.729363431109007 ], [ 1.929462687135766, 50.729362991440148 ], [ 1.92907147647846, 50.729918496748475 ], [ 1.928586971138269, 50.730700238622568 ], [ 1.928897226186329, 50.731082144389454 ], [ 1.929174011532464, 50.73128287646005 ], [ 1.931495731874987, 50.733384878741326 ], [ 1.931554264982448, 50.73340534103793 ], [ 1.931644295940601, 50.733423578834973 ], [ 1.932024179674166, 50.73349170908169 ] ] ], [ [ [ 1.936425458665588, 50.741586175569275 ], [ 1.936410581062529, 50.741546129714678 ], [ 1.936297317201718, 50.741510232702367 ], [ 1.934066858957954, 50.740266139595747 ], [ 1.934031744277644, 50.740253364163685 ], [ 1.932306915736939, 50.740194914965571 ], [ 1.932281257211224, 50.740199684648921 ], [ 1.932274482071354, 50.740333104995713 ], [ 1.932344202032144, 50.740659290812253 ], [ 1.934191712344095, 50.741974982412245 ], [ 1.935394339209943, 50.742741236637997 ], [ 1.936155265614806, 50.742830076394569 ], [ 1.936163154735552, 50.742828896382711 ], [ 1.936425458665588, 50.741586175569275 ] ] ], [ [ [ 1.940260996677012, 50.753485862899133 ], [ 1.940427941382241, 50.753402458549111 ], [ 1.940734275670121, 50.753050794077865 ], [ 1.941121131741981, 50.751866525251025 ], [ 1.942100499711006, 50.750557557122242 ], [ 1.94211350714863, 50.750500285398324 ], [ 1.94149363862545, 50.750616016848703 ], [ 1.940526901079161, 50.751048137763405 ], [ 1.940196061910026, 50.751257385893261 ], [ 1.940043004467207, 50.751428229202261 ], [ 1.939558174102451, 50.752037839405602 ], [ 1.939088637633041, 50.752667536622226 ], [ 1.939343507512853, 50.752889257780723 ], [ 1.939838053428947, 50.753307620112523 ], [ 1.939931157852034, 50.753368290040974 ], [ 1.940165885976393, 50.753519981274138 ], [ 1.940171784216203, 50.753520031497182 ], [ 1.940260996677012, 50.753485862899133 ] ] ], [ [ [ 1.922157157465431, 50.75894095543979 ], [ 1.924617577384604, 50.760076219160958 ], [ 1.925305936250255, 50.759523796705579 ], [ 1.925350473621494, 50.75946916964179 ], [ 1.925317912401535, 50.759369867724303 ], [ 1.925031230633566, 50.758987812469684 ], [ 1.924980147107236, 50.758943362040796 ], [ 1.923842896715469, 50.758388920339691 ], [ 1.923284942570831, 50.758120039392757 ], [ 1.920905265896975, 50.757469548609969 ], [ 1.919059807578537, 50.756983185735969 ], [ 1.918881043305685, 50.757028393290419 ], [ 1.918876648448008, 50.757031105710809 ], [ 1.920419287468796, 50.757886174661962 ], [ 1.921796751027004, 50.758761797021663 ], [ 1.922157157465431, 50.75894095543979 ] ] ], [ [ [ 1.933099853179917, 50.769055851553588 ], [ 1.933187814532085, 50.768998844030207 ], [ 1.933179258634389, 50.768993269652555 ], [ 1.933102138447882, 50.768948600290464 ], [ 1.93195020799835, 50.768660920097666 ], [ 1.931794738954595, 50.768629330457621 ], [ 1.931568419015642, 50.768665896070324 ], [ 1.9315245844423, 50.768687524200452 ], [ 1.932474393888698, 50.769097249592164 ], [ 1.932667721371186, 50.769184173566522 ], [ 1.932809655493527, 50.76924040086427 ], [ 1.933099853179917, 50.769055851553588 ] ] ], [ [ [ 1.948797385270594, 50.770446005422727 ], [ 1.94870948469588, 50.770087695440559 ], [ 1.948470202992197, 50.769502563797062 ], [ 1.948310841963544, 50.769242668410989 ], [ 1.948259958370402, 50.769187228074337 ], [ 1.94811424821151, 50.76910348135906 ], [ 1.947754253697673, 50.768896900466864 ], [ 1.94603306658847, 50.768244219475356 ], [ 1.944885684958679, 50.768355524861434 ], [ 1.944876664275577, 50.768371951606809 ], [ 1.944841788622092, 50.768586197484581 ], [ 1.944860979330036, 50.768704632928014 ], [ 1.944941799326881, 50.768985871827361 ], [ 1.946458582689206, 50.770695789186476 ], [ 1.94652166586696, 50.770789840645563 ], [ 1.94682754579166, 50.771094985434623 ], [ 1.94691260307332, 50.771175469893485 ], [ 1.947131810639835, 50.77127084128842 ], [ 1.947179167914142, 50.771287744831014 ], [ 1.948687992713089, 50.770698129724941 ], [ 1.948797385270594, 50.770446005422727 ] ] ], [ [ [ 1.942350596443246, 50.77320004634614 ], [ 1.942641149278749, 50.772792687423006 ], [ 1.942637451252074, 50.77276240036452 ], [ 1.942572862787524, 50.772739847774858 ], [ 1.941776237759274, 50.772463529698818 ], [ 1.940663498936708, 50.77216251324554 ], [ 1.940535636227926, 50.772260444015387 ], [ 1.940263988410103, 50.772593695440143 ], [ 1.941195166830219, 50.772865666359287 ], [ 1.942065522461422, 50.773142614400832 ], [ 1.942350596443246, 50.77320004634614 ] ] ], [ [ [ 1.904508395701828, 50.777515063995118 ], [ 1.90567669020378, 50.77765185945043 ], [ 1.90954431754225, 50.7785384435658 ], [ 1.910167938092966, 50.77858791069287 ], [ 1.911432919038614, 50.778469700731428 ], [ 1.909956201699902, 50.777752653892193 ], [ 1.90739919555507, 50.776247719153211 ], [ 1.90720932141231, 50.77620204479647 ], [ 1.906239483225357, 50.776116515732767 ], [ 1.90168958175144, 50.7762855089588 ], [ 1.901672112494311, 50.776290855920259 ], [ 1.903622388845085, 50.777166203008974 ], [ 1.904284543637366, 50.777436080225826 ], [ 1.904430806523457, 50.777492377323895 ], [ 1.904508395701828, 50.777515063995118 ] ] ], [ [ [ 1.967598869558028, 50.781886967911966 ], [ 1.967918866937938, 50.780871760387818 ], [ 1.96800310709483, 50.780603024748224 ], [ 1.967690625935052, 50.780490665667692 ], [ 1.966578023317444, 50.780251920564467 ], [ 1.963537368944257, 50.779630404210067 ], [ 1.961844198019467, 50.779306950568639 ], [ 1.961420546465765, 50.779243543871296 ], [ 1.961185711585964, 50.779372560388772 ], [ 1.960133451422859, 50.780209503431387 ], [ 1.959346943001163, 50.782893618107813 ], [ 1.959372054870273, 50.78293783535262 ], [ 1.959448762720061, 50.783004487378498 ], [ 1.959542821892247, 50.78307128430184 ], [ 1.959680830699848, 50.78311094362688 ], [ 1.95981941118021, 50.783123102940628 ], [ 1.964010851980239, 50.783103028888561 ], [ 1.967598869558028, 50.781886967911966 ] ] ], [ [ [ 1.918333609222974, 50.782647317323367 ], [ 1.91837670410862, 50.782610560053122 ], [ 1.918398868016376, 50.782588748659805 ], [ 1.918657806807708, 50.782300820955456 ], [ 1.917740895061841, 50.782068691929979 ], [ 1.916415394395411, 50.781772490990022 ], [ 1.91634628989378, 50.781758137281884 ], [ 1.916281344457883, 50.781752071192507 ], [ 1.916138381193655, 50.781742575635896 ], [ 1.916103441954163, 50.781753273520714 ], [ 1.916011458402867, 50.781793730289174 ], [ 1.915369332729037, 50.782395997599693 ], [ 1.916954642388134, 50.782565539884047 ], [ 1.918198827936536, 50.7827107830635 ], [ 1.918243660974376, 50.782693981949684 ], [ 1.918333609222974, 50.782647317323367 ] ] ], [ [ [ 1.930593443784298, 50.783375607151825 ], [ 1.936502965997403, 50.789096848059039 ], [ 1.936736999708698, 50.789109847777901 ], [ 1.936971267171687, 50.78911184725726 ], [ 1.937188181505957, 50.789113698234189 ], [ 1.943718134948228, 50.789097460749474 ], [ 1.943795806026991, 50.789150648342975 ], [ 1.943832188273787, 50.789174335615193 ], [ 1.944667434408144, 50.789587105292497 ], [ 1.945045613974659, 50.789760836152396 ], [ 1.945183397909574, 50.789811510938165 ], [ 1.945299895990622, 50.789842752248468 ], [ 1.945412287636867, 50.789862956916359 ], [ 1.945542032812625, 50.789883308382592 ], [ 1.945611736237217, 50.789870146206155 ], [ 1.948845665598747, 50.788982956266629 ], [ 1.948802918088768, 50.788952340644798 ], [ 1.948420046655094, 50.788795084092278 ], [ 1.948264100176314, 50.788782765681965 ], [ 1.945955043040909, 50.788815506268861 ], [ 1.944549096774042, 50.788820103876851 ], [ 1.944457587201038, 50.788838581577792 ], [ 1.944068509326424, 50.788941913453613 ], [ 1.934751285347451, 50.783734984420974 ], [ 1.934032838892002, 50.783244754234026 ], [ 1.933877850376523, 50.78318841813649 ], [ 1.933627900035523, 50.783109265007461 ], [ 1.933377950484963, 50.783030111367282 ], [ 1.933334590114903, 50.78301903321519 ], [ 1.933356554696031, 50.783016175752493 ], [ 1.930025208770206, 50.782173458961815 ], [ 1.929947248100426, 50.782167288204796 ], [ 1.929122853792884, 50.782171204396874 ], [ 1.929018514148551, 50.782181309125562 ], [ 1.928417088640905, 50.782308158980982 ], [ 1.926620997525999, 50.782710765519361 ], [ 1.924603431255982, 50.783727541123973 ], [ 1.924654894206395, 50.783755490231762 ], [ 1.927079237123745, 50.784001937282063 ], [ 1.927683278483894, 50.783754095632105 ], [ 1.930593443784298, 50.783375607151825 ] ] ], [ [ [ 1.977930061216889, 50.7467394514346 ], [ 1.977970475725475, 50.74667101816884 ], [ 1.978018520360393, 50.746228564848025 ], [ 1.978030836298954, 50.746049876389321 ], [ 1.977923523523273, 50.745784936512727 ], [ 1.977553501356222, 50.745647117050481 ], [ 1.97743674913065, 50.745632404710676 ], [ 1.9772766514805, 50.745617336048667 ], [ 1.975775939299043, 50.746712114492794 ], [ 1.975723473737915, 50.746733687551561 ], [ 1.975790522742421, 50.746847014283397 ], [ 1.976407627900653, 50.747835432709827 ], [ 1.977071271406018, 50.747395291476444 ], [ 1.977766143810874, 50.746911393328432 ], [ 1.977863302001043, 50.74682417194748 ], [ 1.977930061216889, 50.7467394514346 ] ] ], [ [ [ 1.978329603987849, 50.756058970771193 ], [ 1.978246709903183, 50.755871251726809 ], [ 1.976796445162537, 50.753845918942332 ], [ 1.976618409862091, 50.753646413638755 ], [ 1.976299063233987, 50.753572272502538 ], [ 1.975634136499048, 50.753434774145425 ], [ 1.975607225236159, 50.753478561940497 ], [ 1.975606325319061, 50.753522563807984 ], [ 1.97696420714788, 50.755822209661176 ], [ 1.977177507791239, 50.756206291578401 ], [ 1.978274620840721, 50.756416093176355 ], [ 1.97829629826329, 50.756416271107703 ], [ 1.978316445167297, 50.756278908146641 ], [ 1.978329603987849, 50.756058970771193 ] ] ], [ [ [ 1.990129699080895, 50.754916135343585 ], [ 1.990796215694849, 50.75734478614023 ], [ 1.992633079730973, 50.758184831140667 ], [ 1.992678908252284, 50.758170073963647 ], [ 1.992692468311049, 50.758142678168028 ], [ 1.992601837659431, 50.757582207042766 ], [ 1.992576764486, 50.757535244688661 ], [ 1.991570298842809, 50.756480507905152 ], [ 1.991562676436521, 50.756469258410739 ], [ 1.991765013796613, 50.755531766069765 ], [ 1.991432167559931, 50.755265015368991 ], [ 1.99031827066075, 50.754595848696454 ], [ 1.990300707561793, 50.754606708500965 ], [ 1.990129699080895, 50.754916135343585 ] ], [ [ 1.990906191695537, 50.755500366894246 ], [ 1.991308591912818, 50.75580312457376 ], [ 1.991243674721499, 50.755998456026433 ], [ 1.990906191695537, 50.755500366894246 ] ] ], [ [ [ 1.987080662005377, 50.768033446452421 ], [ 1.987052974050196, 50.768115736604202 ], [ 1.987384817179952, 50.769721983215838 ], [ 1.988925042556637, 50.769484203809085 ], [ 1.9890384610704, 50.769452118675645 ], [ 1.989268850451897, 50.769211944453929 ], [ 1.98934968464094, 50.769075075206139 ], [ 1.989801310985876, 50.767973035030465 ], [ 1.990234274822947, 50.766964468455221 ], [ 1.990240617949181, 50.766951502926347 ], [ 1.989318038685607, 50.766989929637639 ], [ 1.989278955506976, 50.766992362884793 ], [ 1.98729348587, 50.767804134497702 ], [ 1.987080662005377, 50.768033446452421 ] ] ], [ [ [ 2.002735414732213, 50.794709207066902 ], [ 2.002821994339076, 50.794709900115677 ], [ 2.002909798824835, 50.794654182251875 ], [ 2.002956516657669, 50.794499666875957 ], [ 2.002882827405867, 50.794255679569588 ], [ 2.002858191012764, 50.794178037691935 ], [ 2.002411694908725, 50.793809366516086 ], [ 2.002351382371741, 50.793770161155983 ], [ 2.002273176218793, 50.79375293952635 ], [ 2.002186133521023, 50.793741178836953 ], [ 2.00196709304639, 50.793783678342997 ], [ 2.00170889883598, 50.794077312735823 ], [ 2.002293438497082, 50.794371379739189 ], [ 2.002579090966866, 50.79465307241221 ], [ 2.002657103677149, 50.794688622639065 ], [ 2.002735414732213, 50.794709207066902 ] ] ], [ [ [ 2.023658534947899, 50.801618027688271 ], [ 2.028957971080502, 50.80076635500874 ], [ 2.029084791988643, 50.800722439526936 ], [ 2.02912666784685, 50.800593043718017 ], [ 2.026003869826567, 50.799640657597166 ], [ 2.025862179628407, 50.799639549856366 ], [ 2.017425571091744, 50.797876927188298 ], [ 2.017400781454437, 50.797936603789914 ], [ 2.017395295900244, 50.798215963638206 ], [ 2.017776192429271, 50.800469155537073 ], [ 2.017907956884662, 50.800574969983138 ], [ 2.018716060109988, 50.801120183537414 ], [ 2.01885618927115, 50.801201116142934 ], [ 2.020314465911112, 50.801916083977808 ], [ 2.021227718962889, 50.801918272013694 ], [ 2.023658534947899, 50.801618027688271 ] ] ], [ [ [ 2.049315612631319, 50.808746517755225 ], [ 2.049520124698534, 50.80875805625125 ], [ 2.050564112979138, 50.808516552859814 ], [ 2.049028565179475, 50.807277490763745 ], [ 2.047961267331814, 50.807089728278648 ], [ 2.043824412395241, 50.806010310220195 ], [ 2.043745113309452, 50.806039637263332 ], [ 2.043680606036597, 50.806118970372609 ], [ 2.043656278732633, 50.806567816865424 ], [ 2.046331428625638, 50.808324576968808 ], [ 2.04653460728137, 50.808405959545865 ], [ 2.046833024073634, 50.808448156360654 ], [ 2.049315612631319, 50.808746517755225 ] ] ], [ [ [ 2.063145134464681, 50.817033529304538 ], [ 2.067197720141476, 50.818056766452401 ], [ 2.067464527393162, 50.818108654410707 ], [ 2.067771173271545, 50.81813589401294 ], [ 2.071086027202192, 50.818180599088436 ], [ 2.071322266696869, 50.81818235947074 ], [ 2.071512832488325, 50.818098963692606 ], [ 2.0720570995988, 50.817629047804353 ], [ 2.072169471742912, 50.817515133901153 ], [ 2.072146310777977, 50.817490015733775 ], [ 2.060570885445582, 50.812364236596508 ], [ 2.060008758043305, 50.812105548829692 ], [ 2.059373241165027, 50.811981012970435 ], [ 2.059023422163465, 50.812157983459151 ], [ 2.058210539067391, 50.812670720039677 ], [ 2.05778796782546, 50.812946921081227 ], [ 2.057840735679038, 50.813072049902772 ], [ 2.058305075204775, 50.813923721932838 ], [ 2.05871394727266, 50.814375837435001 ], [ 2.058815089585827, 50.814441460671496 ], [ 2.062247053406064, 50.816627642543573 ], [ 2.063035546128014, 50.816997781402698 ], [ 2.063145134464681, 50.817033529304538 ] ] ], [ [ [ 2.088150280289554, 50.824363383383115 ], [ 2.087966359154452, 50.824082649007885 ], [ 2.086840652638477, 50.823615411562614 ], [ 2.083926674937201, 50.822735906577044 ], [ 2.080698156899172, 50.821834055773778 ], [ 2.079694899914048, 50.821567218910175 ], [ 2.079663399143086, 50.821566986335412 ], [ 2.079580424384825, 50.821795872891087 ], [ 2.079593237247212, 50.821955619074579 ], [ 2.079701471436872, 50.822066178637655 ], [ 2.082369222767156, 50.826915284458536 ], [ 2.082400269273101, 50.826940458333482 ], [ 2.084859512235719, 50.826853764783422 ], [ 2.085815213982267, 50.82628204443715 ], [ 2.08808109000455, 50.824702135042131 ], [ 2.088150280289554, 50.824363383383115 ] ] ], [ [ [ 2.097298552198472, 50.845555876736924 ], [ 2.096550032018432, 50.842063194157944 ], [ 2.09640520352458, 50.841139189517939 ], [ 2.096376214849868, 50.840999288813499 ], [ 2.096017331981829, 50.840802118593828 ], [ 2.093023043055806, 50.839508191696176 ], [ 2.092434635439291, 50.839369208539622 ], [ 2.092422818422188, 50.839369122534613 ], [ 2.091890338318759, 50.842657956614993 ], [ 2.093828192760306, 50.846164302272228 ], [ 2.094078877065261, 50.846245946059028 ], [ 2.094440773366368, 50.846278507738631 ], [ 2.095275958335988, 50.846284569091424 ], [ 2.097298552198472, 50.845555876736924 ] ] ] ] } }
]
}
