{
"type": "FeatureCollection",
"name": "mares",
"crs": { "type": "name", "properties": { "name": "urn:ogc:def:crs:OGC:1.3:CRS84" } },
"features": [
{ "type": "Feature", "properties": { "Code_Mare": "BAG008", "INSEE": 62850, "Commune": "BAINGHEN", "SAISIE__AC": "O", "Mare_Parc": "O", "Proprio": "Commune", "Annee": 2009.0, "Action": "Restauration", "GIC": "N", "mare_incen": null, "Surface m?": 80, "Remarques": null, "Demandeur": null, "Qte SDIS": null, "Classee": null }, "geometry": { "type": "Point", "coordinates": [ 1.891462262771783, 50.750721733439299 ] } },
{ "type": "Feature", "properties": { "Code_Mare": "AUD009", "INSEE": 62055, "Commune": "AUDREHEM", "SAISIE__AC": "O", "Mare_Parc": "O", "Proprio": "Commune", "Annee": 2010.0, "Action": "Création", "GIC": "N", "mare_incen": "O", "Surface m?": 300, "Remarques": null, "Demandeur": "Commune", "Qte SDIS": 120, "Classee": "Non" }, "geometry": { "type": "Point", "coordinates": [ 1.96474036131338, 50.766753095262693 ] } },
{ "type": "Feature", "properties": { "Code_Mare": "BAG011", "INSEE": 62076, "Commune": "BAINGHEN", "SAISIE__AC": "O", "Mare_Parc": "O", "Proprio": "Commune", "Annee": 2010.0, "Action": "Création", "GIC": "N", "mare_incen": null, "Surface m?": 210, "Remarques": null, "Demandeur": null, "Qte SDIS": null, "Classee": null }, "geometry": { "type": "Point", "coordinates": [ 1.897265683940536, 50.750605407123118 ] } },
{ "type": "Feature", "properties": { "Code_Mare": "ESC009", "INSEE": 62308, "Commune": "ESCOEUILLES", "SAISIE__AC": "O", "Mare_Parc": "O", "Proprio": "Leroy", "Annee": 2011.0, "Action": "Création", "GIC": "N", "mare_incen": null, "Surface m?": 375, "Remarques": null, "Demandeur": null, "Qte SDIS": null, "Classee": null }, "geometry": { "type": "Point", "coordinates": [ 1.925074796094326, 50.729043308072669 ] } },
{ "type": "Feature", "properties": { "Code_Mare": "RSH012", "INSEE": 62699, "Commune": "RECQUES-SUR-HEM", "SAISIE__AC": "O", "Mare_Parc": "O", "Proprio": "Commune", "Annee": 2011.0, "Action": "Création", "GIC": "N", "mare_incen": null, "Surface m?": 100, "Remarques": null, "Demandeur": null, "Qte SDIS": null, "Classee": null }, "geometry": { "type": "Point", "coordinates": [ 2.088870187053635, 50.836709626435557 ] } },
{ "type": "Feature", "properties": { "Code_Mare": "RUM047", "INSEE": 62730, "Commune": "RUMINGHEM", "SAISIE__AC": "O", "Mare_Parc": "O", "Proprio": "Darcheville", "Annee": 2011.0, "Action": "Création", "GIC": "N", "mare_incen": null, "Surface m?": 200, "Remarques": null, "Demandeur": null, "Qte SDIS": null, "Classee": null }, "geometry": { "type": "Point", "coordinates": [ 2.139001718861682, 50.866247569817787 ] } },
{ "type": "Feature", "properties": { "Code_Mare": "CLE003", "INSEE": 62228, "Commune": "CLERQUES", "SAISIE__AC": "O", "Mare_Parc": "O", "Proprio": "Commune", "Annee": 2013.0, "Action": "Restauration", "GIC": "N", "mare_incen": "N", "Surface m?": 800, "Remarques": null, "Demandeur": null, "Qte SDIS": null, "Classee": null }, "geometry": { "type": "Point", "coordinates": [ 1.997376107304043, 50.791993243546756 ] } },
{ "type": "Feature", "properties": { "Code_Mare": "LIC021", "INSEE": 62506, "Commune": "LICQUES", "SAISIE__AC": "N", "Mare_Parc": "O", "Proprio": "COMMUNE", "Annee": 2016.0, "Action": "CREATION", "GIC": "N", "mare_incen": "N", "Surface m?": null, "Remarques": null, "Demandeur": null, "Qte SDIS": null, "Classee": null }, "geometry": { "type": "Point", "coordinates": [ 1.930023596738391, 50.782857982535511 ] } },
{ "type": "Feature", "properties": { "Code_Mare": "ALE011", "INSEE": 62850, "Commune": "ALEMBON", "SAISIE__AC": "N", "Mare_Parc": "O", "Proprio": "VENEL", "Annee": 2018.0, "Action": "C", "GIC": null, "mare_incen": null, "Surface m?": null, "Remarques": null, "Demandeur": null, "Qte SDIS": null, "Classee": null }, "geometry": { "type": "Point", "coordinates": [ 1.886769131169542, 50.781969165033104 ] } },
{ "type": "Feature", "properties": { "Code_Mare": "JOU005", "INSEE": 62478, "Commune": "JOURNY", "SAISIE__AC": "N", "Mare_Parc": "O", "Proprio": "COMMUNE", "Annee": 2018.0, "Action": "C", "GIC": null, "mare_incen": null, "Surface m?": null, "Remarques": null, "Demandeur": null, "Qte SDIS": null, "Classee": null }, "geometry": { "type": "Point", "coordinates": [ 1.992627317462763, 50.75322893166279 ] } },
{ "type": "Feature", "properties": { "Code_Mare": "LIC022", "INSEE": 62506, "Commune": "LICQUES", "SAISIE__AC": "N", "Mare_Parc": "O", "Proprio": "ROZE", "Annee": 2018.0, "Action": "C", "GIC": null, "mare_incen": null, "Surface m?": null, "Remarques": null, "Demandeur": null, "Qte SDIS": null, "Classee": null }, "geometry": { "type": "Point", "coordinates": [ 1.936980703698532, 50.780990340409858 ] } },
{ "type": "Feature", "properties": { "Code_Mare": "CLE001", "INSEE": 62228, "Commune": "CLERQUES", "SAISIE__AC": "N", "Mare_Parc": "O", "Proprio": "COMMUNE", "Annee": 2018.0, "Action": "C", "GIC": null, "mare_incen": null, "Surface m?": null, "Remarques": null, "Demandeur": null, "Qte SDIS": null, "Classee": null }, "geometry": { "type": "Point", "coordinates": [ 1.998518744500908, 50.792692281096905 ] } },
{ "type": "Feature", "properties": { "Code_Mare": "CLE002", "INSEE": 62228, "Commune": "CLERQUES", "SAISIE__AC": "N", "Mare_Parc": "O", "Proprio": "COMMUNE", "Annee": 2017.0, "Action": "C", "GIC": null, "mare_incen": null, "Surface m?": null, "Remarques": null, "Demandeur": null, "Qte SDIS": null, "Classee": null }, "geometry": { "type": "Point", "coordinates": [ 1.998612832417898, 50.79236735022991 ] } },
{ "type": "Feature", "properties": { "Code_Mare": null, "INSEE": null, "Commune": "BAINGHEN", "SAISIE__AC": "N", "Mare_Parc": "O", "Proprio": "COMMUNE", "Annee": 2020.0, "Action": null, "GIC": null, "mare_incen": null, "Surface m?": null, "Remarques": null, "Demandeur": null, "Qte SDIS": null, "Classee": null }, "geometry": { "type": "Point", "coordinates": [ 1.891465727319817, 50.750729730881908 ] } },
{ "type": "Feature", "properties": { "Code_Mare": null, "INSEE": null, "Commune": "BONNINGUES LES ARDRES", "SAISIE__AC": "N", "Mare_Parc": "O", "Proprio": "COMMUNE", "Annee": 2020.0, "Action": "C", "GIC": null, "mare_incen": "N", "Surface m?": null, "Remarques": null, "Demandeur": null, "Qte SDIS": null, "Classee": null }, "geometry": { "type": "Point", "coordinates": [ 2.01985183895673, 50.797615581815521 ] } }
]
}
