{
"type": "FeatureCollection",
"name": "reserve_biosphere",
"crs": { "type": "name", "properties": { "name": "urn:ogc:def:crs:OGC:1.3:CRS84" } },
"features": [
{ "type": "Feature", "properties": { "Nom": "Périmètre d'extension de la RBMA (111 communes)" }, "geometry": { "type": "MultiPolygon", "coordinates": [ [ [ [ 2.021991175802194, 50.5266287011736 ], [ 2.012842572196011, 50.525826349094991 ], [ 2.011829575590427, 50.52786219105753 ], [ 2.009011622461853, 50.529442854845954 ], [ 2.005557365075446, 50.530289468011169 ], [ 2.004790187017889, 50.530628895727538 ], [ 2.000286956146278, 50.531102491114801 ], [ 1.999450982993827, 50.530649617973332 ], [ 1.998197727185332, 50.531351312482279 ], [ 1.996901294045227, 50.530684651186903 ], [ 1.992826833820699, 50.528166035718876 ], [ 1.992663963883682, 50.527297592463491 ], [ 1.994604268769455, 50.526319669662271 ], [ 1.992589571432237, 50.524260267565744 ], [ 1.992098875366801, 50.523872084136002 ], [ 1.988663027251746, 50.524227371076059 ], [ 1.985248861897067, 50.522387100537884 ], [ 1.983059915377864, 50.52180093618189 ], [ 1.979149504533624, 50.521884563099086 ], [ 1.978436574237433, 50.52169915508626 ], [ 1.977368719736582, 50.521172399113119 ], [ 1.975490947262008, 50.522806758172813 ], [ 1.969947539110516, 50.520734784699776 ], [ 1.967466864679942, 50.519281475150351 ], [ 1.96623203817967, 50.518666155283299 ], [ 1.964730967659724, 50.51936006991599 ], [ 1.962860755684858, 50.520815675096706 ], [ 1.962571537534784, 50.520980216038424 ], [ 1.962410878609766, 50.52146539726116 ], [ 1.962364438933938, 50.52214722272538 ], [ 1.962459713103618, 50.522375126364373 ], [ 1.963093873748236, 50.523647917616081 ], [ 1.964533511765568, 50.524715594808455 ], [ 1.964886180601476, 50.524889993078808 ], [ 1.962259078615548, 50.526233329650339 ], [ 1.961705243729689, 50.52604915930786 ], [ 1.960943040279109, 50.526409006979016 ], [ 1.96095780259457, 50.527399232497118 ], [ 1.960715129849769, 50.527967200158194 ], [ 1.959933685403426, 50.528847512021485 ], [ 1.958207451030346, 50.528086167140053 ], [ 1.956674372732085, 50.530169258061107 ], [ 1.951799882641778, 50.528905518138494 ], [ 1.950990735311677, 50.530904000553676 ], [ 1.955237734675976, 50.532078098723581 ], [ 1.95333657263032, 50.534511702209571 ], [ 1.951498298004885, 50.536081380894942 ], [ 1.95229257870744, 50.536288272777036 ], [ 1.950424932381391, 50.538721205125036 ], [ 1.953567117526527, 50.539002710756598 ], [ 1.954407786098829, 50.539148940724132 ], [ 1.953713016857938, 50.540182529767492 ], [ 1.952522617139963, 50.541949773595128 ], [ 1.955296707365144, 50.542398668693281 ], [ 1.952033234260673, 50.545427518615028 ], [ 1.953732817108768, 50.546207551228967 ], [ 1.956026674350312, 50.547543705049236 ], [ 1.953655272426846, 50.549123258977559 ], [ 1.95555278793586, 50.550691242791302 ], [ 1.951287349267994, 50.553299589657449 ], [ 1.95068177072706, 50.55470550794859 ], [ 1.950653680031593, 50.555106501580973 ], [ 1.950189573547295, 50.555808091915956 ], [ 1.949592536317648, 50.556397250057181 ], [ 1.95122368603132, 50.557434334910269 ], [ 1.951057405955825, 50.558110620150224 ], [ 1.950555315640549, 50.558267939014527 ], [ 1.950177929042708, 50.558391305516857 ], [ 1.949086726966456, 50.557744758425201 ], [ 1.946976202549905, 50.559214178128087 ], [ 1.946086705723251, 50.55963477549988 ], [ 1.943480929745538, 50.557303052025006 ], [ 1.940898592254496, 50.558553820035122 ], [ 1.940092237749759, 50.556565009618474 ], [ 1.938990569006768, 50.555487428054661 ], [ 1.936504224063317, 50.558728029006183 ], [ 1.935416268198307, 50.55993315054215 ], [ 1.934609726780092, 50.564481553375288 ], [ 1.934028019976498, 50.565198222343142 ], [ 1.933392954142703, 50.567233896424128 ], [ 1.934508091456942, 50.569012644888794 ], [ 1.931619609886905, 50.570636665121185 ], [ 1.932648308971489, 50.571574532296367 ], [ 1.931788888028102, 50.572686425385101 ], [ 1.930580403306437, 50.573574494153647 ], [ 1.930127131989796, 50.574739242799311 ], [ 1.930907173144034, 50.577297805140361 ], [ 1.931209588788262, 50.577394658381472 ], [ 1.92984117467847, 50.579101725998164 ], [ 1.926957616390369, 50.581385383131561 ], [ 1.926339682102529, 50.581671747669866 ], [ 1.926129961002464, 50.581920356071279 ], [ 1.925424647412937, 50.583590022731848 ], [ 1.925920598233452, 50.58380165908163 ], [ 1.925146014874154, 50.584225784330847 ], [ 1.924122435985896, 50.586731910169462 ], [ 1.922532807661461, 50.590053480774337 ], [ 1.922789725286763, 50.590105078581246 ], [ 1.922157648045637, 50.59255712395732 ], [ 1.918400106411362, 50.591237305790905 ], [ 1.918749301328429, 50.592046364952978 ], [ 1.91814413109454, 50.591731427792197 ], [ 1.917398244571382, 50.591469113369087 ], [ 1.916174870027498, 50.591249296401841 ], [ 1.915471354953542, 50.591245839766771 ], [ 1.914046732093095, 50.591465845082517 ], [ 1.910129872786049, 50.592890037006342 ], [ 1.908047655497762, 50.593973934922381 ], [ 1.904503779515653, 50.595995416844787 ], [ 1.903399132296221, 50.596794360400509 ], [ 1.901961870021877, 50.598228515561019 ], [ 1.902323526887529, 50.598650876723916 ], [ 1.901751751550259, 50.599454517127292 ], [ 1.901842763590489, 50.599742541561 ], [ 1.900353641076552, 50.599738326501345 ], [ 1.899341742662939, 50.59938648534083 ], [ 1.897439309524541, 50.600609120635546 ], [ 1.894036986239321, 50.602245600614395 ], [ 1.891173593535751, 50.603033228029119 ], [ 1.890548633649983, 50.601763881070745 ], [ 1.885737063581539, 50.603146080730745 ], [ 1.885310362938397, 50.603308295668484 ], [ 1.885044682481172, 50.603523116971409 ], [ 1.880728942905112, 50.602892767417764 ], [ 1.877979008577396, 50.602756630892777 ], [ 1.87472241510214, 50.602888696731448 ], [ 1.873877189802895, 50.602845125283636 ], [ 1.872702657578489, 50.602644176130504 ], [ 1.871493947463196, 50.604656283560395 ], [ 1.87042561144577, 50.604184319667283 ], [ 1.868576241558267, 50.603637011501036 ], [ 1.867171780783062, 50.603125152746351 ], [ 1.864246757790296, 50.605744412232525 ], [ 1.863798803444009, 50.60596918779585 ], [ 1.863941439978593, 50.606023449726742 ], [ 1.863644546728714, 50.606740570702506 ], [ 1.862051469579362, 50.608576727378065 ], [ 1.86373648989967, 50.609660256474285 ], [ 1.864814823332643, 50.610191603482626 ], [ 1.865798258431576, 50.610803750145237 ], [ 1.866516407759021, 50.611546302472277 ], [ 1.867565989103235, 50.611979528122554 ], [ 1.867967824250526, 50.612238098109785 ], [ 1.873648196143852, 50.617276537769605 ], [ 1.874163078410123, 50.617907692177866 ], [ 1.874221621482666, 50.618568811566291 ], [ 1.874357241171641, 50.618812376923898 ], [ 1.8754456936406, 50.619598613789663 ], [ 1.875646737487453, 50.61994508918675 ], [ 1.875557199993112, 50.620100449257997 ], [ 1.874219457265438, 50.620239108183412 ], [ 1.873386158982543, 50.620468496230863 ], [ 1.87133394861141, 50.621323152544853 ], [ 1.870515269709819, 50.621528420741711 ], [ 1.86892249660779, 50.621775098419548 ], [ 1.864673072472895, 50.622144678702782 ], [ 1.865896514800175, 50.622822731756237 ], [ 1.867115627164788, 50.623193776003909 ], [ 1.868517252386636, 50.623856374729137 ], [ 1.868742078649232, 50.622769716909445 ], [ 1.871815642516263, 50.624563137232627 ], [ 1.871692873694748, 50.624752297742752 ], [ 1.875454657211487, 50.62518493912021 ], [ 1.876242573078798, 50.625347347475874 ], [ 1.876202215862224, 50.625448402841435 ], [ 1.876325151443257, 50.625503367520722 ], [ 1.879321894078319, 50.626522227770963 ], [ 1.879208825619551, 50.626593906554838 ], [ 1.880145202370364, 50.627123820511926 ], [ 1.879818211778779, 50.627360509446952 ], [ 1.883377466942367, 50.629361744705747 ], [ 1.885208332622154, 50.630283799211796 ], [ 1.886490158228327, 50.630832020772061 ], [ 1.887620611329364, 50.631717236667349 ], [ 1.887175749383953, 50.631924166505591 ], [ 1.887184193766652, 50.631988863515552 ], [ 1.88520797478509, 50.633224067711751 ], [ 1.883983424498573, 50.634795386411724 ], [ 1.882945819005952, 50.634811185217615 ], [ 1.881864865223998, 50.636520194220822 ], [ 1.883487673660886, 50.636717891159755 ], [ 1.883464295212188, 50.639038644371645 ], [ 1.882230543437514, 50.639049083832539 ], [ 1.882632242788401, 50.641292879696678 ], [ 1.883098716239956, 50.643101062266155 ], [ 1.883853404197445, 50.64305758798713 ], [ 1.884179035219799, 50.645108615610958 ], [ 1.885471028282253, 50.648076580376632 ], [ 1.884638404288602, 50.650862110807516 ], [ 1.884605162227046, 50.651532239630214 ], [ 1.884726694853367, 50.652289019457861 ], [ 1.888576102932587, 50.65166746079457 ], [ 1.893458787695014, 50.650724716599363 ], [ 1.902351733138823, 50.649525604915517 ], [ 1.902630680980695, 50.650390559799867 ], [ 1.902687965142313, 50.651451002375097 ], [ 1.901635874956197, 50.653532850948487 ], [ 1.90153091802138, 50.654006693349025 ], [ 1.902131712522614, 50.655261305650612 ], [ 1.902430448969023, 50.656191047117872 ], [ 1.90071779189105, 50.656389502410427 ], [ 1.899851854246405, 50.656733649108787 ], [ 1.898295374216697, 50.65759848909827 ], [ 1.896837374987547, 50.658798046653942 ], [ 1.896597118272339, 50.659129775559052 ], [ 1.896216805630564, 50.660051698650449 ], [ 1.895361205144854, 50.660884133352269 ], [ 1.894206531570345, 50.661703129739031 ], [ 1.893959119943282, 50.662486219581638 ], [ 1.893431872779335, 50.665777947890611 ], [ 1.893578973752233, 50.665895031976476 ], [ 1.893095469818866, 50.666240739012956 ], [ 1.892779116017191, 50.666818583946331 ], [ 1.891893861707304, 50.667259426598292 ], [ 1.891793391483979, 50.667396740887909 ], [ 1.89218262367835, 50.66780407379418 ], [ 1.89397389641775, 50.668286717418276 ], [ 1.893539052721307, 50.668986460795402 ], [ 1.893703079211602, 50.669040872072358 ], [ 1.895157724240943, 50.669165102286456 ], [ 1.897831265859502, 50.669217567392046 ], [ 1.899886244876652, 50.66940001678288 ], [ 1.902909369773351, 50.669870096470724 ], [ 1.903945225737298, 50.670096425439027 ], [ 1.904267208117599, 50.670096573078759 ], [ 1.904304980373, 50.670242295476235 ], [ 1.905090068113843, 50.670376656500338 ], [ 1.905128655579578, 50.671326513109761 ], [ 1.904054529378386, 50.674079429369172 ], [ 1.903316572630341, 50.673918555225761 ], [ 1.902500244734724, 50.676436795234892 ], [ 1.902499690658738, 50.676720386573443 ], [ 1.902325600470845, 50.67699526533648 ], [ 1.900690532344533, 50.677487873762686 ], [ 1.900306336323269, 50.677681914551208 ], [ 1.900189389491579, 50.678184351808582 ], [ 1.900401975795591, 50.678924837852819 ], [ 1.899698987040561, 50.679871710589538 ], [ 1.898728182137851, 50.681370829934018 ], [ 1.898084497359303, 50.681994236842208 ], [ 1.897758962844464, 50.682730848347227 ], [ 1.897379902348883, 50.682688895513017 ], [ 1.897144676103583, 50.682529754700546 ], [ 1.896683871167835, 50.682415278314274 ], [ 1.895529475656316, 50.682815158783242 ], [ 1.895352629494882, 50.68314833548601 ], [ 1.895206538752571, 50.684201538386418 ], [ 1.896456173041256, 50.684161486132965 ], [ 1.897470072155057, 50.684370615446596 ], [ 1.897852705070977, 50.684507728809066 ], [ 1.898852320657512, 50.685110698686117 ], [ 1.899540054698516, 50.685764745357829 ], [ 1.899261650495208, 50.686091642090901 ], [ 1.899267671293464, 50.686589776762709 ], [ 1.899605390459733, 50.687422901945887 ], [ 1.900362859529155, 50.687539991206243 ], [ 1.901348074155615, 50.687514600986667 ], [ 1.902093858010985, 50.687584909374252 ], [ 1.903324051652284, 50.687920643781389 ], [ 1.90536581851366, 50.688809159290976 ], [ 1.906688490295624, 50.689247084316897 ], [ 1.907240166080218, 50.689279756269848 ], [ 1.907507897107182, 50.68983044454891 ], [ 1.907356834456897, 50.69027963039543 ], [ 1.907517887834621, 50.690604123375387 ], [ 1.907557563905957, 50.69163652366484 ], [ 1.907755240548094, 50.691836594013928 ], [ 1.908011356983051, 50.691753587902774 ], [ 1.908108718367046, 50.691889058448773 ], [ 1.908374227521535, 50.691958698056673 ], [ 1.909390394850301, 50.691358259418607 ], [ 1.909377026300165, 50.691453270284633 ], [ 1.909791549494382, 50.691297163116751 ], [ 1.910456079242445, 50.691208759011609 ], [ 1.910502762997508, 50.691010834912959 ], [ 1.912240488456696, 50.690425669356877 ], [ 1.914430676896641, 50.689364302979179 ], [ 1.915131243828584, 50.688914521269687 ], [ 1.917109699695231, 50.687446513005199 ], [ 1.917534639238722, 50.686935981546966 ], [ 1.917911971589208, 50.68666734282958 ], [ 1.917906461845995, 50.686202420516551 ], [ 1.918179443637014, 50.685924795221268 ], [ 1.919884478758069, 50.686058086761435 ], [ 1.919889088928626, 50.686237615004792 ], [ 1.920298374537747, 50.686190017069308 ], [ 1.923542563106398, 50.685038022450378 ], [ 1.924942095093806, 50.687033479203144 ], [ 1.925347731974147, 50.686892499468122 ], [ 1.925421272398503, 50.687152495135365 ], [ 1.925773496261772, 50.6873287455007 ], [ 1.925854101467158, 50.687456878372622 ], [ 1.925778790713985, 50.687675202391809 ], [ 1.925927185161512, 50.688002254721376 ], [ 1.925803485273668, 50.688369134978338 ], [ 1.926072374955419, 50.68874299734258 ], [ 1.926685290095186, 50.689083035212398 ], [ 1.927470013662846, 50.688986603855767 ], [ 1.928165261994313, 50.689771574959941 ], [ 1.928413645988904, 50.689849998513438 ], [ 1.928461914432054, 50.689905158142018 ], [ 1.928398709660625, 50.689953972151208 ], [ 1.928980317010052, 50.690239881873566 ], [ 1.929186926811662, 50.690488456253874 ], [ 1.93021423643538, 50.691140761568548 ], [ 1.932178694968586, 50.690578808933587 ], [ 1.933258762242022, 50.690147443109552 ], [ 1.933503780370131, 50.690517493243647 ], [ 1.933881609551724, 50.690355606801887 ], [ 1.936717480546625, 50.689869258519849 ], [ 1.938447007673842, 50.689387760785429 ], [ 1.94080916004173, 50.68952009145719 ], [ 1.942078088720694, 50.68977499983567 ], [ 1.942719102966208, 50.689793018048249 ], [ 1.943598066794196, 50.689715235375701 ], [ 1.944574327971481, 50.689511734723929 ], [ 1.945585713834223, 50.689048268844346 ], [ 1.946321013921915, 50.689285144537024 ], [ 1.9467336915419, 50.689008643170673 ], [ 1.947806170268129, 50.689402725159525 ], [ 1.948284300226118, 50.688901517201394 ], [ 1.947514569434827, 50.688622182108695 ], [ 1.948526653877759, 50.687786262848981 ], [ 1.948331260431372, 50.687605122835897 ], [ 1.949188153303566, 50.686825319840722 ], [ 1.950079530755273, 50.687231314007278 ], [ 1.950840576360811, 50.686777356299629 ], [ 1.952274810660446, 50.687909452794344 ], [ 1.953077230520317, 50.687367882150333 ], [ 1.956714319154416, 50.689026407214151 ], [ 1.958315126329453, 50.689902264192938 ], [ 1.963441226559454, 50.691923946376065 ], [ 1.964973642584001, 50.691400054531123 ], [ 1.966714097790892, 50.690377108519769 ], [ 1.967691755915847, 50.689964337993885 ], [ 1.968924490241252, 50.68958149613389 ], [ 1.971046089414393, 50.688427931978019 ], [ 1.971483373005193, 50.688391166854608 ], [ 1.972184187419161, 50.688661705802822 ], [ 1.97269501066394, 50.688690159436284 ], [ 1.973876768450916, 50.688516845516219 ], [ 1.974879371569653, 50.688261274255531 ], [ 1.973124066347983, 50.687123201559196 ], [ 1.974357132372413, 50.686096848916094 ], [ 1.974956382641027, 50.686359355681475 ], [ 1.975755091193373, 50.68688555329269 ], [ 1.977603445996893, 50.68734230736839 ], [ 1.977882507419667, 50.687651523725393 ], [ 1.980329522267255, 50.68875212717321 ], [ 1.981408384972227, 50.689539940205762 ], [ 1.981758295005461, 50.69025805609202 ], [ 1.982681130095292, 50.691357778822351 ], [ 1.982561237079646, 50.691417822390797 ], [ 1.982719980596551, 50.6916712978284 ], [ 1.982020952377161, 50.691864803226885 ], [ 1.984505641461216, 50.693561511570095 ], [ 1.983450685599634, 50.695003120333496 ], [ 1.982303422271125, 50.695141807612686 ], [ 1.981599049250841, 50.695387316602073 ], [ 1.980117532595306, 50.695495425021754 ], [ 1.981167526229641, 50.697085285437453 ], [ 1.984686469080295, 50.698168538256638 ], [ 1.98445382777286, 50.698562397986819 ], [ 1.984012338449148, 50.698802887518234 ], [ 1.983718244061772, 50.699509440671243 ], [ 1.98290502132794, 50.700799551534018 ], [ 1.983323520821766, 50.701903200257682 ], [ 1.983137390665025, 50.702441021401505 ], [ 1.982891086649872, 50.70274053625657 ], [ 1.982242097873956, 50.703106752782197 ], [ 1.981117597053392, 50.704341350411887 ], [ 1.979805348721958, 50.70410444350545 ], [ 1.978220686380477, 50.703990921331943 ], [ 1.978231389499667, 50.703812425051375 ], [ 1.976897294467423, 50.703539411150047 ], [ 1.975789445745397, 50.70339837098917 ], [ 1.975666230132363, 50.703411714479977 ], [ 1.975611097506114, 50.703758557553108 ], [ 1.9736038705308, 50.703509574929797 ], [ 1.972223502517678, 50.704254688066762 ], [ 1.969644903184001, 50.70382143548985 ], [ 1.969254183813691, 50.704198698607826 ], [ 1.968211265176046, 50.704473629732647 ], [ 1.967860821795743, 50.70488442656228 ], [ 1.967133636078979, 50.704992358888312 ], [ 1.966756817887988, 50.70524229726216 ], [ 1.966527860852802, 50.705723199857005 ], [ 1.966835269849045, 50.706990200461931 ], [ 1.966781955221032, 50.707382821071029 ], [ 1.966466724039743, 50.707729291883091 ], [ 1.965091130124658, 50.708643074585204 ], [ 1.964112548760392, 50.709081833326906 ], [ 1.963863751463232, 50.709973573649897 ], [ 1.96398000022098, 50.710366706846379 ], [ 1.964444152465303, 50.711022983590816 ], [ 1.965170633321557, 50.711843870422662 ], [ 1.965875470283907, 50.712413300260678 ], [ 1.967037688411325, 50.71314805700586 ], [ 1.96772224527609, 50.713468727588904 ], [ 1.968640559755447, 50.713763513713076 ], [ 1.968016413289963, 50.714970717474742 ], [ 1.966045804844677, 50.719299522774428 ], [ 1.965831438113356, 50.719069803612236 ], [ 1.962874571443243, 50.717140020595849 ], [ 1.963215164369644, 50.716938254783706 ], [ 1.963618911391549, 50.716484846776055 ], [ 1.964582901697887, 50.715870084857066 ], [ 1.965034696317607, 50.715416174319294 ], [ 1.964501085835856, 50.714835604824437 ], [ 1.964303123796967, 50.714839340744419 ], [ 1.963920084737417, 50.714496934608192 ], [ 1.963384066955013, 50.714854118413584 ], [ 1.962083161374101, 50.714879164000969 ], [ 1.96030524128936, 50.714595991701884 ], [ 1.958840812065249, 50.714736297715781 ], [ 1.958222814851717, 50.714955471509199 ], [ 1.955551669288303, 50.715008448512194 ], [ 1.955269040529592, 50.714869670290966 ], [ 1.954986920469004, 50.714842172890691 ], [ 1.951173060260737, 50.714790324418367 ], [ 1.950668026275744, 50.714405567459735 ], [ 1.950916753226108, 50.71393473688876 ], [ 1.950299186765016, 50.713592103665825 ], [ 1.94938929310401, 50.713305328845934 ], [ 1.948904610027923, 50.713232133438211 ], [ 1.948686101210143, 50.713407074192141 ], [ 1.948527543199438, 50.713419194676973 ], [ 1.946966926339459, 50.713293814789111 ], [ 1.946486074594017, 50.713038470056212 ], [ 1.946382484363005, 50.7127890124112 ], [ 1.946230976023049, 50.712734782016 ], [ 1.944747320830604, 50.713318972851489 ], [ 1.942819443009436, 50.711909831384745 ], [ 1.942300342624236, 50.71219617576886 ], [ 1.941477860588088, 50.712324685334131 ], [ 1.939184600630774, 50.712960247809612 ], [ 1.938613473725487, 50.713299079505894 ], [ 1.937816318863241, 50.713364962931671 ], [ 1.937277318313105, 50.71325446465805 ], [ 1.936070272063336, 50.713719766810641 ], [ 1.935385314269758, 50.712828169182416 ], [ 1.934221665176472, 50.713179855170701 ], [ 1.933513023345454, 50.713536330494264 ], [ 1.933192175345394, 50.71360267851626 ], [ 1.931499256368947, 50.714513365607509 ], [ 1.930882086211309, 50.714091667262259 ], [ 1.930099802549291, 50.714519281958843 ], [ 1.929604527934759, 50.715141405889312 ], [ 1.928194076921835, 50.715726926838506 ], [ 1.927223210614651, 50.716311737126055 ], [ 1.926405286679381, 50.716552361330422 ], [ 1.925334166520995, 50.717064499133031 ], [ 1.924392239059456, 50.717944780529038 ], [ 1.924132247712706, 50.717413067054764 ], [ 1.923825546021536, 50.717411310956493 ], [ 1.922134406504703, 50.717633579274512 ], [ 1.920602347606949, 50.718147962315783 ], [ 1.920488562941714, 50.718049158393555 ], [ 1.919716473999595, 50.717996687220733 ], [ 1.918370820782978, 50.717273354507704 ], [ 1.917884435574161, 50.717737565838853 ], [ 1.917124263711862, 50.719096789158151 ], [ 1.916867555366704, 50.71926685406649 ], [ 1.915496451129133, 50.719197472753649 ], [ 1.914504419430661, 50.719052414279105 ], [ 1.913504159098781, 50.718374221406101 ], [ 1.913441759476468, 50.717796648759879 ], [ 1.912629624943362, 50.717244829289307 ], [ 1.912226215018581, 50.717139895377365 ], [ 1.911355917959, 50.716663837215215 ], [ 1.910143812301389, 50.716501560449366 ], [ 1.909454669198722, 50.719525140768255 ], [ 1.909391560752062, 50.719696887733953 ], [ 1.909107149336897, 50.719904384491649 ], [ 1.908731937320655, 50.720386584726207 ], [ 1.909130157576031, 50.722484598131459 ], [ 1.910634899942969, 50.723694010232236 ], [ 1.90902929827761, 50.724780140038717 ], [ 1.907667877759726, 50.725946465288104 ], [ 1.906764743591328, 50.726905916390372 ], [ 1.906671051244951, 50.727117773897199 ], [ 1.90523611354943, 50.72853738363073 ], [ 1.904674143198161, 50.72895600298633 ], [ 1.904559531285251, 50.729283436868606 ], [ 1.904376569720997, 50.729438868039367 ], [ 1.9033767301478, 50.72990118541653 ], [ 1.901849424089918, 50.730430630385449 ], [ 1.90090364383056, 50.730682519571715 ], [ 1.900257896444463, 50.730727963757168 ], [ 1.89906195616865, 50.731746684766705 ], [ 1.898238667245004, 50.732663700182755 ], [ 1.89793213978417, 50.733099804754602 ], [ 1.897751464558626, 50.733921102144762 ], [ 1.896966302394662, 50.735030483486952 ], [ 1.895689279473867, 50.736384067192233 ], [ 1.894465697247501, 50.737299293783337 ], [ 1.893982002298678, 50.737430498856838 ], [ 1.892781269291528, 50.73737315604621 ], [ 1.891796191164973, 50.737475660800996 ], [ 1.890436844933367, 50.737301120968041 ], [ 1.889269517507492, 50.737395698761055 ], [ 1.889091315716537, 50.737460513696135 ], [ 1.888596789079006, 50.73884433763061 ], [ 1.887546281666268, 50.738261527063834 ], [ 1.885855805611598, 50.737651440969408 ], [ 1.884726835320636, 50.737419674432068 ], [ 1.88249838245925, 50.73709367382191 ], [ 1.880693197899865, 50.737255128385129 ], [ 1.880019802867635, 50.737204199802804 ], [ 1.879376432354259, 50.737770934147669 ], [ 1.878879942984663, 50.737713516254679 ], [ 1.878904597795596, 50.738254857045959 ], [ 1.878744334833476, 50.738465193928953 ], [ 1.87849357884526, 50.738801245031219 ], [ 1.878273268790997, 50.739545875942618 ], [ 1.877909516318487, 50.740254214630355 ], [ 1.877921155202502, 50.740807999481611 ], [ 1.877471243911397, 50.741005850666411 ], [ 1.877358604253783, 50.741867210012423 ], [ 1.877098707313607, 50.742357522326039 ], [ 1.876313084525163, 50.743082685642108 ], [ 1.875764555350408, 50.74389254365925 ], [ 1.875212898609934, 50.744399956735919 ], [ 1.874221421982796, 50.744905183761148 ], [ 1.872788091672277, 50.745372301187118 ], [ 1.878333702965996, 50.749037893196295 ], [ 1.877014208507493, 50.749849772620543 ], [ 1.878218007769828, 50.75054082847214 ], [ 1.876821459724371, 50.75138072537024 ], [ 1.874896106760292, 50.750633781321582 ], [ 1.874629688179571, 50.750592786094387 ], [ 1.87457623370362, 50.750642554960969 ], [ 1.873454431544297, 50.750207056603784 ], [ 1.871883303592912, 50.74937443067531 ], [ 1.87244044393081, 50.749004381704161 ], [ 1.871290379264859, 50.748193507777266 ], [ 1.870119120315298, 50.748951023702261 ], [ 1.870357744850613, 50.749094973369672 ], [ 1.86886893212172, 50.750070345373629 ], [ 1.868518550372449, 50.749864356406874 ], [ 1.867031373886517, 50.751265070150062 ], [ 1.863679888565029, 50.753407026113855 ], [ 1.862452386294203, 50.753952176014124 ], [ 1.861331346722897, 50.754915558906788 ], [ 1.861062346409764, 50.754800928077003 ], [ 1.860872174293333, 50.754827903239374 ], [ 1.860962424845023, 50.755027045156204 ], [ 1.85753382383303, 50.759348691309285 ], [ 1.856540028337497, 50.759872593469836 ], [ 1.85453193160331, 50.761133753973333 ], [ 1.851860619366571, 50.762190451590634 ], [ 1.851216827725082, 50.762377442407896 ], [ 1.850683601984158, 50.762863370406841 ], [ 1.850244701403125, 50.763061221009337 ], [ 1.849451835762898, 50.763208239774805 ], [ 1.849478855191887, 50.764864991882469 ], [ 1.849350718281495, 50.765207491006301 ], [ 1.848883737712899, 50.765764014777481 ], [ 1.848626381232923, 50.76748004785189 ], [ 1.849317867828728, 50.769284711985776 ], [ 1.849782786270935, 50.770975106934124 ], [ 1.849972674120053, 50.771333103759964 ], [ 1.851470457911107, 50.772848170926686 ], [ 1.849792480119578, 50.773448253686198 ], [ 1.848881182612588, 50.773691983394457 ], [ 1.846778548388496, 50.774478333579125 ], [ 1.845746414803827, 50.774744251793713 ], [ 1.846339649812082, 50.776451987454756 ], [ 1.846382437336066, 50.777051800328806 ], [ 1.847114412724663, 50.778514045960208 ], [ 1.848096602173648, 50.779991160795262 ], [ 1.848581247570968, 50.780518782997454 ], [ 1.850176005177819, 50.781827457422551 ], [ 1.852171979193334, 50.78317300721217 ], [ 1.852807508275625, 50.783605089672299 ], [ 1.855102873138096, 50.785667609036338 ], [ 1.856452255649447, 50.787445921261479 ], [ 1.856887641354091, 50.787596179855392 ], [ 1.857834562442808, 50.787537568017669 ], [ 1.858404954395168, 50.787664831690307 ], [ 1.859138738207305, 50.78807624284471 ], [ 1.860130520074106, 50.788907260382977 ], [ 1.860458306215282, 50.789059213179485 ], [ 1.865147396858476, 50.790215583570081 ], [ 1.865541292026642, 50.790449779788815 ], [ 1.865867459904521, 50.790986647989037 ], [ 1.866218721017672, 50.791228529294443 ], [ 1.868420627648843, 50.791515948354551 ], [ 1.870652816744675, 50.792219054986504 ], [ 1.870947859759315, 50.79238144972944 ], [ 1.871193931510423, 50.792581086752172 ], [ 1.872028466855764, 50.793931909100891 ], [ 1.87257774096075, 50.794498592293714 ], [ 1.873856630622838, 50.795420919881707 ], [ 1.874947164773006, 50.796347812867808 ], [ 1.87571988627512, 50.797180302683117 ], [ 1.875839774537627, 50.797893838163013 ], [ 1.87623454757078, 50.798598187618211 ], [ 1.876420193376492, 50.798653699698619 ], [ 1.879305630089555, 50.800679754996189 ], [ 1.880249473401392, 50.801590916000052 ], [ 1.880428437898821, 50.801629313150968 ], [ 1.88159693183494, 50.800980298728888 ], [ 1.882805054581941, 50.801091634038926 ], [ 1.884115733817422, 50.801112352494428 ], [ 1.884813950777315, 50.80097772927224 ], [ 1.885403483444501, 50.80076406562096 ], [ 1.885873729792815, 50.800311550375504 ], [ 1.886353333757403, 50.800010759070595 ], [ 1.88747510296136, 50.798847122544622 ], [ 1.888944567672641, 50.797835526426546 ], [ 1.890067669543459, 50.796351540912688 ], [ 1.891537699631683, 50.796075699840578 ], [ 1.892584381021973, 50.795992586836718 ], [ 1.894503093839384, 50.795400363624474 ], [ 1.895884847449913, 50.795208931130475 ], [ 1.899053123532835, 50.795538462120348 ], [ 1.89831108207528, 50.796447143448276 ], [ 1.898731254800696, 50.796847462455467 ], [ 1.898966235876738, 50.798136257716557 ], [ 1.898465730716548, 50.798811980712522 ], [ 1.897949556937506, 50.799169921595343 ], [ 1.8963236710228, 50.799769276166423 ], [ 1.895401029896664, 50.800644032929412 ], [ 1.894973696115625, 50.800824187907452 ], [ 1.894685550048425, 50.800856626269464 ], [ 1.892962309727846, 50.800668149967166 ], [ 1.892197593375523, 50.800673914995457 ], [ 1.891748789896584, 50.800800030732454 ], [ 1.889652950290771, 50.801068503479584 ], [ 1.889136765243093, 50.801231695480531 ], [ 1.88955108078775, 50.801575461381994 ], [ 1.891085524303511, 50.801850238538492 ], [ 1.893607320452052, 50.802810322410437 ], [ 1.897968133880587, 50.804112345895945 ], [ 1.899768171108468, 50.804935808113889 ], [ 1.902146022657076, 50.805694347026424 ], [ 1.903971376622652, 50.806660635964242 ], [ 1.907216748718507, 50.808034159188672 ], [ 1.909052668987092, 50.8086541127646 ], [ 1.910343877850037, 50.808992915692492 ], [ 1.912554149676156, 50.809789262821141 ], [ 1.913614036210187, 50.810348535813858 ], [ 1.916015888397156, 50.811393238527884 ], [ 1.916374864869548, 50.811688870814599 ], [ 1.918963404741141, 50.813275292353453 ], [ 1.922498169007238, 50.816440949056215 ], [ 1.923286049694353, 50.818396610768502 ], [ 1.923689997204624, 50.820226919379358 ], [ 1.923809253618653, 50.820279990052285 ], [ 1.923915627040044, 50.820668523704683 ], [ 1.926316922030525, 50.822893787545794 ], [ 1.927260095546445, 50.82224422057628 ], [ 1.927634604275811, 50.821822144208468 ], [ 1.928035507275816, 50.821886605871995 ], [ 1.929731120588549, 50.821089160194767 ], [ 1.931261091187442, 50.82055047518871 ], [ 1.930985885358119, 50.820172164700622 ], [ 1.932537649274149, 50.819738629639794 ], [ 1.933434534598997, 50.820389640404741 ], [ 1.936270731847563, 50.819502264193368 ], [ 1.936226730891791, 50.819439977938309 ], [ 1.938814040188799, 50.818528884833967 ], [ 1.940193107388555, 50.818218502834526 ], [ 1.940797283949427, 50.818983615773448 ], [ 1.940921059447225, 50.818957749833167 ], [ 1.94137964583708, 50.819307986661308 ], [ 1.943252819166012, 50.818606076412387 ], [ 1.94169605720109, 50.817072912158984 ], [ 1.945143177426029, 50.815676388047713 ], [ 1.947661437387092, 50.814192968590824 ], [ 1.949002220168391, 50.813606705520016 ], [ 1.949478523569063, 50.813113637334673 ], [ 1.950453809690115, 50.812935223641468 ], [ 1.950997661947871, 50.812934418932926 ], [ 1.951274739837643, 50.811269632585052 ], [ 1.952380991341855, 50.811327389392972 ], [ 1.953653879746868, 50.81025687724722 ], [ 1.954562808111878, 50.809794337524146 ], [ 1.955748202784309, 50.810265471585218 ], [ 1.955170014729847, 50.81082680046778 ], [ 1.956679228782837, 50.811254878615223 ], [ 1.958192135422933, 50.811098849424866 ], [ 1.95900492960184, 50.810899270512635 ], [ 1.959468286343104, 50.810546028482129 ], [ 1.959454189747217, 50.810338642336262 ], [ 1.959218301768774, 50.810036985535156 ], [ 1.95833706924401, 50.809307322509198 ], [ 1.958671253694798, 50.808968256407098 ], [ 1.959241970506364, 50.809307705068584 ], [ 1.961147905515941, 50.810134737297865 ], [ 1.961374506778543, 50.810065742057795 ], [ 1.961696025708454, 50.809722076474671 ], [ 1.962180469617753, 50.809784434183953 ], [ 1.962229640066503, 50.810008262980269 ], [ 1.962477155850612, 50.80975011670175 ], [ 1.963063622734099, 50.809399680420917 ], [ 1.962983403488169, 50.808965632837172 ], [ 1.963399563038547, 50.808632619915642 ], [ 1.96344096103714, 50.80868500580921 ], [ 1.963855353891946, 50.808505409417513 ], [ 1.963851734240907, 50.808406679833361 ], [ 1.964438394004737, 50.807977278540022 ], [ 1.966029466979538, 50.809034910045511 ], [ 1.966401154741515, 50.80886571820141 ], [ 1.967074177151484, 50.809465289106932 ], [ 1.968101058777228, 50.808975813610473 ], [ 1.96947861168438, 50.808510764281415 ], [ 1.970000618038595, 50.808192961030066 ], [ 1.969809362272561, 50.807853110105597 ], [ 1.968656445775682, 50.806695966465746 ], [ 1.968313470706816, 50.806091956277896 ], [ 1.967829621429314, 50.803462529895121 ], [ 1.967938835725326, 50.80345356453541 ], [ 1.967938474595482, 50.803265133905171 ], [ 1.967318011788809, 50.802317853995305 ], [ 1.967140737290531, 50.801577028741981 ], [ 1.966534785607702, 50.800477325126202 ], [ 1.966686628375327, 50.800117878419194 ], [ 1.96667074046644, 50.799790239692086 ], [ 1.966576070953436, 50.799026766404829 ], [ 1.966384080717121, 50.798588197943786 ], [ 1.971602032287104, 50.798213245210533 ], [ 1.971414903275949, 50.796709650258954 ], [ 1.974820071368456, 50.796490964675201 ], [ 1.973828901176288, 50.798154440675241 ], [ 1.975426394854783, 50.800759826488104 ], [ 1.974898197444736, 50.804357141881994 ], [ 1.975407867794619, 50.804361333832702 ], [ 1.97557149014847, 50.804461379064541 ], [ 1.975699449975229, 50.804850949590715 ], [ 1.975738051971567, 50.806008745813045 ], [ 1.977010487578355, 50.806037143920911 ], [ 1.977096577090653, 50.805704963608733 ], [ 1.97861535487782, 50.805527200788532 ], [ 1.979435059651279, 50.805743878169174 ], [ 1.98038418031854, 50.805655640228487 ], [ 1.979677645344158, 50.805097138622692 ], [ 1.979483452575197, 50.803857314049026 ], [ 1.981940035997486, 50.802889512751278 ], [ 1.983013278396893, 50.803797343983391 ], [ 1.983509849912023, 50.803888431265911 ], [ 1.983763500293702, 50.804157887070829 ], [ 1.983762911676358, 50.804256582077272 ], [ 1.981576917181163, 50.806051219901555 ], [ 1.983104319277646, 50.806772535691636 ], [ 1.984477825138592, 50.806008497300553 ], [ 1.985851148717811, 50.805600657525829 ], [ 1.987079544894695, 50.805635772590058 ], [ 1.988370858009458, 50.805920826873106 ], [ 1.989358134051953, 50.806256340787208 ], [ 1.991560404784847, 50.806731788804477 ], [ 1.992153857836688, 50.807006667134559 ], [ 1.992639492692835, 50.807432308761712 ], [ 1.993451153285822, 50.807771752807959 ], [ 1.996821060599764, 50.808778738910206 ], [ 1.99769236463443, 50.809112353512845 ], [ 1.998295205478799, 50.808850713861439 ], [ 1.999563598570858, 50.809156102357306 ], [ 2.001787395184823, 50.80927353133216 ], [ 2.002932200646423, 50.809457662112159 ], [ 2.008522206307735, 50.809858474425951 ], [ 2.011513779412838, 50.809536794761897 ], [ 2.012469819388779, 50.809313778770573 ], [ 2.014638837115385, 50.80933812627611 ], [ 2.015140204309554, 50.809263130774873 ], [ 2.016044280015302, 50.809377046301329 ], [ 2.016609411721738, 50.809516096025256 ], [ 2.019431751236609, 50.810599791692191 ], [ 2.020756431506207, 50.811293917096556 ], [ 2.022560568980711, 50.81202229537314 ], [ 2.023230768029787, 50.812367609346879 ], [ 2.024507355099085, 50.812773297020634 ], [ 2.024599465967582, 50.812697751426576 ], [ 2.025402757947036, 50.813045889267158 ], [ 2.026655359965319, 50.813448674922661 ], [ 2.02792740402796, 50.814163842630435 ], [ 2.02881384713376, 50.813951824144013 ], [ 2.029823880650635, 50.815837634321284 ], [ 2.030449040871715, 50.816685014656343 ], [ 2.030650089376668, 50.817127126611787 ], [ 2.030469008973386, 50.818869963050354 ], [ 2.029765225106436, 50.820614110595955 ], [ 2.02982829942163, 50.821086550545132 ], [ 2.030127227663664, 50.821594920579663 ], [ 2.028222483727585, 50.82201165839836 ], [ 2.027000984903479, 50.822037122079252 ], [ 2.026873039285412, 50.82278890743148 ], [ 2.026916153641518, 50.823193898751242 ], [ 2.027298165226436, 50.823945176766181 ], [ 2.027911353548413, 50.824464076826587 ], [ 2.028052686229515, 50.824407755706126 ], [ 2.028881091956902, 50.825734942971934 ], [ 2.029786450881403, 50.826529764037275 ], [ 2.0305799305615, 50.827543529300925 ], [ 2.031726130268892, 50.828633600555676 ], [ 2.032248079099957, 50.829846221464088 ], [ 2.031766049386052, 50.82993758511148 ], [ 2.031739974765676, 50.83033306032015 ], [ 2.032646772267103, 50.831938957740363 ], [ 2.032575955742066, 50.832011083554235 ], [ 2.03313719136634, 50.832586969534816 ], [ 2.033467589458033, 50.833158371473331 ], [ 2.034383933132338, 50.835596046322578 ], [ 2.034594038061202, 50.836455415392557 ], [ 2.035179620957638, 50.837021606764878 ], [ 2.035758935304341, 50.837325758753998 ], [ 2.036943481719728, 50.838502192258737 ], [ 2.037323788687472, 50.838693544201178 ], [ 2.03617538012846, 50.839904885561324 ], [ 2.036546192289716, 50.840074632880068 ], [ 2.036141850699912, 50.84046807669796 ], [ 2.036283061339959, 50.840566964334869 ], [ 2.035946818892393, 50.841176264561511 ], [ 2.034925740340264, 50.840998793462703 ], [ 2.033606113520046, 50.840945507697725 ], [ 2.03364792179116, 50.840761902966968 ], [ 2.034297514416077, 50.840290514699092 ], [ 2.034882553360808, 50.839639180271234 ], [ 2.035461747131653, 50.839216587286778 ], [ 2.033573931866471, 50.838138769485823 ], [ 2.033245119956011, 50.838289644768899 ], [ 2.033118135175752, 50.838261743696535 ], [ 2.031890741632318, 50.839010368557631 ], [ 2.031368152887421, 50.838703948359438 ], [ 2.02321027611153, 50.841847857656084 ], [ 2.022648277155962, 50.842036355233219 ], [ 2.022823062736109, 50.842228831320639 ], [ 2.022202265795498, 50.842452754586283 ], [ 2.022620246270892, 50.8428902819185 ], [ 2.021656914635205, 50.844034747592126 ], [ 2.018203587531147, 50.847346122596846 ], [ 2.01772879505624, 50.848862250148365 ], [ 2.017849953824437, 50.848899092455483 ], [ 2.017710749132686, 50.849275719117877 ], [ 2.01781226345997, 50.849663213288643 ], [ 2.018078111047651, 50.849765793241019 ], [ 2.018151339634359, 50.850655497353664 ], [ 2.017644618642524, 50.850909901588103 ], [ 2.017868872487194, 50.851470623890137 ], [ 2.01768714266128, 50.851414463570045 ], [ 2.01705279621684, 50.851599672764173 ], [ 2.016579679980334, 50.852090300897892 ], [ 2.015412236364408, 50.853003412249102 ], [ 2.015018967242339, 50.853108868462598 ], [ 2.015815581117614, 50.854761514038529 ], [ 2.011957830462432, 50.860116868583724 ], [ 2.01155804569285, 50.861551895050852 ], [ 2.011294565420859, 50.86175705757114 ], [ 2.010600427809662, 50.862663096476538 ], [ 2.009264589923026, 50.865473243582393 ], [ 2.009183474062229, 50.865703175310834 ], [ 2.013985955406093, 50.866603411062506 ], [ 2.014851582101238, 50.86656269816153 ], [ 2.015195620910834, 50.866298951530979 ], [ 2.018093834536021, 50.863322513257607 ], [ 2.020777801334286, 50.860989393003813 ], [ 2.02226707725601, 50.859353836307385 ], [ 2.025440556668244, 50.854503325972637 ], [ 2.028325452605579, 50.855936220667019 ], [ 2.028443004421419, 50.856086967491684 ], [ 2.029610411919273, 50.856846106931457 ], [ 2.031225173743232, 50.857636522074095 ], [ 2.033541884335145, 50.8592945529631 ], [ 2.035496786948189, 50.860316325751391 ], [ 2.036338998635663, 50.860674530948231 ], [ 2.037352153586987, 50.86099008726007 ], [ 2.037620311235259, 50.860830662851392 ], [ 2.037940023753129, 50.860423115083925 ], [ 2.038374997779968, 50.860508112525082 ], [ 2.039395683519654, 50.860874849825386 ], [ 2.03985696032878, 50.861066809458727 ], [ 2.04096928738155, 50.861756327492337 ], [ 2.042773007197822, 50.862394618785181 ], [ 2.042826430486704, 50.86249192432031 ], [ 2.043853864587128, 50.862880207581235 ], [ 2.044325697135369, 50.863263330226182 ], [ 2.047526179745113, 50.864854279259035 ], [ 2.047795975794307, 50.865054614886596 ], [ 2.047863363160676, 50.865238153374797 ], [ 2.047386405300616, 50.865790762495351 ], [ 2.047354651771511, 50.865969058197287 ], [ 2.051108857383713, 50.868428110718632 ], [ 2.053968973781265, 50.866308274824831 ], [ 2.055686380639812, 50.864854402025721 ], [ 2.058232780936312, 50.863186954610406 ], [ 2.060962055103435, 50.860529443224678 ], [ 2.062408790541013, 50.859427817781793 ], [ 2.062788471048377, 50.859515005962514 ], [ 2.062900738780277, 50.859424336617629 ], [ 2.064273258290009, 50.85789148185205 ], [ 2.064254084112186, 50.858007074936459 ], [ 2.065995076848073, 50.85874863580694 ], [ 2.067052055073916, 50.859002373180886 ], [ 2.067936357250595, 50.859090626910948 ], [ 2.068853819144568, 50.859377399259621 ], [ 2.068861403690315, 50.859807206256868 ], [ 2.069540337199511, 50.860039258839343 ], [ 2.069619052989165, 50.860227356851532 ], [ 2.069865054923717, 50.860262386915437 ], [ 2.07050709607536, 50.860649371218642 ], [ 2.071023500973304, 50.860855980402235 ], [ 2.071174976449738, 50.860866977223793 ], [ 2.07144310885757, 50.860702994820315 ], [ 2.071577492207994, 50.860718349844177 ], [ 2.072467227688178, 50.86112690464708 ], [ 2.072825051389906, 50.860942053835714 ], [ 2.073867530192015, 50.861676512295574 ], [ 2.073879439400573, 50.862028294720446 ], [ 2.074183232127661, 50.862311366222336 ], [ 2.075954383755172, 50.862664527126135 ], [ 2.076050643564673, 50.862748677508421 ], [ 2.076002606298911, 50.862969924453601 ], [ 2.076970130424897, 50.863545895957856 ], [ 2.077740582752726, 50.864123991396362 ], [ 2.078864811916995, 50.864737889233673 ], [ 2.079572506115153, 50.864953947814506 ], [ 2.079620119019618, 50.865062857039625 ], [ 2.079384369976597, 50.865393071846256 ], [ 2.079951610133796, 50.865615268932828 ], [ 2.080757897070506, 50.866175664193335 ], [ 2.081508838893753, 50.866277191778039 ], [ 2.082046660162157, 50.86655837561355 ], [ 2.082163096806286, 50.866702779523877 ], [ 2.083382718086134, 50.866991662331834 ], [ 2.084176381379478, 50.86700646194712 ], [ 2.08442065164868, 50.867138344263907 ], [ 2.08558252131344, 50.867407940859536 ], [ 2.086505639985686, 50.867476607228035 ], [ 2.086901125626149, 50.867169978603265 ], [ 2.088868201019952, 50.867911064820625 ], [ 2.089916105926243, 50.868446246950441 ], [ 2.090460298961645, 50.868848557043698 ], [ 2.091021078091119, 50.869041048383686 ], [ 2.091805512737794, 50.869721428935023 ], [ 2.092373541676662, 50.869905892108193 ], [ 2.092740270539265, 50.870166942492688 ], [ 2.094144882137082, 50.870817722173719 ], [ 2.097680813826379, 50.872319172104945 ], [ 2.097814087007273, 50.872555191814534 ], [ 2.098375958362626, 50.872848138319085 ], [ 2.101847430471472, 50.874164183285352 ], [ 2.102769037339967, 50.874956722430987 ], [ 2.102829358628322, 50.875624640232743 ], [ 2.106048986325199, 50.876371748510621 ], [ 2.105569612537273, 50.877406320386697 ], [ 2.106825779442387, 50.877814549540105 ], [ 2.108902484863206, 50.879047725481705 ], [ 2.109009000845683, 50.879277259163416 ], [ 2.108901208897307, 50.879675721106146 ], [ 2.109016779354709, 50.880272252966556 ], [ 2.1092215303582, 50.880559904706395 ], [ 2.110467031290743, 50.881413900295655 ], [ 2.110296304290737, 50.881683621627488 ], [ 2.112028977649667, 50.882259367959733 ], [ 2.113074565010877, 50.883035655016876 ], [ 2.114092440632449, 50.88361705546054 ], [ 2.114175284954285, 50.884543494329435 ], [ 2.11440974032281, 50.884998214361708 ], [ 2.114381691183614, 50.885300351814934 ], [ 2.114632356687582, 50.886201064261641 ], [ 2.115294931497331, 50.886908221665863 ], [ 2.118411789064533, 50.885092035153257 ], [ 2.118556132327805, 50.885672606946315 ], [ 2.118570002740953, 50.88657432951856 ], [ 2.118317976389019, 50.886710708939169 ], [ 2.118284402477952, 50.886845042502785 ], [ 2.11852267879622, 50.887407436291504 ], [ 2.118983948603336, 50.887871820976279 ], [ 2.119326719070252, 50.887817720084321 ], [ 2.119429142090619, 50.888041829571129 ], [ 2.120464458860405, 50.889092496836078 ], [ 2.120465420429733, 50.889440591716721 ], [ 2.120755799688034, 50.889543116276194 ], [ 2.121055776091328, 50.890148102375811 ], [ 2.122496786612831, 50.891766796938867 ], [ 2.122939744193538, 50.892389826547387 ], [ 2.123392174314345, 50.893443542032735 ], [ 2.123612994183583, 50.893712436435003 ], [ 2.126236230520768, 50.89611897174435 ], [ 2.127052017817421, 50.897329514451037 ], [ 2.127433797786657, 50.898537016996883 ], [ 2.127087274643957, 50.900019327523843 ], [ 2.128028154226312, 50.901707996143216 ], [ 2.128335540016909, 50.902710425685065 ], [ 2.128362542351043, 50.904251854933428 ], [ 2.128572599056379, 50.904979084374716 ], [ 2.128596695200585, 50.906931363576938 ], [ 2.128998853791891, 50.908603685731684 ], [ 2.129695031306035, 50.909853721079251 ], [ 2.129599658603452, 50.91076630790721 ], [ 2.129678824083188, 50.91119029205953 ], [ 2.133414387136295, 50.912452472677437 ], [ 2.135138298269629, 50.912873499405343 ], [ 2.135113192091251, 50.913094011947784 ], [ 2.137013290266206, 50.913586205684162 ], [ 2.136911384429591, 50.914309459280354 ], [ 2.137899245106478, 50.914380872600603 ], [ 2.137714248781653, 50.916464445304079 ], [ 2.138876423180678, 50.916552304176179 ], [ 2.138906965679886, 50.916756154964347 ], [ 2.139521010246161, 50.916781916789446 ], [ 2.13963893017254, 50.915539356608392 ], [ 2.140920366086917, 50.91587023367277 ], [ 2.140935172442037, 50.91682394611562 ], [ 2.141269479822798, 50.916859437321534 ], [ 2.141344056129748, 50.914586712454593 ], [ 2.142116870243354, 50.914620729925289 ], [ 2.142050312184961, 50.91585108728119 ], [ 2.142372305658798, 50.915859578221436 ], [ 2.142236145768915, 50.917176473313006 ], [ 2.142518339148238, 50.917189175945332 ], [ 2.142570203079214, 50.916813650179144 ], [ 2.143597932816741, 50.916963338479114 ], [ 2.14386724578481, 50.914417436935793 ], [ 2.144150289220759, 50.914462437322534 ], [ 2.143936240233423, 50.916352045984731 ], [ 2.145178647475958, 50.916313008809652 ], [ 2.145232251233594, 50.916414747169298 ], [ 2.148381518424913, 50.916984381906403 ], [ 2.148370982220092, 50.917435547133302 ], [ 2.149140884907257, 50.91747667753954 ], [ 2.149381379224859, 50.91660544528267 ], [ 2.150143272598872, 50.916782873095066 ], [ 2.14993514270872, 50.917421083107648 ], [ 2.151584369819745, 50.917745380500897 ], [ 2.1505592479332, 50.920275380572939 ], [ 2.149407644140251, 50.922725558394959 ], [ 2.148188972575697, 50.925855246224486 ], [ 2.147350262624978, 50.92842144675091 ], [ 2.14653410869046, 50.931406718602361 ], [ 2.151177649771727, 50.93273192559603 ], [ 2.15136558710899, 50.931781410901451 ], [ 2.151094535848344, 50.929189721311985 ], [ 2.152512301066715, 50.927452740321989 ], [ 2.153787458470286, 50.926418979881078 ], [ 2.155804499924943, 50.924485963983571 ], [ 2.156491608806022, 50.923973886670233 ], [ 2.158634878094822, 50.921192132618266 ], [ 2.161266503195117, 50.918302372319516 ], [ 2.161499926017326, 50.91809312361228 ], [ 2.163359641697342, 50.917041645654521 ], [ 2.163626167380367, 50.916803907488109 ], [ 2.164095351932299, 50.91607412506432 ], [ 2.164543898640532, 50.914965629057235 ], [ 2.165285166462823, 50.912389644186668 ], [ 2.16557728528793, 50.911722361971989 ], [ 2.167772549862223, 50.906355302025652 ], [ 2.169763949178589, 50.902299279390782 ], [ 2.170733132636923, 50.901177154385323 ], [ 2.172551321092868, 50.898729332528227 ], [ 2.175325185350458, 50.894235183373659 ], [ 2.178175023072852, 50.891385875387726 ], [ 2.180096736734674, 50.888549239022488 ], [ 2.181533609936448, 50.887158250082578 ], [ 2.181931437049307, 50.886595665897488 ], [ 2.183021512329346, 50.884550167428642 ], [ 2.184433783086789, 50.882916750177372 ], [ 2.185099014519484, 50.881866960229026 ], [ 2.185863521880745, 50.879683829191094 ], [ 2.187207519782788, 50.876915935988748 ], [ 2.18853502325985, 50.874630575088467 ], [ 2.189658778272787, 50.872923428158693 ], [ 2.190171199502302, 50.871576544408995 ], [ 2.194872778941698, 50.872016964943072 ], [ 2.198072483808726, 50.872749006950329 ], [ 2.201077315860783, 50.873082281978405 ], [ 2.201652052880287, 50.872696598193549 ], [ 2.20129343985265, 50.872601000080238 ], [ 2.200234066775836, 50.871906102320814 ], [ 2.199389313852641, 50.871622569195843 ], [ 2.199233202284278, 50.871277959194565 ], [ 2.199288597682944, 50.870740921642494 ], [ 2.199842263457536, 50.870784844908279 ], [ 2.199979495458562, 50.870714849908275 ], [ 2.20329913845381, 50.867392401118522 ], [ 2.204904672735869, 50.865925026763435 ], [ 2.20760277387827, 50.863048855039338 ], [ 2.208487993744995, 50.862292784501385 ], [ 2.212259169247596, 50.858579966378272 ], [ 2.212349267286076, 50.858529396793529 ], [ 2.213660589858979, 50.85860944249022 ], [ 2.215020216400578, 50.858502270671345 ], [ 2.216303051488011, 50.858320136895877 ], [ 2.216749248366009, 50.858158757734969 ], [ 2.217618934868326, 50.857293963332808 ], [ 2.218401645105304, 50.856097561751774 ], [ 2.218510774619425, 50.85609824545741 ], [ 2.219659594098551, 50.855325797028847 ], [ 2.219688112389554, 50.855496437662019 ], [ 2.219815435477246, 50.85578432823052 ], [ 2.220483154793573, 50.856594159831445 ], [ 2.221589736908476, 50.857349307218698 ], [ 2.222016491113017, 50.857797861053143 ], [ 2.223945775965673, 50.860710408483854 ], [ 2.224954816299091, 50.861914390865152 ], [ 2.226361025204127, 50.863838552085006 ], [ 2.228447765815679, 50.869347433904686 ], [ 2.229255111293349, 50.870133839765543 ], [ 2.230140916539087, 50.871442862655819 ], [ 2.230605212137688, 50.872596763661342 ], [ 2.230733196206168, 50.873585308029689 ], [ 2.230974336711981, 50.874223765556948 ], [ 2.231656298558798, 50.874780605477774 ], [ 2.235292423601513, 50.877153444263051 ], [ 2.239594019105823, 50.879336441474621 ], [ 2.24020586460048, 50.879759129155083 ], [ 2.241271157879261, 50.880765015470942 ], [ 2.243992448973231, 50.879737266319786 ], [ 2.243463954315914, 50.879520546237096 ], [ 2.243111283075595, 50.879211588281287 ], [ 2.242208586663526, 50.878891216578914 ], [ 2.241994381309098, 50.878709591750791 ], [ 2.244849998710022, 50.877511284174361 ], [ 2.24558125414714, 50.876789026050204 ], [ 2.248386369050263, 50.878086164049698 ], [ 2.251241296388252, 50.879570137947987 ], [ 2.252050336517211, 50.879804654795997 ], [ 2.253904921590351, 50.880106425664501 ], [ 2.25449516122187, 50.878184705665483 ], [ 2.254740656604935, 50.874655939487837 ], [ 2.255092631961669, 50.873397559414613 ], [ 2.257760774232378, 50.869983680404403 ], [ 2.258317902036823, 50.870370073939235 ], [ 2.261842077268941, 50.867715681167006 ], [ 2.262720701998279, 50.866875762005151 ], [ 2.264051205650235, 50.867020880423389 ], [ 2.265353769841116, 50.866270465413642 ], [ 2.266704408116992, 50.865622593855072 ], [ 2.26373502105912, 50.863559600369165 ], [ 2.2652793594855, 50.862653607098643 ], [ 2.266999856372751, 50.861234558432173 ], [ 2.267960326970639, 50.861373874036836 ], [ 2.26985727937261, 50.858929469661589 ], [ 2.270321843757949, 50.858469253376825 ], [ 2.270854736250059, 50.858085693103838 ], [ 2.272078496870385, 50.857467518688836 ], [ 2.273017185910185, 50.856761543351709 ], [ 2.272133344331815, 50.85613465589865 ], [ 2.271562786018002, 50.855895371596574 ], [ 2.271733186371909, 50.854512041967368 ], [ 2.271651566913236, 50.854082720281099 ], [ 2.270649756963523, 50.853871415759635 ], [ 2.270500841804581, 50.85378082833612 ], [ 2.270575845906923, 50.853691550300624 ], [ 2.270519236615726, 50.853297363026797 ], [ 2.270785853104507, 50.852606308585038 ], [ 2.271614511104112, 50.851470848723856 ], [ 2.272955523474444, 50.850672116603874 ], [ 2.274385226872254, 50.850301835958469 ], [ 2.2753204062932, 50.849826389104557 ], [ 2.276979607594993, 50.849361414277986 ], [ 2.277816158856786, 50.848843209390097 ], [ 2.278166963454122, 50.848496239906595 ], [ 2.278208467962233, 50.847879224809013 ], [ 2.278466769120111, 50.847362152695872 ], [ 2.279569497007372, 50.846955826844564 ], [ 2.280817441793849, 50.848274697347946 ], [ 2.280861401420126, 50.848568326318919 ], [ 2.280617790010551, 50.849149186246152 ], [ 2.281325763670495, 50.849882667756837 ], [ 2.28140609230747, 50.850407078050978 ], [ 2.282271023604364, 50.850970097464206 ], [ 2.283311694033578, 50.851238054570025 ], [ 2.284212403207444, 50.851581459018263 ], [ 2.285262565286528, 50.852673950404345 ], [ 2.285198400409616, 50.852800083182345 ], [ 2.286198847241809, 50.853506498550104 ], [ 2.286810889433267, 50.853821315572631 ], [ 2.288550666074937, 50.853870725643475 ], [ 2.291076276964006, 50.852676623470494 ], [ 2.291724394157483, 50.852147388567353 ], [ 2.293470269148274, 50.853365771654154 ], [ 2.294894204111128, 50.852695572065663 ], [ 2.294695647214408, 50.852604732971969 ], [ 2.29500918564699, 50.852381316837139 ], [ 2.297417937603223, 50.851317410679286 ], [ 2.297696875530092, 50.851336027700498 ], [ 2.299093523815873, 50.850278945632283 ], [ 2.300011980396665, 50.850677062944321 ], [ 2.301893478494547, 50.852038740425584 ], [ 2.304219014110646, 50.853174086925691 ], [ 2.306069148339935, 50.854359676326226 ], [ 2.305996667416059, 50.854475904147044 ], [ 2.308422357238921, 50.855865620233899 ], [ 2.3094339246256, 50.856615866128685 ], [ 2.311516866438715, 50.857382786067319 ], [ 2.311943701605236, 50.857368992163643 ], [ 2.312786812292958, 50.857078474705411 ], [ 2.314722320526769, 50.854957472584317 ], [ 2.316062156120056, 50.853890026998037 ], [ 2.317506158617949, 50.854531331610502 ], [ 2.317590755557692, 50.85446002157785 ], [ 2.320475132628542, 50.856330195206986 ], [ 2.320917588561135, 50.85610472645466 ], [ 2.32149348220234, 50.856385979033689 ], [ 2.322411510274739, 50.856418780720787 ], [ 2.322708646385951, 50.856143172592667 ], [ 2.32300520365058, 50.85601469444552 ], [ 2.323397932721894, 50.856111026729685 ], [ 2.323795039332218, 50.856093442450629 ], [ 2.324013582434601, 50.855969024792891 ], [ 2.324602614498416, 50.855908517079023 ], [ 2.325676149294843, 50.855970845693996 ], [ 2.326977341616936, 50.856178835851672 ], [ 2.327658725385357, 50.856101765954826 ], [ 2.327033364805012, 50.85549191516435 ], [ 2.326412115328767, 50.854472978031261 ], [ 2.326242968509986, 50.853983112257211 ], [ 2.326299221919104, 50.853489977612725 ], [ 2.326612328297929, 50.853078076828524 ], [ 2.327847519906163, 50.851970463063971 ], [ 2.328956170287477, 50.850572370527921 ], [ 2.329859109893077, 50.849925882920111 ], [ 2.330174614128206, 50.849542693404942 ], [ 2.329531888043284, 50.849069124812459 ], [ 2.3288947223149, 50.848287853804479 ], [ 2.328215336062618, 50.846009870930793 ], [ 2.327917037184289, 50.845746289722165 ], [ 2.327660528442109, 50.84532592781644 ], [ 2.327678379419309, 50.844841550771136 ], [ 2.328016521421772, 50.844354413676207 ], [ 2.328252557329835, 50.843556302995744 ], [ 2.328099317341874, 50.843254923867548 ], [ 2.328192970643653, 50.84271802021879 ], [ 2.328125435147126, 50.842576799749914 ], [ 2.327887787945145, 50.842440942763993 ], [ 2.32782998672503, 50.841786589322304 ], [ 2.328037339284136, 50.841645952741239 ], [ 2.328650096466671, 50.841494041235023 ], [ 2.328693302857638, 50.84112553372016 ], [ 2.328870133889434, 50.840830416648124 ], [ 2.3296965820947, 50.840169154866807 ], [ 2.331226642238634, 50.840186341570053 ], [ 2.331680188146775, 50.839646876631392 ], [ 2.331736367377141, 50.839578094845692 ], [ 2.332086626283782, 50.838814676401306 ], [ 2.331983605257258, 50.838147518730572 ], [ 2.332491916081924, 50.837430700468154 ], [ 2.332859174842702, 50.837302574355768 ], [ 2.333951766001837, 50.837287779850826 ], [ 2.334571519946278, 50.836604743376604 ], [ 2.334976964920792, 50.836693933180491 ], [ 2.335474891438464, 50.836221080242048 ], [ 2.335951351131093, 50.835016904614868 ], [ 2.336630680631718, 50.834324304018836 ], [ 2.337049207688815, 50.833532519218693 ], [ 2.336914404485892, 50.832693828410399 ], [ 2.337051338001261, 50.831448359851166 ], [ 2.335997226505035, 50.830602082157803 ], [ 2.335294132325801, 50.830208057028791 ], [ 2.335286752100518, 50.829697514889133 ], [ 2.333881683256784, 50.829360745735961 ], [ 2.333152927424726, 50.829087691736248 ], [ 2.333277948237979, 50.827998268329367 ], [ 2.331342556190504, 50.826751565822953 ], [ 2.331479345808017, 50.826267812455292 ], [ 2.329775135585649, 50.824267775325737 ], [ 2.329997590530041, 50.823628369067485 ], [ 2.329178817046188, 50.823104485426235 ], [ 2.328191542633446, 50.822999579166172 ], [ 2.327805175827427, 50.822870093476517 ], [ 2.326513100529354, 50.822154328262634 ], [ 2.327478505360682, 50.818933185091574 ], [ 2.328100181003088, 50.818096749694746 ], [ 2.328275690843569, 50.817472339987333 ], [ 2.328261839940009, 50.817027248600176 ], [ 2.330303705291842, 50.816952103889911 ], [ 2.333263342662196, 50.816662021724376 ], [ 2.345847787417941, 50.815726519135076 ], [ 2.348260154531268, 50.815469993363273 ], [ 2.352359687328413, 50.815286798430215 ], [ 2.35708875044851, 50.814824095985628 ], [ 2.365197055202958, 50.814227739915886 ], [ 2.367189987743207, 50.814312343152366 ], [ 2.369609020203834, 50.814074279823416 ], [ 2.371137735373869, 50.8137975864474 ], [ 2.380089201473334, 50.8130152020927 ], [ 2.384752293970633, 50.81269557381755 ], [ 2.392184993973898, 50.811817784942392 ], [ 2.401699426689888, 50.811030313342044 ], [ 2.403017035518925, 50.810739654341319 ], [ 2.406979592738785, 50.810353032413751 ], [ 2.412416852969692, 50.809670885249155 ], [ 2.414961762281941, 50.808922917720686 ], [ 2.416648572008151, 50.808653585711319 ], [ 2.419819868919169, 50.808462030867915 ], [ 2.421556947090151, 50.808495227918328 ], [ 2.422757485887046, 50.808516944490243 ], [ 2.42623480064763, 50.808308699329856 ], [ 2.431115798533614, 50.807687773566997 ], [ 2.438356322351443, 50.806885309154524 ], [ 2.439901176785784, 50.806630275252395 ], [ 2.442088815700132, 50.806506403524573 ], [ 2.444879370273988, 50.806151904527646 ], [ 2.448363041552938, 50.805856937873259 ], [ 2.450728306932573, 50.805799197552325 ], [ 2.456969442658029, 50.806353216447079 ], [ 2.456779039453568, 50.805631922584588 ], [ 2.456377735797793, 50.804774227945011 ], [ 2.45615705560914, 50.80319236645105 ], [ 2.455468632987506, 50.80257027824895 ], [ 2.455345313617963, 50.802323003653655 ], [ 2.455317389961063, 50.801766604583591 ], [ 2.455823786926536, 50.799596640768613 ], [ 2.454434966629012, 50.799462264229987 ], [ 2.454440238780453, 50.798978683076058 ], [ 2.45476656778516, 50.799043814526726 ], [ 2.454860182008896, 50.798767878750041 ], [ 2.454375465227095, 50.798686801158745 ], [ 2.45545108562051, 50.796376660801187 ], [ 2.455729915122176, 50.795210583572938 ], [ 2.455401063255381, 50.793298043020307 ], [ 2.455023318183965, 50.792758051102332 ], [ 2.454701952766004, 50.79250093316972 ], [ 2.454172843045331, 50.790006094734551 ], [ 2.453951127421892, 50.789699164954079 ], [ 2.454282974957076, 50.789512199149527 ], [ 2.454114116745762, 50.789290738641576 ], [ 2.453750067998279, 50.78944526227253 ], [ 2.453767135651563, 50.789308059625668 ], [ 2.453435597094636, 50.789077809503993 ], [ 2.453519248067311, 50.788935515505202 ], [ 2.452665552695879, 50.788303699670365 ], [ 2.452186013149429, 50.788276468961072 ], [ 2.451955451070087, 50.787874388318571 ], [ 2.451466166750508, 50.787574350675484 ], [ 2.451275823789282, 50.787119508146368 ], [ 2.450764040392212, 50.786420095318036 ], [ 2.44981776714797, 50.786105473147245 ], [ 2.449473331386434, 50.786150607948585 ], [ 2.44897069100127, 50.78642383901682 ], [ 2.448149578906536, 50.787338980072221 ], [ 2.447712600472352, 50.787432150990597 ], [ 2.447389649273178, 50.787709760776444 ], [ 2.446927053084884, 50.787687071131664 ], [ 2.446126842002059, 50.78785937487153 ], [ 2.445807177302551, 50.787839111017526 ], [ 2.444451683621953, 50.788814654300836 ], [ 2.442633770047317, 50.789491127344284 ], [ 2.442185979172664, 50.789535779405064 ], [ 2.441810018956089, 50.789485644389323 ], [ 2.441307850703456, 50.789963416047399 ], [ 2.440835641313537, 50.790039357080282 ], [ 2.440556985047743, 50.79027497691181 ], [ 2.439977308655052, 50.790467072961619 ], [ 2.438398175361676, 50.789280094486763 ], [ 2.443396823845662, 50.786172054162627 ], [ 2.438577134777144, 50.783042362894541 ], [ 2.438624193030507, 50.782884659269769 ], [ 2.436253028163713, 50.782304196193522 ], [ 2.435819146384892, 50.781873346112683 ], [ 2.434507340009517, 50.78148427098391 ], [ 2.434825843969377, 50.781227308418025 ], [ 2.43406186966014, 50.780953766604448 ], [ 2.432130897943334, 50.779507578381342 ], [ 2.432311433476821, 50.779436621127054 ], [ 2.431681926539667, 50.779164573896203 ], [ 2.43084271564022, 50.77791983761243 ], [ 2.429604246713596, 50.776695696519774 ], [ 2.427111723698974, 50.774759634033217 ], [ 2.424691212644353, 50.773223129913234 ], [ 2.423549685879091, 50.773925790974801 ], [ 2.421484612493907, 50.776787447359879 ], [ 2.420419212116807, 50.777748840205753 ], [ 2.419405588699472, 50.77887914819361 ], [ 2.417935489072353, 50.779828760039578 ], [ 2.416046823061315, 50.780258676223262 ], [ 2.415792171044302, 50.780372330481072 ], [ 2.409165392124677, 50.774673088324526 ], [ 2.408928957164796, 50.774802966603836 ], [ 2.404000558321915, 50.771686605441062 ], [ 2.405789448749787, 50.770465001125572 ], [ 2.405195938009232, 50.769923806193383 ], [ 2.403550164336202, 50.769109288061308 ], [ 2.403332871544892, 50.76882112041524 ], [ 2.401570316030421, 50.767720682185455 ], [ 2.403357635046934, 50.76721781429562 ], [ 2.404313812719458, 50.767240338039549 ], [ 2.405235423530383, 50.767076056568094 ], [ 2.406222362907626, 50.767009882591921 ], [ 2.40725089545552, 50.767135017934976 ], [ 2.40785690799208, 50.76673771777061 ], [ 2.408476517684272, 50.766625812035727 ], [ 2.408954845479112, 50.766616419051857 ], [ 2.410012484336228, 50.76679281438895 ], [ 2.411479766458639, 50.76666516759073 ], [ 2.412053817720029, 50.766456123228679 ], [ 2.41275882197857, 50.765938134474276 ], [ 2.412819808815113, 50.765804728287257 ], [ 2.412723470630778, 50.765574571708413 ], [ 2.412777426281628, 50.765196176304649 ], [ 2.412461143223671, 50.764659908083985 ], [ 2.412260674951308, 50.763899866241204 ], [ 2.412381953787559, 50.763450902937272 ], [ 2.411655170838072, 50.762333051069369 ], [ 2.411389544517835, 50.761461434366744 ], [ 2.411541071560813, 50.761087087516081 ], [ 2.41118702485985, 50.759434415062152 ], [ 2.415916884695423, 50.755976128970353 ], [ 2.41603509292895, 50.756028726226546 ], [ 2.417168143313604, 50.755542323040835 ], [ 2.417046735947391, 50.755399983058538 ], [ 2.418538920432656, 50.753949765403462 ], [ 2.419040918676013, 50.754206042331241 ], [ 2.420327397025621, 50.753411657587094 ], [ 2.420154538170771, 50.753314842385748 ], [ 2.423165483367447, 50.752371422939881 ], [ 2.423596399818368, 50.752045010455973 ], [ 2.423279637113086, 50.75191612768878 ], [ 2.423878586596484, 50.751490893018328 ], [ 2.426058429382717, 50.749495512138004 ], [ 2.426642247570195, 50.748781263801241 ], [ 2.427558809943903, 50.747289688693165 ], [ 2.427710725988537, 50.747238344058019 ], [ 2.428883608106011, 50.744967282931604 ], [ 2.430012238611947, 50.743841857051677 ], [ 2.431645260241845, 50.744872249750259 ], [ 2.433352062107001, 50.745637354374701 ], [ 2.434517745902948, 50.745982732949066 ], [ 2.436476494563133, 50.746233888306399 ], [ 2.436392836202772, 50.746378871853658 ], [ 2.436876442877108, 50.746511169267777 ], [ 2.437281115918203, 50.746116393692056 ], [ 2.437215386623956, 50.745295067537079 ], [ 2.437428390817089, 50.744965824134688 ], [ 2.438572471614385, 50.743958835165422 ], [ 2.439298511980166, 50.743150947350806 ], [ 2.439813287620494, 50.742770117325826 ], [ 2.44043519955859, 50.742925456826633 ], [ 2.440777806062729, 50.742511545524614 ], [ 2.440448783626578, 50.74234227076407 ], [ 2.442258720323903, 50.740833951171133 ], [ 2.443322560561305, 50.741304416196023 ], [ 2.443731570601201, 50.74127483954075 ], [ 2.446421382622545, 50.739981254832699 ], [ 2.448404826355528, 50.738615388124806 ], [ 2.448909513775596, 50.737984124514369 ], [ 2.44915661460871, 50.737759096763817 ], [ 2.449795327437601, 50.737540287246773 ], [ 2.451210464440728, 50.737437962202961 ], [ 2.45168999793502, 50.737292020152687 ], [ 2.453965562540228, 50.73608527408765 ], [ 2.455690088400122, 50.73561276853502 ], [ 2.456934117020061, 50.734853694601703 ], [ 2.457275540639748, 50.734792372456496 ], [ 2.458032870990673, 50.734842333825164 ], [ 2.458259789042999, 50.734778715537871 ], [ 2.461364195927555, 50.732598261322899 ], [ 2.461108995670953, 50.732400644156719 ], [ 2.461525718136499, 50.732171838304104 ], [ 2.462258269456341, 50.732814792461149 ], [ 2.461779957582927, 50.733248819154113 ], [ 2.462561291551697, 50.73382737484706 ], [ 2.464097623160801, 50.734675681002209 ], [ 2.465538297713368, 50.735217572915069 ], [ 2.465852610402969, 50.735178543630781 ], [ 2.465892693342077, 50.735397659644434 ], [ 2.4652755387057, 50.735858021299279 ], [ 2.46654157471731, 50.736737435468228 ], [ 2.467651764814744, 50.737117265327441 ], [ 2.469957802161953, 50.737670878623753 ], [ 2.47041813570461, 50.737864862486873 ], [ 2.470788460414954, 50.737879000348464 ], [ 2.470918736505304, 50.73799530698895 ], [ 2.471244964332647, 50.738034380577311 ], [ 2.471632720659206, 50.738272916718664 ], [ 2.471313392030735, 50.737177742481492 ], [ 2.469818922402027, 50.729547807637999 ], [ 2.469387246657127, 50.727856313886207 ], [ 2.469376974146803, 50.726957153774691 ], [ 2.46902226081019, 50.725610552803303 ], [ 2.468256217026281, 50.721597126859507 ], [ 2.462921245047184, 50.720690335369206 ], [ 2.459459841239946, 50.723934441402442 ], [ 2.458121782745409, 50.723612760562943 ], [ 2.45833032432063, 50.723413564739623 ], [ 2.454197482110693, 50.721543411450291 ], [ 2.453668313570639, 50.720551331768618 ], [ 2.452822195009848, 50.720108816918177 ], [ 2.451698065202726, 50.719884917403434 ], [ 2.450447439738027, 50.718951554869896 ], [ 2.445738424332093, 50.715944322391124 ], [ 2.445274250577547, 50.716251834841792 ], [ 2.442717065651157, 50.713101504478253 ], [ 2.442813366620584, 50.713083989107247 ], [ 2.4427132341736, 50.712683325313911 ], [ 2.442800748598191, 50.71256616542049 ], [ 2.441455654393961, 50.712278365535028 ], [ 2.441813197461376, 50.710757175928151 ], [ 2.440690057242336, 50.710467670750354 ], [ 2.440785539177504, 50.71026978648819 ], [ 2.439319559258606, 50.709803743676893 ], [ 2.439457249490525, 50.709623100127843 ], [ 2.436446977970549, 50.708373844946117 ], [ 2.435599798621966, 50.707303950062879 ], [ 2.434280251233053, 50.706145753473159 ], [ 2.431413709704406, 50.704338867179565 ], [ 2.430969101850785, 50.703172961787011 ], [ 2.427328228565296, 50.701392038557373 ], [ 2.424813575547139, 50.701965509467392 ], [ 2.423673094793466, 50.702103805782443 ], [ 2.421143498787767, 50.70212884646331 ], [ 2.419790570069084, 50.701820130113482 ], [ 2.418974287801356, 50.701782218553433 ], [ 2.417897630456605, 50.702142408140425 ], [ 2.414270617864372, 50.702970687375618 ], [ 2.407814416717003, 50.704645087014207 ], [ 2.406066048425122, 50.705034277280042 ], [ 2.402235468555135, 50.706545913690263 ], [ 2.397717559817726, 50.707728363231965 ], [ 2.396090111697969, 50.708152994726234 ], [ 2.393883154726768, 50.708466201751655 ], [ 2.393282241946491, 50.708491089289801 ], [ 2.392528059501349, 50.70833575457241 ], [ 2.39214286502639, 50.708402071139012 ], [ 2.390422687077751, 50.708892579191691 ], [ 2.388985336751347, 50.709481367316592 ], [ 2.385738091610182, 50.710374387377904 ], [ 2.385311313333812, 50.710372278576187 ], [ 2.383743933502016, 50.709918537296318 ], [ 2.381517948687551, 50.7100429865447 ], [ 2.379600390597193, 50.710596074649921 ], [ 2.379260674553713, 50.710753210652662 ], [ 2.378374888361646, 50.711296170359574 ], [ 2.377129135511267, 50.712372141595374 ], [ 2.376334352361699, 50.712753121278773 ], [ 2.374929536819546, 50.713090650431084 ], [ 2.372973891083667, 50.713396672522478 ], [ 2.370372512618849, 50.713574664924195 ], [ 2.369104274380098, 50.712825232575618 ], [ 2.366736287427844, 50.710192032874538 ], [ 2.36626412275653, 50.709308425812026 ], [ 2.366007327314888, 50.709052268065733 ], [ 2.366497733939643, 50.708939008532795 ], [ 2.370936693529134, 50.706796222472313 ], [ 2.371484626158343, 50.707164217660832 ], [ 2.371679376389261, 50.707072774077453 ], [ 2.374029103644063, 50.705630904890555 ], [ 2.374184265159162, 50.705427088030341 ], [ 2.376012283715068, 50.70445007657635 ], [ 2.381425248139045, 50.701061762503407 ], [ 2.384029703588877, 50.700346930069045 ], [ 2.384243473876872, 50.700543614543442 ], [ 2.385587517209381, 50.700403993257737 ], [ 2.386201975498449, 50.700303831273843 ], [ 2.387140501315567, 50.699931567685894 ], [ 2.387576502417947, 50.699633995992329 ], [ 2.387560153829179, 50.699121519376654 ], [ 2.387769761086188, 50.698849752261339 ], [ 2.386822012978804, 50.698360503252175 ], [ 2.386979530792647, 50.698188985438698 ], [ 2.384025740086093, 50.696643474058838 ], [ 2.380929729555327, 50.695646371628555 ], [ 2.378031714256784, 50.694415068890208 ], [ 2.37297294612937, 50.691549460734564 ], [ 2.366819875404973, 50.686787274582841 ], [ 2.365275415993606, 50.685709713322034 ], [ 2.363662543597793, 50.684796899943464 ], [ 2.363349492011857, 50.684643638204321 ], [ 2.361822992143793, 50.686273541134021 ], [ 2.360222557605019, 50.687268590510776 ], [ 2.359159684562645, 50.686540719801101 ], [ 2.357209867538407, 50.687677510038576 ], [ 2.355080878800316, 50.687031133133139 ], [ 2.354878921947599, 50.687247252395032 ], [ 2.353838118832202, 50.686785974034066 ], [ 2.352068547549067, 50.686316402715725 ], [ 2.351196797208394, 50.686330700399772 ], [ 2.351075079221422, 50.686348910104257 ], [ 2.351090856706032, 50.686439628554112 ], [ 2.350645735288364, 50.686451662058872 ], [ 2.348923138462278, 50.686175229233584 ], [ 2.34855622759243, 50.686038698585143 ], [ 2.348023916241801, 50.685694900073145 ], [ 2.348567337285381, 50.684856896274397 ], [ 2.34893221498677, 50.684822912596537 ], [ 2.349330051577438, 50.684643723327468 ], [ 2.349702406385616, 50.684795536118237 ], [ 2.350374736653598, 50.684689570552997 ], [ 2.350870644945148, 50.684353845736986 ], [ 2.350812722551423, 50.682608118028242 ], [ 2.351138873977026, 50.682072283232628 ], [ 2.351817210487616, 50.681826347711102 ], [ 2.352056573816218, 50.681666065124517 ], [ 2.352114054693816, 50.681480604384355 ], [ 2.353254698878017, 50.680870933388974 ], [ 2.3481394995832, 50.678648280348312 ], [ 2.34798187299149, 50.678605275743742 ], [ 2.3443671695399, 50.678747789553434 ], [ 2.34354989601738, 50.678710271402203 ], [ 2.341934383724604, 50.678045728897857 ], [ 2.340784729944759, 50.677830541664761 ], [ 2.338931687512976, 50.677726471062265 ], [ 2.338577130769035, 50.677730866247003 ], [ 2.33851272782781, 50.677795136222265 ], [ 2.33708043256758, 50.677594562907423 ], [ 2.335709163926654, 50.677905817241559 ], [ 2.333330535909471, 50.677604116587368 ], [ 2.333314776175299, 50.677408398732908 ], [ 2.332515634045544, 50.677177963863123 ], [ 2.332372129362346, 50.676924125835427 ], [ 2.331329257793852, 50.676437511272226 ], [ 2.330958216949273, 50.676090014249951 ], [ 2.330326141740733, 50.675724956188986 ], [ 2.329756027205532, 50.675585477171488 ], [ 2.329183096470471, 50.675656870112768 ], [ 2.328870063227169, 50.675514287520102 ], [ 2.328482788819046, 50.675537322608065 ], [ 2.328276014754868, 50.675475181588901 ], [ 2.327950299850352, 50.675119843305929 ], [ 2.32767506531242, 50.675002589296476 ], [ 2.32768736730766, 50.674822277551215 ], [ 2.326803076210844, 50.674838130304728 ], [ 2.326376636319717, 50.674728130733172 ], [ 2.325214837530053, 50.674061336783303 ], [ 2.324317463374693, 50.674839895371001 ], [ 2.320718152329975, 50.677406588856023 ], [ 2.319893096952694, 50.676904017918169 ], [ 2.318785282157647, 50.675800425572291 ], [ 2.317137950811623, 50.674391431771838 ], [ 2.314806433421747, 50.672728264751193 ], [ 2.314159518386128, 50.671910745519277 ], [ 2.312841815109674, 50.670786188909304 ], [ 2.310883084014852, 50.669557552157023 ], [ 2.30888673326726, 50.668299057793725 ], [ 2.299535876801985, 50.663242680191452 ], [ 2.300370761368201, 50.662300603109919 ], [ 2.302663559990714, 50.660076213302865 ], [ 2.302375399651492, 50.659984852663811 ], [ 2.302733334229872, 50.659626994010381 ], [ 2.297234466746652, 50.657087690791258 ], [ 2.295275228599707, 50.655960184880257 ], [ 2.293257004942446, 50.65521820688123 ], [ 2.291406209844094, 50.654720355152804 ], [ 2.291077741586969, 50.654987711313353 ], [ 2.291401776123791, 50.655034432050307 ], [ 2.288879345045915, 50.657205266696067 ], [ 2.284151204082813, 50.654539651677723 ], [ 2.281559872686328, 50.65716404499225 ], [ 2.279290324144869, 50.656238207467581 ], [ 2.276535051865646, 50.659046410816543 ], [ 2.274551810601758, 50.658141002516793 ], [ 2.274283304085685, 50.656206362251666 ], [ 2.268888026997906, 50.657727284317694 ], [ 2.268725711057629, 50.657627611170305 ], [ 2.267005565667214, 50.661437837030476 ], [ 2.265186402623609, 50.660324148799248 ], [ 2.26419303150071, 50.659610195783067 ], [ 2.261964185871815, 50.664667443019674 ], [ 2.262312999671769, 50.665336301024894 ], [ 2.262131513172938, 50.665483298199845 ], [ 2.261320108098416, 50.665736934450301 ], [ 2.26078509543783, 50.665056197135335 ], [ 2.259516190818314, 50.664449160621665 ], [ 2.259128051953249, 50.664151593511875 ], [ 2.258111918316306, 50.663927455028215 ], [ 2.258198048281488, 50.663831944732799 ], [ 2.257915860105059, 50.663722568262521 ], [ 2.258174283033806, 50.663338218140623 ], [ 2.25735658217738, 50.663064104478977 ], [ 2.256952101501168, 50.663585783320286 ], [ 2.255950361117919, 50.664963618639788 ], [ 2.254757185204164, 50.666297218892261 ], [ 2.255275649822386, 50.666280584494622 ], [ 2.255153253738599, 50.666820996864523 ], [ 2.255776405793948, 50.666791526599184 ], [ 2.257184044363683, 50.666517262523946 ], [ 2.257101464270574, 50.666944839346193 ], [ 2.25675633492923, 50.667175207511292 ], [ 2.256442246759802, 50.667216404411924 ], [ 2.25597827307831, 50.667652466018026 ], [ 2.255753439053983, 50.667578428253108 ], [ 2.255387280746867, 50.667988150739198 ], [ 2.255417187943551, 50.66844691201139 ], [ 2.25452123803046, 50.669633312966681 ], [ 2.254612945375913, 50.67030423483844 ], [ 2.25450030996483, 50.670851881325795 ], [ 2.255062101990961, 50.670963838274353 ], [ 2.253869860337832, 50.672508317317316 ], [ 2.253542349992767, 50.673354407155848 ], [ 2.252805573066037, 50.674559692200113 ], [ 2.251420637614961, 50.675945934708459 ], [ 2.249677996501112, 50.678108053463923 ], [ 2.2492749480387, 50.678331766113338 ], [ 2.24855128598646, 50.677235245848692 ], [ 2.2464395616142, 50.679415724114392 ], [ 2.243954967908801, 50.678958211523813 ], [ 2.244412683988588, 50.678482676880421 ], [ 2.244101043096337, 50.678356041894837 ], [ 2.244251735306798, 50.678197219689942 ], [ 2.244127728144581, 50.678178517305199 ], [ 2.241801297503366, 50.678008195843923 ], [ 2.241228635006225, 50.678051365854948 ], [ 2.235228762501993, 50.677781260110727 ], [ 2.235152221187272, 50.677984501132464 ], [ 2.234682397896568, 50.677951994068501 ], [ 2.233173513444116, 50.677798209326227 ], [ 2.234044214281321, 50.675533127134592 ], [ 2.233677173934995, 50.675522787438936 ], [ 2.233848946438372, 50.675002449244552 ], [ 2.233991956404206, 50.674885769654281 ], [ 2.234279622535652, 50.674822031397838 ], [ 2.234377868193893, 50.672641019113321 ], [ 2.225065724305977, 50.673187253854699 ], [ 2.226751914421774, 50.670989210847331 ], [ 2.228864250889001, 50.670915288811749 ], [ 2.229412449175482, 50.668690392217798 ], [ 2.224846436028491, 50.66836763409912 ], [ 2.224622345049588, 50.669070713259046 ], [ 2.222166054679184, 50.668381394787367 ], [ 2.218343935452117, 50.667446520757167 ], [ 2.218799483256747, 50.667028493110365 ], [ 2.214096068452127, 50.664763335468891 ], [ 2.215026138459855, 50.664069219943954 ], [ 2.217931399540908, 50.66229537215947 ], [ 2.219292793407269, 50.661278168962212 ], [ 2.216279265970329, 50.660859835082796 ], [ 2.217393383325115, 50.65958352600461 ], [ 2.211685069837588, 50.657347809442896 ], [ 2.211487597436406, 50.657516172213981 ], [ 2.208380757847988, 50.656318968504742 ], [ 2.20646009358171, 50.658057620259498 ], [ 2.203032140369481, 50.656639255494689 ], [ 2.205128800570829, 50.654845240105622 ], [ 2.203976375929522, 50.65469606355493 ], [ 2.204329955853395, 50.653230108290209 ], [ 2.20096265573186, 50.652903359076234 ], [ 2.201790879974916, 50.64946786334361 ], [ 2.201883835531651, 50.649392177346307 ], [ 2.202553407957258, 50.649361477869562 ], [ 2.202627907105617, 50.647603845861063 ], [ 2.201398028809708, 50.6475429933285 ], [ 2.201544982147922, 50.644338223758552 ], [ 2.194942536281219, 50.644324314267216 ], [ 2.194955041812386, 50.642576142229409 ], [ 2.195150596981582, 50.641646741501887 ], [ 2.19615855941013, 50.640484773182862 ], [ 2.197763622531823, 50.638958693252633 ], [ 2.198742788923894, 50.638621286234411 ], [ 2.196142961267038, 50.637668423282918 ], [ 2.194477029815147, 50.636918112166811 ], [ 2.194809610965876, 50.636859241527723 ], [ 2.19545635518404, 50.636129303842687 ], [ 2.195009643698446, 50.636265516217826 ], [ 2.194811231471126, 50.636230125772563 ], [ 2.194728553778844, 50.634433749445478 ], [ 2.194914834169204, 50.634345210284849 ], [ 2.195226470657187, 50.633919136185348 ], [ 2.19741556083752, 50.632921854252416 ], [ 2.196393437253296, 50.631981868404026 ], [ 2.195666893414193, 50.631531117785791 ], [ 2.194164822528812, 50.630958658897747 ], [ 2.19251321188287, 50.630123144871874 ], [ 2.193120649890231, 50.629728613967693 ], [ 2.193455292024478, 50.629362822149197 ], [ 2.19271287202083, 50.629025928892389 ], [ 2.192785044511199, 50.62892498297964 ], [ 2.189763165377724, 50.627758315408876 ], [ 2.190222381615747, 50.626930243156991 ], [ 2.191493686660707, 50.625262029976341 ], [ 2.19205528045886, 50.62394279249456 ], [ 2.191996981005457, 50.62362021519683 ], [ 2.189509277013058, 50.623206409214603 ], [ 2.18830233890188, 50.622898761283246 ], [ 2.187492005558602, 50.622669087283747 ], [ 2.185913594009311, 50.621954215570199 ], [ 2.184919438637431, 50.621664981596673 ], [ 2.18377184847184, 50.62152909898586 ], [ 2.183160165433966, 50.62157892439685 ], [ 2.183237906185248, 50.621396347831499 ], [ 2.181952377609262, 50.621414806492403 ], [ 2.179596416280182, 50.621238605330241 ], [ 2.178705917892946, 50.620911413904707 ], [ 2.177967176817509, 50.62079433683936 ], [ 2.177777537851282, 50.621003093928913 ], [ 2.175166203836671, 50.61979928128796 ], [ 2.175293146061025, 50.61971486290112 ], [ 2.173677732439119, 50.61869264134544 ], [ 2.170896902478166, 50.617344005050683 ], [ 2.167508770671594, 50.616303560442574 ], [ 2.167514655095058, 50.616118714952712 ], [ 2.167121876371231, 50.615985942082808 ], [ 2.163916488153416, 50.615078555267857 ], [ 2.161685058380689, 50.614646163290693 ], [ 2.161820799223412, 50.614457707096321 ], [ 2.161101410339787, 50.614203340356738 ], [ 2.159897594440094, 50.613394623344128 ], [ 2.157901785136516, 50.610693064316301 ], [ 2.156598451149625, 50.612123814780453 ], [ 2.156496648255303, 50.612138380447313 ], [ 2.150030667922684, 50.610809926446017 ], [ 2.151315896248799, 50.609291161264146 ], [ 2.147278040710197, 50.607778993210189 ], [ 2.145535735501595, 50.60830282285184 ], [ 2.144739144228469, 50.609196642251156 ], [ 2.143111058254871, 50.608559843807924 ], [ 2.142170220177568, 50.609803577540795 ], [ 2.140994278658617, 50.609368226943261 ], [ 2.139670280018342, 50.610743914280562 ], [ 2.137276600619002, 50.609844144384688 ], [ 2.136652525960066, 50.610292149798362 ], [ 2.135960274372354, 50.610028848165548 ], [ 2.134393583778101, 50.611318422900958 ], [ 2.134105515731323, 50.610846117541492 ], [ 2.133461448601027, 50.60901608165284 ], [ 2.133450447516208, 50.608427235736997 ], [ 2.133301905461225, 50.608453123718242 ], [ 2.13148637187345, 50.607328407980326 ], [ 2.131969976413972, 50.606848030842883 ], [ 2.131327684912236, 50.606391187347832 ], [ 2.124375462296536, 50.602857248181728 ], [ 2.123863930666704, 50.60251078316432 ], [ 2.123774306943861, 50.60231269508845 ], [ 2.12361716092657, 50.602347486084938 ], [ 2.122404004074978, 50.601074298709108 ], [ 2.121653976210007, 50.600497267016152 ], [ 2.121264072759305, 50.599810590618716 ], [ 2.121608779715557, 50.599613780700743 ], [ 2.122770818504786, 50.599207345238469 ], [ 2.124058600402463, 50.598462520984391 ], [ 2.124666815316727, 50.59835641796348 ], [ 2.126380424000457, 50.598340673805538 ], [ 2.126936160355362, 50.59817046558986 ], [ 2.126951095088236, 50.598041326570161 ], [ 2.126835114380827, 50.597249787020012 ], [ 2.12636393918778, 50.596368684965569 ], [ 2.124812644067465, 50.594436133220611 ], [ 2.124398316314553, 50.594018548579079 ], [ 2.123364505351617, 50.593305784427486 ], [ 2.123078211874129, 50.592986033195849 ], [ 2.121696486479253, 50.592174757207502 ], [ 2.121412276673128, 50.591898098036438 ], [ 2.121829988452583, 50.591635384902858 ], [ 2.12160839337704, 50.591245181875067 ], [ 2.121858130731269, 50.591073725260927 ], [ 2.122520506126025, 50.590848643000996 ], [ 2.12295156458021, 50.590547426030056 ], [ 2.124031373803902, 50.590397089695756 ], [ 2.124490939622665, 50.589996441703299 ], [ 2.120077831983211, 50.589033565535154 ], [ 2.119039703616691, 50.587691550784648 ], [ 2.118105789850949, 50.586841222435417 ], [ 2.116872210837295, 50.587562148341355 ], [ 2.116802505937054, 50.587196351587018 ], [ 2.115890896983678, 50.585641590885416 ], [ 2.11571227579594, 50.584896251053024 ], [ 2.115292069135829, 50.584180601159609 ], [ 2.114231159649446, 50.583504354493336 ], [ 2.111600777203924, 50.582217300623391 ], [ 2.109629539556825, 50.581129690913208 ], [ 2.108890887959076, 50.580492507615759 ], [ 2.107493383008724, 50.579014057227198 ], [ 2.10566889406107, 50.577454420947241 ], [ 2.104574575123618, 50.575899130858069 ], [ 2.103971054046929, 50.575200956398589 ], [ 2.101962834304458, 50.573840981541792 ], [ 2.098830592036397, 50.570403016252754 ], [ 2.098353078772881, 50.569366442291553 ], [ 2.100025368487064, 50.567903884179728 ], [ 2.096277256491859, 50.566613733767603 ], [ 2.096489475671226, 50.565390988882498 ], [ 2.093312575026646, 50.56455818046615 ], [ 2.092495532395834, 50.562823466520648 ], [ 2.091854197722194, 50.562052236598703 ], [ 2.091745379471774, 50.561211303620595 ], [ 2.092884073187827, 50.559641692021252 ], [ 2.095077085067153, 50.554836786121008 ], [ 2.09092322561599, 50.553684399970074 ], [ 2.0864353670877, 50.552857928844524 ], [ 2.08239798751196, 50.551904478059505 ], [ 2.07746517717252, 50.551311347945017 ], [ 2.069734230604996, 50.549897287533121 ], [ 2.071367939400653, 50.547558724822785 ], [ 2.072176654082831, 50.546560365314789 ], [ 2.067841213924781, 50.543868223665278 ], [ 2.063462570812753, 50.541554381662401 ], [ 2.063278517897157, 50.541680451088759 ], [ 2.063787967097961, 50.541932041907593 ], [ 2.062417888138664, 50.543569693100437 ], [ 2.060833411701965, 50.543029002297942 ], [ 2.060324974164679, 50.543100546755127 ], [ 2.059817238650282, 50.543360592353146 ], [ 2.058705544526008, 50.544430179936136 ], [ 2.058757722613885, 50.544502384899801 ], [ 2.058436721832722, 50.544718962398804 ], [ 2.057719874892769, 50.544860720956166 ], [ 2.056554685176185, 50.544647200528665 ], [ 2.055918958420508, 50.544744685932599 ], [ 2.05491635526553, 50.544200273545037 ], [ 2.054522901617913, 50.544448602390474 ], [ 2.052068760233458, 50.542593343038114 ], [ 2.051166569577096, 50.542256116801717 ], [ 2.049980262966275, 50.541598950920296 ], [ 2.046680059627966, 50.54062751861715 ], [ 2.046003240028766, 50.540293782339482 ], [ 2.045581013055585, 50.539979058226812 ], [ 2.047059268487944, 50.538826228820746 ], [ 2.047609601960878, 50.538251497529593 ], [ 2.044985760820778, 50.537278029843016 ], [ 2.044633705867018, 50.535494437458325 ], [ 2.042326499309343, 50.534914712794496 ], [ 2.042630313855738, 50.534047264489928 ], [ 2.043352435131141, 50.533992702067366 ], [ 2.045062326930802, 50.534059751472128 ], [ 2.046255438144085, 50.533899291745911 ], [ 2.044702538399144, 50.531423346629751 ], [ 2.039317360801078, 50.530530750344482 ], [ 2.039357664626086, 50.529821038520751 ], [ 2.039718693609457, 50.528908255367341 ], [ 2.040491123676409, 50.5278361861915 ], [ 2.040664677585419, 50.526783710091877 ], [ 2.024165686859163, 50.528573969728505 ], [ 2.021800397110725, 50.528837170615716 ], [ 2.021991175802194, 50.5266287011736 ] ] ] ] } }
]
}
