{
"type": "FeatureCollection",
"name": "RSA_62",
"crs": { "type": "name", "properties": { "name": "urn:ogc:def:crs:OGC:1.3:CRS84" } },
"features": [
{ "type": "Feature", "properties": { "Id": 0, "Type_PE": "station d'échantillonnage IPA", "BV": "Hem", "Num_Statio": "station n°3", "X": 575965.66150799999, "Y": 2644293.7985200002, "ANGsup25cm": 6, "ANGinf25cm": 3, "ANGtotal": 9, "ANNEE": 2014.0, "DENSITE": 0.3, "INF_50": 0.0, "CL_50_150": 0.0, "CL_150_300": 0.0, "CL_300_450": 4.0, "CL_450_600": 4.0, "CL_600_750": 1.0, "SUP_750": 0, "ANG_Inf_30": 0, "ANG_Sup_30": 9, "Stat_Ech": "O", "layer": "Stations_Monitoring_ANG_FD62_2014_Hem_Aa_Delta_Aa", "path": "C:/Users/ASUS/Downloads/Données PE_Hydromorpho_SAT62_RSA_ADNe_BV Hem_FD62/Données PE_Hydromorpho_SAT62_RSA_ADNe_BV Hem_FD62/SIG_RSA62/Stations_Monitoring_ANG_FD62_2014_Hem_Aa_Delta_Aa.shp" }, "geometry": { "type": "Point", "coordinates": [ 1.996449182240653, 50.791906986417608 ] } },
{ "type": "Feature", "properties": { "Id": 0, "Type_PE": "station d'échantillonnage IPA", "BV": "Hem", "Num_Statio": "station n°1", "X": 583092.53823599999, "Y": 2650563.32914, "ANGsup25cm": 39, "ANGinf25cm": 111, "ANGtotal": 150, "ANNEE": 2017.0, "DENSITE": 5.0, "INF_50": 0.0, "CL_50_150": 58.0, "CL_150_300": 66.0, "CL_300_450": 22.0, "CL_450_600": 4.0, "CL_600_750": 0.0, "SUP_750": 0, "ANG_Inf_30": 124, "ANG_Sup_30": 26, "Stat_Ech": "O", "layer": "Stations_Monitoring_ANG_FD62_2017_Hem_Aa_Delta_Aa", "path": "C:/Users/ASUS/Downloads/Données PE_Hydromorpho_SAT62_RSA_ADNe_BV Hem_FD62/Données PE_Hydromorpho_SAT62_RSA_ADNe_BV Hem_FD62/SIG_RSA62/Stations_Monitoring_ANG_FD62_2017_Hem_Aa_Delta_Aa.shp" }, "geometry": { "type": "Point", "coordinates": [ 2.097012030156192, 50.848365326187647 ] } },
{ "type": "Feature", "properties": { "Id": 0, "Type_PE": "station d'échantillonnage IPA", "BV": "Hem", "Num_Statio": "station n°3", "X": 575965.66150799999, "Y": 2644293.7985200002, "ANGsup25cm": 9, "ANGinf25cm": 5, "ANGtotal": 14, "ANNEE": 2023.0, "DENSITE": 0.47, "INF_50": 0.0, "CL_50_150": 0.0, "CL_150_300": 7.0, "CL_300_450": 4.0, "CL_450_600": 3.0, "CL_600_750": 0.0, "SUP_750": 0, "ANG_Inf_30": 7, "ANG_Sup_30": 7, "Stat_Ech": "O", "layer": "Stations_Monitoring_ANG_FD62_2023_Hem_Aa_Delta_Aa", "path": "C:/Users/ASUS/Downloads/Données PE_Hydromorpho_SAT62_RSA_ADNe_BV Hem_FD62/Données PE_Hydromorpho_SAT62_RSA_ADNe_BV Hem_FD62/SIG_RSA62/Stations_Monitoring_ANG_FD62_2023_Hem_Aa_Delta_Aa.shp" }, "geometry": { "type": "Point", "coordinates": [ 1.996449182240654, 50.791906986417601 ] } },
{ "type": "Feature", "properties": { "Id": 0, "Type_PE": "station d'échantillonnage IPA", "BV": "Hem", "Num_Statio": "station n°3", "X": 575965.66150799999, "Y": 2644293.7985200002, "ANGsup25cm": 10, "ANGinf25cm": 3, "ANGtotal": 13, "ANNEE": 2017.0, "DENSITE": 0.43, "INF_50": 0.0, "CL_50_150": 0.0, "CL_150_300": 5.0, "CL_300_450": 4.0, "CL_450_600": 3.0, "CL_600_750": 1.0, "SUP_750": 0, "ANG_Inf_30": 5, "ANG_Sup_30": 8, "Stat_Ech": "O", "layer": "Stations_Monitoring_ANG_FD62_2017_Hem_Aa_Delta_Aa", "path": "C:/Users/ASUS/Downloads/Données PE_Hydromorpho_SAT62_RSA_ADNe_BV Hem_FD62/Données PE_Hydromorpho_SAT62_RSA_ADNe_BV Hem_FD62/SIG_RSA62/Stations_Monitoring_ANG_FD62_2017_Hem_Aa_Delta_Aa.shp" }, "geometry": { "type": "Point", "coordinates": [ 1.996449182240653, 50.791906986417608 ] } },
{ "type": "Feature", "properties": { "Id": 0, "Type_PE": "station d'échantillonnage IPA", "BV": "Hem", "Num_Statio": "station n°2", "X": 580501.86450200004, "Y": 2646553.4536299999, "ANGsup25cm": 9, "ANGinf25cm": 7, "ANGtotal": 16, "ANNEE": 2023.0, "DENSITE": 0.53, "INF_50": 0.0, "CL_50_150": 0.0, "CL_150_300": 8.0, "CL_300_450": 6.0, "CL_450_600": 2.0, "CL_600_750": 0.0, "SUP_750": 0, "ANG_Inf_30": 8, "ANG_Sup_30": 8, "Stat_Ech": "O", "layer": "Stations_Monitoring_ANG_FD62_2023_Hem_Aa_Delta_Aa", "path": "C:/Users/ASUS/Downloads/Données PE_Hydromorpho_SAT62_RSA_ADNe_BV Hem_FD62/Données PE_Hydromorpho_SAT62_RSA_ADNe_BV Hem_FD62/SIG_RSA62/Stations_Monitoring_ANG_FD62_2023_Hem_Aa_Delta_Aa.shp" }, "geometry": { "type": "Point", "coordinates": [ 2.060516634192871, 50.81233088516737 ] } },
{ "type": "Feature", "properties": { "Id": 0, "Type_PE": "station d'échantillonnage IPA", "BV": "Hem", "Num_Statio": "station n°2", "X": 580501.86450200004, "Y": 2646553.4536299999, "ANGsup25cm": 21, "ANGinf25cm": 5, "ANGtotal": 26, "ANNEE": 2017.0, "DENSITE": 0.87, "INF_50": 0.0, "CL_50_150": 0.0, "CL_150_300": 7.0, "CL_300_450": 18.0, "CL_450_600": 1.0, "CL_600_750": 0.0, "SUP_750": 0, "ANG_Inf_30": 7, "ANG_Sup_30": 19, "Stat_Ech": "O", "layer": "Stations_Monitoring_ANG_FD62_2017_Hem_Aa_Delta_Aa", "path": "C:/Users/ASUS/Downloads/Données PE_Hydromorpho_SAT62_RSA_ADNe_BV Hem_FD62/Données PE_Hydromorpho_SAT62_RSA_ADNe_BV Hem_FD62/SIG_RSA62/Stations_Monitoring_ANG_FD62_2017_Hem_Aa_Delta_Aa.shp" }, "geometry": { "type": "Point", "coordinates": [ 2.060516634192869, 50.812330885167391 ] } },
{ "type": "Feature", "properties": { "Id": 0, "Type_PE": "station d'échantillonnage IPA", "BV": "Hem", "Num_Statio": "station n°2", "X": 580501.86450200004, "Y": 2646553.4536299999, "ANGsup25cm": 29, "ANGinf25cm": 11, "ANGtotal": 40, "ANNEE": 2014.0, "DENSITE": 1.33, "INF_50": 0.0, "CL_50_150": 0.0, "CL_150_300": 17.0, "CL_300_450": 18.0, "CL_450_600": 5.0, "CL_600_750": 0.0, "SUP_750": 0, "ANG_Inf_30": 17, "ANG_Sup_30": 23, "Stat_Ech": "O", "layer": "Stations_Monitoring_ANG_FD62_2014_Hem_Aa_Delta_Aa", "path": "C:/Users/ASUS/Downloads/Données PE_Hydromorpho_SAT62_RSA_ADNe_BV Hem_FD62/Données PE_Hydromorpho_SAT62_RSA_ADNe_BV Hem_FD62/SIG_RSA62/Stations_Monitoring_ANG_FD62_2014_Hem_Aa_Delta_Aa.shp" }, "geometry": { "type": "Point", "coordinates": [ 2.060516634192869, 50.812330885167391 ] } },
{ "type": "Feature", "properties": { "Id": 0, "Type_PE": "station d'échantillonnage IPA", "BV": "Hem", "Num_Statio": "station n°2", "X": 580501.86450200004, "Y": 2646553.4536299999, "ANGsup25cm": 26, "ANGinf25cm": 7, "ANGtotal": 33, "ANNEE": 2020.0, "DENSITE": 1.1, "INF_50": 0.0, "CL_50_150": 2.0, "CL_150_300": 10.0, "CL_300_450": 13.0, "CL_450_600": 8.0, "CL_600_750": 0.0, "SUP_750": 0, "ANG_Inf_30": 12, "ANG_Sup_30": 21, "Stat_Ech": "O", "layer": "Stations_Monitoring_ANG_FD62_2020_Hem_Aa_Delta_Aa", "path": "C:/Users/ASUS/Downloads/Données PE_Hydromorpho_SAT62_RSA_ADNe_BV Hem_FD62/Données PE_Hydromorpho_SAT62_RSA_ADNe_BV Hem_FD62/SIG_RSA62/Stations_Monitoring_ANG_FD62_2020_Hem_Aa_Delta_Aa.shp" }, "geometry": { "type": "Point", "coordinates": [ 2.060516634192869, 50.812330885167391 ] } },
{ "type": "Feature", "properties": { "Id": 0, "Type_PE": "station d'échantillonnage IPA", "BV": "Hem", "Num_Statio": "station n°1", "X": 583092.53823599999, "Y": 2650563.32914, "ANGsup25cm": 30, "ANGinf25cm": 38, "ANGtotal": 68, "ANNEE": 2014.0, "DENSITE": 2.27, "INF_50": 0.0, "CL_50_150": 14.0, "CL_150_300": 34.0, "CL_300_450": 18.0, "CL_450_600": 2.0, "CL_600_750": 0.0, "SUP_750": 0, "ANG_Inf_30": 48, "ANG_Sup_30": 20, "Stat_Ech": "O", "layer": "Stations_Monitoring_ANG_FD62_2014_Hem_Aa_Delta_Aa", "path": "C:/Users/ASUS/Downloads/Données PE_Hydromorpho_SAT62_RSA_ADNe_BV Hem_FD62/Données PE_Hydromorpho_SAT62_RSA_ADNe_BV Hem_FD62/SIG_RSA62/Stations_Monitoring_ANG_FD62_2014_Hem_Aa_Delta_Aa.shp" }, "geometry": { "type": "Point", "coordinates": [ 2.097012030156192, 50.848365326187626 ] } },
{ "type": "Feature", "properties": { "Id": 0, "Type_PE": "station d'échantillonnage IPA", "BV": "Hem", "Num_Statio": "station n°1", "X": 583092.53823599999, "Y": 2650563.32914, "ANGsup25cm": 15, "ANGinf25cm": 19, "ANGtotal": 34, "ANNEE": 2020.0, "DENSITE": 1.13, "INF_50": 0.0, "CL_50_150": 16.0, "CL_150_300": 5.0, "CL_300_450": 9.0, "CL_450_600": 4.0, "CL_600_750": 0.0, "SUP_750": 0, "ANG_Inf_30": 21, "ANG_Sup_30": 13, "Stat_Ech": "O", "layer": "Stations_Monitoring_ANG_FD62_2020_Hem_Aa_Delta_Aa", "path": "C:/Users/ASUS/Downloads/Données PE_Hydromorpho_SAT62_RSA_ADNe_BV Hem_FD62/Données PE_Hydromorpho_SAT62_RSA_ADNe_BV Hem_FD62/SIG_RSA62/Stations_Monitoring_ANG_FD62_2020_Hem_Aa_Delta_Aa.shp" }, "geometry": { "type": "Point", "coordinates": [ 2.097012030156192, 50.848365326187647 ] } },
{ "type": "Feature", "properties": { "Id": 0, "Type_PE": "station d'échantillonnage IPA", "BV": "Hem", "Num_Statio": "station n°3", "X": 575965.66150799999, "Y": 2644293.7985200002, "ANGsup25cm": 13, "ANGinf25cm": 4, "ANGtotal": 17, "ANNEE": 2020.0, "DENSITE": 0.57, "INF_50": 0.0, "CL_50_150": 1.0, "CL_150_300": 3.0, "CL_300_450": 5.0, "CL_450_600": 7.0, "CL_600_750": 1.0, "SUP_750": 0, "ANG_Inf_30": 4, "ANG_Sup_30": 13, "Stat_Ech": "O", "layer": "Stations_Monitoring_ANG_FD62_2020_Hem_Aa_Delta_Aa", "path": "C:/Users/ASUS/Downloads/Données PE_Hydromorpho_SAT62_RSA_ADNe_BV Hem_FD62/Données PE_Hydromorpho_SAT62_RSA_ADNe_BV Hem_FD62/SIG_RSA62/Stations_Monitoring_ANG_FD62_2020_Hem_Aa_Delta_Aa.shp" }, "geometry": { "type": "Point", "coordinates": [ 1.996449182240653, 50.791906986417608 ] } },
{ "type": "Feature", "properties": { "Id": 0, "Type_PE": "station d'échantillonnage IPA", "BV": "Hem", "Num_Statio": "station n°1", "X": 583092.53823599999, "Y": 2650563.32914, "ANGsup25cm": 20, "ANGinf25cm": 18, "ANGtotal": 38, "ANNEE": 2023.0, "DENSITE": 1.27, "INF_50": 0.0, "CL_50_150": 3.0, "CL_150_300": 19.0, "CL_300_450": 15.0, "CL_450_600": 1.0, "CL_600_750": 0.0, "SUP_750": 0, "ANG_Inf_30": 22, "ANG_Sup_30": 16, "Stat_Ech": "O", "layer": "Stations_Monitoring_ANG_FD62_2023_Hem_Aa_Delta_Aa", "path": "C:/Users/ASUS/Downloads/Données PE_Hydromorpho_SAT62_RSA_ADNe_BV Hem_FD62/Données PE_Hydromorpho_SAT62_RSA_ADNe_BV Hem_FD62/SIG_RSA62/Stations_Monitoring_ANG_FD62_2023_Hem_Aa_Delta_Aa.shp" }, "geometry": { "type": "Point", "coordinates": [ 2.097012030156192, 50.848365326187647 ] } }
]
}
