{
"type": "FeatureCollection",
"name": "SIG_SAT62",
"crs": { "type": "name", "properties": { "name": "urn:ogc:def:crs:OGC:1.3:CRS84" } },
"features": [
{ "type": "Feature", "properties": { "BV": "Hem", "CE": "Hem", "ID_Site": "FPSAT_HEM_02", "Tacon_max": "0", "P_Tronçon": "3,5%", "Lm_Radier": "6,40 m", "X_RGF93": 633867.11, "Y_RGF93": 7080456.05, "Name": null, "lm_Rad": null, "Lm_Rad_1": null, "S_Rad": null, "Gra_Iaire": null, "IASAT_17": -1, "IASAT_18": -1, "IASAT_19": -1, "IASAT_20": -1.0, "IASAT_21": -1.0, "IASAT_22": -1.0, "IA_SA_23": -1.0, "Serr_Ec_17": null, "Serr_Ec_18": null, "Serr_Ec_19": null, "Serr_Ec_20": null, "Serr_Ec_21": null, "Serr_Ec_22": null, "Serr_Ec_23": null, "IASAT_24": -1.0, "Serr_Ec_24": null, "IASAT_25": -1, "Serr_Ec_25": null }, "geometry": { "type": "Point", "coordinates": [ 2.06338565314659, 50.816994727333679 ] } },
{ "type": "Feature", "properties": { "BV": "Hem", "CE": "Hem", "ID_Site": "FPSAT_HEM_01", "Tacon_max": "0", "P_Tronçon": "2,5%", "Lm_Radier": "9,80 m", "X_RGF93": 635137.46, "Y_RGF93": 7080998.85, "Name": null, "lm_Rad": null, "Lm_Rad_1": null, "S_Rad": null, "Gra_Iaire": null, "IASAT_17": 0, "IASAT_18": 0, "IASAT_19": -1, "IASAT_20": -1.0, "IASAT_21": -1.0, "IASAT_22": 1.0, "IA_SA_23": 0.0, "Serr_Ec_17": null, "Serr_Ec_18": null, "Serr_Ec_19": null, "Serr_Ec_20": null, "Serr_Ec_21": null, "Serr_Ec_22": null, "Serr_Ec_23": null, "IASAT_24": 0.0, "Serr_Ec_24": "182", "IASAT_25": 0, "Serr_Ec_25": 152 }, "geometry": { "type": "Point", "coordinates": [ 2.081286019570867, 50.821998144407715 ] } },
{ "type": "Feature", "properties": { "BV": "Hem", "CE": "Hem", "ID_Site": "FPSAT_HEM_03", "Tacon_max": "0", "P_Tronçon": "3,5%", "Lm_Radier": "6,60 m", "X_RGF93": 630899.92, "Y_RGF93": 7078634.64, "Name": null, "lm_Rad": null, "Lm_Rad_1": null, "S_Rad": null, "Gra_Iaire": null, "IASAT_17": -1, "IASAT_18": 0, "IASAT_19": 0, "IASAT_20": 0.0, "IASAT_21": 0.0, "IASAT_22": -1.0, "IA_SA_23": -1.0, "Serr_Ec_17": null, "Serr_Ec_18": null, "Serr_Ec_19": null, "Serr_Ec_20": null, "Serr_Ec_21": null, "Serr_Ec_22": null, "Serr_Ec_23": null, "IASAT_24": -1.0, "Serr_Ec_24": null, "IASAT_25": -1, "Serr_Ec_25": null }, "geometry": { "type": "Point", "coordinates": [ 2.02168627163435, 50.800331670985372 ] } },
{ "type": "Feature", "properties": { "BV": "Hem", "CE": "Hem", "ID_Site": "FPSAT_HEM_04", "Tacon_max": "0", "P_Tronçon": "2,8%", "Lm_Radier": "6,10 m", "X_RGF93": 628184.13, "Y_RGF93": 7077462.68, "Name": null, "lm_Rad": null, "Lm_Rad_1": null, "S_Rad": null, "Gra_Iaire": null, "IASAT_17": -1, "IASAT_18": 0, "IASAT_19": -1, "IASAT_20": -1.0, "IASAT_21": -1.0, "IASAT_22": -1.0, "IA_SA_23": -1.0, "Serr_Ec_17": null, "Serr_Ec_18": null, "Serr_Ec_19": null, "Serr_Ec_20": null, "Serr_Ec_21": null, "Serr_Ec_22": null, "Serr_Ec_23": null, "IASAT_24": -1.0, "Serr_Ec_24": null, "IASAT_25": -1, "Serr_Ec_25": null }, "geometry": { "type": "Point", "coordinates": [ 1.983454038493067, 50.789509715716484 ] } },
{ "type": "Feature", "properties": { "BV": "Hem", "CE": "Hem", "ID_Site": "FPSAT_HEM_05", "Tacon_max": "0", "P_Tronçon": "2,5%", "Lm_Radier": null, "X_RGF93": 635110.74, "Y_RGF93": 7081608.64, "Name": null, "lm_Rad": null, "Lm_Rad_1": null, "S_Rad": null, "Gra_Iaire": null, "IASAT_17": 0, "IASAT_18": 0, "IASAT_19": -1, "IASAT_20": 0.0, "IASAT_21": 0.0, "IASAT_22": -1.0, "IA_SA_23": -1.0, "Serr_Ec_17": null, "Serr_Ec_18": null, "Serr_Ec_19": null, "Serr_Ec_20": null, "Serr_Ec_21": null, "Serr_Ec_22": null, "Serr_Ec_23": null, "IASAT_24": -1.0, "Serr_Ec_24": null, "IASAT_25": -1, "Serr_Ec_25": null }, "geometry": { "type": "Point", "coordinates": [ 2.080807094268748, 50.827465868841408 ] } },
{ "type": "Feature", "properties": { "BV": "Hem", "CE": "Hem", "ID_Site": "FPSAT_HEM_07", "Tacon_max": "0", "P_Tronçon": "2.8%", "Lm_Radier": "7", "X_RGF93": 629116.68, "Y_RGF93": 7077718.5, "Name": "UP_POT_SAT9", "lm_Rad": "7", "Lm_Rad_1": "27", "S_Rad": "189", "Gra_Iaire": "CG", "IASAT_17": -1, "IASAT_18": 0, "IASAT_19": -1, "IASAT_20": 0.0, "IASAT_21": 0.0, "IASAT_22": -1.0, "IA_SA_23": 0.0, "Serr_Ec_17": null, "Serr_Ec_18": null, "Serr_Ec_19": null, "Serr_Ec_20": null, "Serr_Ec_21": null, "Serr_Ec_22": null, "Serr_Ec_23": null, "IASAT_24": 0.0, "Serr_Ec_24": "146", "IASAT_25": 0, "Serr_Ec_25": 121 }, "geometry": { "type": "Point", "coordinates": [ 1.99660672787289, 50.791911817337954 ] } },
{ "type": "Feature", "properties": { "BV": "Hem", "CE": "Hem", "ID_Site": "FPSAT_HEM_06", "Tacon_max": "0", "P_Tronçon": "2.5%", "Lm_Radier": "11", "X_RGF93": 634779.43, "Y_RGF93": 7080561.85, "Name": "UP_POT_SAT8", "lm_Rad": "11", "Lm_Rad_1": "42", "S_Rad": "462", "Gra_Iaire": "CG", "IASAT_17": -1, "IASAT_18": 0, "IASAT_19": 0, "IASAT_20": 0.0, "IASAT_21": 0.0, "IASAT_22": 0.0, "IA_SA_23": 0.0, "Serr_Ec_17": null, "Serr_Ec_18": null, "Serr_Ec_19": null, "Serr_Ec_20": null, "Serr_Ec_21": null, "Serr_Ec_22": null, "Serr_Ec_23": null, "IASAT_24": 0.0, "Serr_Ec_24": "182", "IASAT_25": 0, "Serr_Ec_25": 144 }, "geometry": { "type": "Point", "coordinates": [ 2.076287777413563, 50.818040290072013 ] } },
{ "type": "Feature", "properties": { "BV": "Hem", "CE": "Hem", "ID_Site": "FPSAT_HEM_08", "Tacon_max": "0", "P_Tronçon": "3.8%", "Lm_Radier": "8", "X_RGF93": 631095.03, "Y_RGF93": 7078592.93, "Name": null, "lm_Rad": "8", "Lm_Rad_1": "16", "S_Rad": "128", "Gra_Iaire": "CG", "IASAT_17": -1, "IASAT_18": 0, "IASAT_19": -1, "IASAT_20": 0.0, "IASAT_21": -1.0, "IASAT_22": -1.0, "IA_SA_23": 0.0, "Serr_Ec_17": null, "Serr_Ec_18": null, "Serr_Ec_19": null, "Serr_Ec_20": null, "Serr_Ec_21": null, "Serr_Ec_22": null, "Serr_Ec_23": null, "IASAT_24": 0.0, "Serr_Ec_24": "176", "IASAT_25": 0, "Serr_Ec_25": 176 }, "geometry": { "type": "Point", "coordinates": [ 2.024455674533395, 50.799979124410278 ] } },
{ "type": "Feature", "properties": { "BV": "Hem", "CE": "Hem", "ID_Site": "FPSAT_HEM_09", "Tacon_max": "0", "P_Tronçon": "2.5%", "Lm_Radier": "7", "X_RGF93": 633406.66, "Y_RGF93": 7079784.16, "Name": null, "lm_Rad": "7", "Lm_Rad_1": "35", "S_Rad": "245", "Gra_Iaire": "CG", "IASAT_17": -1, "IASAT_18": -1, "IASAT_19": -1, "IASAT_20": 0.0, "IASAT_21": 0.0, "IASAT_22": 0.0, "IA_SA_23": -1.0, "Serr_Ec_17": null, "Serr_Ec_18": null, "Serr_Ec_19": null, "Serr_Ec_20": null, "Serr_Ec_21": null, "Serr_Ec_22": null, "Serr_Ec_23": null, "IASAT_24": -1.0, "Serr_Ec_24": null, "IASAT_25": -1, "Serr_Ec_25": null }, "geometry": { "type": "Point", "coordinates": [ 2.056978728615448, 50.810917953768453 ] } },
{ "type": "Feature", "properties": { "BV": "Hem", "CE": "Hem", "ID_Site": "FPSAT_HEM_10", "Tacon_max": "0", "P_Tronçon": "2.5%", "Lm_Radier": "8.5", "X_RGF93": 635583.57, "Y_RGF93": 7082317.42, "Name": null, "lm_Rad": "8.5", "Lm_Rad_1": "33", "S_Rad": "280.5", "Gra_Iaire": "CG", "IASAT_17": -1, "IASAT_18": -1, "IASAT_19": -1, "IASAT_20": -1.0, "IASAT_21": -1.0, "IASAT_22": 0.0, "IA_SA_23": 0.0, "Serr_Ec_17": null, "Serr_Ec_18": null, "Serr_Ec_19": null, "Serr_Ec_20": null, "Serr_Ec_21": null, "Serr_Ec_22": null, "Serr_Ec_23": null, "IASAT_24": 0.0, "Serr_Ec_24": "166", "IASAT_25": 0, "Serr_Ec_25": 172 }, "geometry": { "type": "Point", "coordinates": [ 2.087388356341085, 50.833873502092921 ] } }
]
}
