{
"type": "FeatureCollection",
"name": "SIG_PE_FD62",
"crs": { "type": "name", "properties": { "name": "urn:ogc:def:crs:OGC:1.3:CRS84" } },
"features": [
{ "type": "Feature", "properties": { "fid": 234.0, "IDSCIM": 10271, "IDFD": "Hem à Audrehem (Le Loquin)", "Operation": "78190000005", "Departemen": "Pas-de-Calais", "Date": "2013-07-24", "Annee": 2013, "MasseEau": "Hem", "Commune": "Audrehem", "LieuDit": null, "CdWama": null, "X93": 628429, "Y93": 7076509, "Esp": "ANG", "Eff": 29, "Densite": "14", "Biomasse": 2330.0, "LtMin": 210, "LtMax": 640 }, "geometry": { "type": "Point", "coordinates": [ 1.987092957079711, 50.780982066644725 ] } },
{ "type": "Feature", "properties": { "fid": 235.0, "IDSCIM": 10272, "IDFD": "Hem à Audrehem (Le Loquin)", "Operation": "78190000005", "Departemen": "Pas-de-Calais", "Date": "2013-07-24", "Annee": 2013, "MasseEau": "Hem", "Commune": "Audrehem", "LieuDit": null, "CdWama": null, "X93": 628429, "Y93": 7076509, "Esp": "CHA", "Eff": 143, "Densite": "67", "Biomasse": 200.0, "LtMin": 20, "LtMax": 80 }, "geometry": { "type": "Point", "coordinates": [ 1.987092957079711, 50.780982066644725 ] } },
{ "type": "Feature", "properties": { "fid": 236.0, "IDSCIM": 10273, "IDFD": "Hem à Audrehem (Le Loquin)", "Operation": "78190000005", "Departemen": "Pas-de-Calais", "Date": "2013-07-24", "Annee": 2013, "MasseEau": "Hem", "Commune": "Audrehem", "LieuDit": null, "CdWama": null, "X93": 628429, "Y93": 7076509, "Esp": "EPI", "Eff": 6, "Densite": "3", "Biomasse": null, "LtMin": 20, "LtMax": 60 }, "geometry": { "type": "Point", "coordinates": [ 1.987092957079711, 50.780982066644725 ] } },
{ "type": "Feature", "properties": { "fid": 237.0, "IDSCIM": 10274, "IDFD": "Hem à Audrehem (Le Loquin)", "Operation": "78190000005", "Departemen": "Pas-de-Calais", "Date": "2013-07-24", "Annee": 2013, "MasseEau": "Hem", "Commune": "Audrehem", "LieuDit": null, "CdWama": null, "X93": 628429, "Y93": 7076509, "Esp": "LPP", "Eff": 5, "Densite": "2", "Biomasse": 10.0, "LtMin": 130, "LtMax": 160 }, "geometry": { "type": "Point", "coordinates": [ 1.987092957079711, 50.780982066644725 ] } },
{ "type": "Feature", "properties": { "fid": 238.0, "IDSCIM": 10275, "IDFD": "Hem à Audrehem (Le Loquin)", "Operation": "78190000005", "Departemen": "Pas-de-Calais", "Date": "2013-07-24", "Annee": 2013, "MasseEau": "Hem", "Commune": "Audrehem", "LieuDit": null, "CdWama": null, "X93": 628429, "Y93": 7076509, "Esp": "TRF", "Eff": 99, "Densite": "47", "Biomasse": 1060.0, "LtMin": 50, "LtMax": 300 }, "geometry": { "type": "Point", "coordinates": [ 1.987092957079711, 50.780982066644725 ] } },
{ "type": "Feature", "properties": { "fid": 320.0, "IDSCIM": 10357, "IDFD": "Hem à Audrehem", "Operation": "81760000022", "Departemen": "Pas-de-Calais", "Date": "2015-07-03", "Annee": 2015, "MasseEau": "Hem", "Commune": "Audrehem", "LieuDit": null, "CdWama": "0162##12", "X93": 628429, "Y93": 7076509, "Esp": "ANG", "Eff": 12, "Densite": "5", "Biomasse": 910.0, "LtMin": 220, "LtMax": 600 }, "geometry": { "type": "Point", "coordinates": [ 1.987092957079711, 50.780982066644725 ] } },
{ "type": "Feature", "properties": { "fid": 321.0, "IDSCIM": 10358, "IDFD": "Hem à Audrehem", "Operation": "81760000022", "Departemen": "Pas-de-Calais", "Date": "2015-07-03", "Annee": 2015, "MasseEau": "Hem", "Commune": "Audrehem", "LieuDit": null, "CdWama": "0162##12", "X93": 628429, "Y93": 7076509, "Esp": "CHA", "Eff": 125, "Densite": "54", "Biomasse": 270.0, "LtMin": 10, "LtMax": 70 }, "geometry": { "type": "Point", "coordinates": [ 1.987092957079711, 50.780982066644725 ] } },
{ "type": "Feature", "properties": { "fid": 322.0, "IDSCIM": 10359, "IDFD": "Hem à Audrehem", "Operation": "81760000022", "Departemen": "Pas-de-Calais", "Date": "2015-07-03", "Annee": 2015, "MasseEau": "Hem", "Commune": "Audrehem", "LieuDit": null, "CdWama": "0162##12", "X93": 628429, "Y93": 7076509, "Esp": "TRF", "Eff": 76, "Densite": "33", "Biomasse": 1330.0, "LtMin": 50, "LtMax": 280 }, "geometry": { "type": "Point", "coordinates": [ 1.987092957079711, 50.780982066644725 ] } },
{ "type": "Feature", "properties": { "fid": 323.0, "IDSCIM": 10360, "IDFD": "Hem à Journy", "Operation": "81760000023", "Departemen": "Pas-de-Calais", "Date": "2015-07-03", "Annee": 2015, "MasseEau": "Hem", "Commune": "Journy", "LieuDit": "Station 2", "CdWama": "0162##13", "X93": 628589, "Y93": 7073450, "Esp": "ANG", "Eff": 2, "Densite": "1", "Biomasse": 280.0, "LtMin": 410, "LtMax": 570 }, "geometry": { "type": "Point", "coordinates": [ 1.989910873468607, 50.753555914612107 ] } },
{ "type": "Feature", "properties": { "fid": 324.0, "IDSCIM": 10361, "IDFD": "Hem à Journy", "Operation": "81760000023", "Departemen": "Pas-de-Calais", "Date": "2015-07-03", "Annee": 2015, "MasseEau": "Hem", "Commune": "Journy", "LieuDit": "Station 2", "CdWama": "0162##13", "X93": 628589, "Y93": 7073450, "Esp": "CHA", "Eff": 154, "Densite": "155", "Biomasse": 360.0, "LtMin": 10, "LtMax": 70 }, "geometry": { "type": "Point", "coordinates": [ 1.989910873468607, 50.753555914612107 ] } },
{ "type": "Feature", "properties": { "fid": 325.0, "IDSCIM": 10362, "IDFD": "Hem à Journy", "Operation": "81760000023", "Departemen": "Pas-de-Calais", "Date": "2015-07-03", "Annee": 2015, "MasseEau": "Hem", "Commune": "Journy", "LieuDit": "Station 2", "CdWama": "0162##13", "X93": 628589, "Y93": 7073450, "Esp": "TRF", "Eff": 27, "Densite": "18", "Biomasse": 870.0, "LtMin": 50, "LtMax": 240 }, "geometry": { "type": "Point", "coordinates": [ 1.989910873468607, 50.753555914612107 ] } },
{ "type": "Feature", "properties": { "fid": 338.0, "IDSCIM": 10375, "IDFD": "Hem à Audrehem (Le Loquin)", "Operation": "98030000004", "Departemen": "Pas-de-Calais", "Date": "2017-09-01", "Annee": 2017, "MasseEau": "Hem", "Commune": "Audrehem", "LieuDit": null, "CdWama": "0162###5", "X93": 628429, "Y93": 7076509, "Esp": "ANG", "Eff": 15, "Densite": "21", "Biomasse": 2592.0, "LtMin": 260, "LtMax": 620 }, "geometry": { "type": "Point", "coordinates": [ 1.987092957079711, 50.780982066644725 ] } },
{ "type": "Feature", "properties": { "fid": 339.0, "IDSCIM": 10376, "IDFD": "Hem à Audrehem (Le Loquin)", "Operation": "98030000004", "Departemen": "Pas-de-Calais", "Date": "2017-09-01", "Annee": 2017, "MasseEau": "Hem", "Commune": "Audrehem", "LieuDit": null, "CdWama": "0162###5", "X93": 628429, "Y93": 7076509, "Esp": "CHA", "Eff": 20, "Densite": "28", "Biomasse": 43.0, "LtMin": 30, "LtMax": 80 }, "geometry": { "type": "Point", "coordinates": [ 1.987092957079711, 50.780982066644725 ] } },
{ "type": "Feature", "properties": { "fid": 340.0, "IDSCIM": 10377, "IDFD": "Hem à Audrehem (Le Loquin)", "Operation": "98030000004", "Departemen": "Pas-de-Calais", "Date": "2017-09-01", "Annee": 2017, "MasseEau": "Hem", "Commune": "Audrehem", "LieuDit": null, "CdWama": "0162###5", "X93": 628429, "Y93": 7076509, "Esp": "LPP", "Eff": 12, "Densite": "17", "Biomasse": 61.0, "LtMin": 30, "LtMax": 150 }, "geometry": { "type": "Point", "coordinates": [ 1.987092957079711, 50.780982066644725 ] } },
{ "type": "Feature", "properties": { "fid": 341.0, "IDSCIM": 10378, "IDFD": "Hem à Audrehem (Le Loquin)", "Operation": "98030000004", "Departemen": "Pas-de-Calais", "Date": "2017-09-01", "Annee": 2017, "MasseEau": "Hem", "Commune": "Audrehem", "LieuDit": null, "CdWama": "0162###5", "X93": 628429, "Y93": 7076509, "Esp": "TRF", "Eff": 29, "Densite": "40", "Biomasse": 1657.0, "LtMin": 70, "LtMax": 300 }, "geometry": { "type": "Point", "coordinates": [ 1.987092957079711, 50.780982066644725 ] } },
{ "type": "Feature", "properties": { "fid": 362.0, "IDSCIM": 10399, "IDFD": "Hem à Audrehem", "Operation": null, "Departemen": "Pas-de-Calais", "Date": "2020-09-03", "Annee": 2020, "MasseEau": "Hem", "Commune": "Audrehem", "LieuDit": null, "CdWama": "0162###6", "X93": 628102, "Y93": 7075878, "Esp": "ANG", "Eff": 2, "Densite": "2", "Biomasse": 72.0, "LtMin": 310, "LtMax": 470 }, "geometry": { "type": "Point", "coordinates": [ 1.982580665751712, 50.775283279340641 ] } },
{ "type": "Feature", "properties": { "fid": 363.0, "IDSCIM": 10400, "IDFD": "Hem à Audrehem", "Operation": null, "Departemen": "Pas-de-Calais", "Date": "2021-09-03", "Annee": 2021, "MasseEau": "Hem", "Commune": "Audrehem", "LieuDit": null, "CdWama": "0162###6", "X93": 628102, "Y93": 7075878, "Esp": "CHA", "Eff": 40, "Densite": "33", "Biomasse": 61.0, "LtMin": 20, "LtMax": 90 }, "geometry": { "type": "Point", "coordinates": [ 1.982580665751712, 50.775283279340641 ] } },
{ "type": "Feature", "properties": { "fid": 364.0, "IDSCIM": 10401, "IDFD": "Hem à Audrehem", "Operation": null, "Departemen": "Pas-de-Calais", "Date": "2022-09-03", "Annee": 2022, "MasseEau": "Hem", "Commune": "Audrehem", "LieuDit": null, "CdWama": "0162###6", "X93": 628102, "Y93": 7075878, "Esp": "LPP", "Eff": 17, "Densite": "14", "Biomasse": 84.0, "LtMin": 100, "LtMax": 160 }, "geometry": { "type": "Point", "coordinates": [ 1.982580665751712, 50.775283279340641 ] } },
{ "type": "Feature", "properties": { "fid": 365.0, "IDSCIM": 10402, "IDFD": "Hem à Audrehem", "Operation": null, "Departemen": "Pas-de-Calais", "Date": "2023-09-03", "Annee": 2023, "MasseEau": "Hem", "Commune": "Audrehem", "LieuDit": null, "CdWama": "0162###6", "X93": 628102, "Y93": 7075878, "Esp": "TRF", "Eff": 14, "Densite": "12", "Biomasse": 254.0, "LtMin": 30, "LtMax": 230 }, "geometry": { "type": "Point", "coordinates": [ 1.982580665751712, 50.775283279340641 ] } },
{ "type": "Feature", "properties": { "fid": 390.0, "IDSCIM": 527961, "IDFD": "Suivi_BE", "Operation": null, "Departemen": "Pas-de-Calais", "Date": "2015-10-08", "Annee": 2015, "MasseEau": "La Hem", "Commune": "Recques-sur-Hem", "LieuDit": null, "CdWama": "01115000", "X93": 635533, "Y93": 7082284, "Esp": "ANG", "Eff": 79, "Densite": null, "Biomasse": null, "LtMin": 110, "LtMax": 670 }, "geometry": { "type": "Point", "coordinates": [ 2.086677415964178, 50.833568467933794 ] } },
{ "type": "Feature", "properties": { "fid": 391.0, "IDSCIM": 527962, "IDFD": "Suivi_BE", "Operation": null, "Departemen": "Pas-de-Calais", "Date": "2015-10-08", "Annee": 2015, "MasseEau": "La Hem", "Commune": "Recques-sur-Hem", "LieuDit": null, "CdWama": "01115000", "X93": 635533, "Y93": 7082284, "Esp": "CHA", "Eff": 80, "Densite": null, "Biomasse": null, "LtMin": 30, "LtMax": 70 }, "geometry": { "type": "Point", "coordinates": [ 2.086677415964178, 50.833568467933794 ] } },
{ "type": "Feature", "properties": { "fid": 392.0, "IDSCIM": 527963, "IDFD": "Suivi_BE", "Operation": null, "Departemen": "Pas-de-Calais", "Date": "2015-10-08", "Annee": 2015, "MasseEau": "La Hem", "Commune": "Recques-sur-Hem", "LieuDit": null, "CdWama": "01115000", "X93": 635533, "Y93": 7082284, "Esp": "EPI", "Eff": 3, "Densite": null, "Biomasse": null, "LtMin": 20, "LtMax": 40 }, "geometry": { "type": "Point", "coordinates": [ 2.086677415964178, 50.833568467933794 ] } },
{ "type": "Feature", "properties": { "fid": 393.0, "IDSCIM": 527964, "IDFD": "Suivi_BE", "Operation": null, "Departemen": "Pas-de-Calais", "Date": "2015-10-08", "Annee": 2015, "MasseEau": "La Hem", "Commune": "Recques-sur-Hem", "LieuDit": null, "CdWama": "01115000", "X93": 635533, "Y93": 7082284, "Esp": "LOF", "Eff": 37, "Densite": null, "Biomasse": null, "LtMin": 40, "LtMax": 60 }, "geometry": { "type": "Point", "coordinates": [ 2.086677415964178, 50.833568467933794 ] } },
{ "type": "Feature", "properties": { "fid": 394.0, "IDSCIM": 527965, "IDFD": "Suivi_BE", "Operation": null, "Departemen": "Pas-de-Calais", "Date": "2015-10-08", "Annee": 2015, "MasseEau": "La Hem", "Commune": "Recques-sur-Hem", "LieuDit": null, "CdWama": "01115000", "X93": 635533, "Y93": 7082284, "Esp": "LPP", "Eff": 1, "Densite": null, "Biomasse": null, "LtMin": 80, "LtMax": 80 }, "geometry": { "type": "Point", "coordinates": [ 2.086677415964178, 50.833568467933794 ] } },
{ "type": "Feature", "properties": { "fid": 395.0, "IDSCIM": 527966, "IDFD": "Suivi_BE", "Operation": null, "Departemen": "Pas-de-Calais", "Date": "2015-10-08", "Annee": 2015, "MasseEau": "La Hem", "Commune": "Recques-sur-Hem", "LieuDit": null, "CdWama": "01115000", "X93": 635533, "Y93": 7082284, "Esp": "TRF", "Eff": 46, "Densite": null, "Biomasse": null, "LtMin": 80, "LtMax": 340 }, "geometry": { "type": "Point", "coordinates": [ 2.086677415964178, 50.833568467933794 ] } },
{ "type": "Feature", "properties": { "fid": 396.0, "IDSCIM": 527967, "IDFD": "Suivi_BE", "Operation": null, "Departemen": "Pas-de-Calais", "Date": "2015-10-08", "Annee": 2015, "MasseEau": "La Hem", "Commune": "Recques-sur-Hem", "LieuDit": null, "CdWama": "01115000", "X93": 635533, "Y93": 7082284, "Esp": "TRM", "Eff": 1, "Densite": null, "Biomasse": null, "LtMin": 440, "LtMax": 440 }, "geometry": { "type": "Point", "coordinates": [ 2.086677415964178, 50.833568467933794 ] } },
{ "type": "Feature", "properties": { "fid": 532.0, "IDSCIM": 528103, "IDFD": "Suivi_BE", "Operation": null, "Departemen": "Pas-de-Calais", "Date": "2017-09-28", "Annee": 2017, "MasseEau": "Hem", "Commune": "Escoeuilles", "LieuDit": null, "CdWama": null, "X93": 624506, "Y93": 7071306, "Esp": "CHA", "Eff": 58, "Densite": "145", "Biomasse": null, "LtMin": 30, "LtMax": 50 }, "geometry": { "type": "Point", "coordinates": [ 1.932574729561293, 50.733837974958718 ] } },
{ "type": "Feature", "properties": { "fid": 541.0, "IDSCIM": 528112, "IDFD": "Suivi_BE", "Operation": null, "Departemen": "Pas-de-Calais", "Date": "2018-10-10", "Annee": 2018, "MasseEau": "Hem", "Commune": "Tournehem sur la Hem", "LieuDit": null, "CdWama": null, "X93": 631214, "Y93": 7078592, "Esp": "ANG", "Eff": 75, "Densite": "8", "Biomasse": 1110.0, "LtMin": null, "LtMax": null }, "geometry": { "type": "Point", "coordinates": [ 2.026139974181292, 50.799983932393921 ] } },
{ "type": "Feature", "properties": { "fid": 542.0, "IDSCIM": 528113, "IDFD": "Suivi_BE", "Operation": null, "Departemen": "Pas-de-Calais", "Date": "2018-10-10", "Annee": 2018, "MasseEau": "Hem", "Commune": "Tournehem sur la Hem", "LieuDit": null, "CdWama": null, "X93": 631214, "Y93": 7078592, "Esp": "CHA", "Eff": 241, "Densite": "25", "Biomasse": 42.0, "LtMin": null, "LtMax": null }, "geometry": { "type": "Point", "coordinates": [ 2.026139974181292, 50.799983932393921 ] } },
{ "type": "Feature", "properties": { "fid": 543.0, "IDSCIM": 528114, "IDFD": "Suivi_BE", "Operation": null, "Departemen": "Pas-de-Calais", "Date": "2018-10-10", "Annee": 2018, "MasseEau": "Hem", "Commune": "Tournehem sur la Hem", "LieuDit": null, "CdWama": null, "X93": 631214, "Y93": 7078592, "Esp": "EPI", "Eff": 4, "Densite": "1", "Biomasse": null, "LtMin": null, "LtMax": null }, "geometry": { "type": "Point", "coordinates": [ 2.026139974181292, 50.799983932393921 ] } },
{ "type": "Feature", "properties": { "fid": 544.0, "IDSCIM": 528115, "IDFD": "Suivi_BE", "Operation": null, "Departemen": "Pas-de-Calais", "Date": "2018-10-10", "Annee": 2018, "MasseEau": "Hem", "Commune": "Tournehem sur la Hem", "LieuDit": null, "CdWama": null, "X93": 631214, "Y93": 7078592, "Esp": "LPP", "Eff": 9, "Densite": "1", "Biomasse": 5.0, "LtMin": null, "LtMax": null }, "geometry": { "type": "Point", "coordinates": [ 2.026139974181292, 50.799983932393921 ] } },
{ "type": "Feature", "properties": { "fid": 545.0, "IDSCIM": 528116, "IDFD": "Suivi_BE", "Operation": null, "Departemen": "Pas-de-Calais", "Date": "2018-10-10", "Annee": 2018, "MasseEau": "Hem", "Commune": "Tournehem sur la Hem", "LieuDit": null, "CdWama": null, "X93": 631214, "Y93": 7078592, "Esp": "LOF", "Eff": 5, "Densite": "1", "Biomasse": 2.0, "LtMin": null, "LtMax": null }, "geometry": { "type": "Point", "coordinates": [ 2.026139974181292, 50.799983932393921 ] } },
{ "type": "Feature", "properties": { "fid": 546.0, "IDSCIM": 528117, "IDFD": "Suivi_BE", "Operation": null, "Departemen": "Pas-de-Calais", "Date": "2018-10-10", "Annee": 2018, "MasseEau": "Hem", "Commune": "Tournehem sur la Hem", "LieuDit": null, "CdWama": null, "X93": 631214, "Y93": 7078592, "Esp": "TRF", "Eff": 29, "Densite": "30", "Biomasse": 330.0, "LtMin": null, "LtMax": null }, "geometry": { "type": "Point", "coordinates": [ 2.026139974181292, 50.799983932393921 ] } },
{ "type": "Feature", "properties": { "fid": 547.0, "IDSCIM": 528118, "IDFD": "Suivi_BE", "Operation": null, "Departemen": "Pas-de-Calais", "Date": "2018-10-10", "Annee": 2018, "MasseEau": "Hem", "Commune": "Tournehem sur la Hem", "LieuDit": null, "CdWama": null, "X93": 631214, "Y93": 7078592, "Esp": "VAI", "Eff": 8, "Densite": "1", "Biomasse": 1.0, "LtMin": null, "LtMax": null }, "geometry": { "type": "Point", "coordinates": [ 2.026139974181292, 50.799983932393921 ] } }
]
}
