{
"type": "FeatureCollection",
"name": "Sites_classe_hem",
"crs": { "type": "name", "properties": { "name": "urn:ogc:def:crs:OGC:1.3:CRS84" } },
"features": [
{ "type": "Feature", "properties": { "fid": 1, "cd_sig": "I056FR3201058", "type_espac": "SC", "id": "1", "ref_site.c": "FR3201058", "ref_site_1": null, "ref_site_2": "FR.MNHN.I056FR3201058", "ref_site_3": null, "ref_site_4": "32", "ref_site_5": "Gue D Audenfort, La Chute D'Eau Et La Roue A Aubes Du Moulin", "ref_site_6": null, "ref_site_7": "Nature", "ref_site_8": 14, "ref_site_9": null, "ref_site10": null, "ref_site11": null, "ref_site12": null, "ref_site13": null, "ref_site14": null, "ref_site15": null, "ref_site16": null, "ref_site17": null, "ref_site18": 0.1927, "ref_site19": 0.1927, "ref_site20": 0.0, "ref_site21": null, "ref_site22": null, "ref_site23": null, "ref_site24": null, "ref_site25": null, "ref_site26": "DGALN/UP1", "ref_site27": null, "ref_site28": 50.78181, "ref_site29": 1.96739, "ref_site30": null, "ref_site31": "AC2-130006570-45", "ref_site32": "TER", "ref_site33": null, "ref_site34": "DREAL HAUTS-DE-FRANCE", "ref_site35": null, "ref_site36": null, "ref_site37": "METROP", "ref_site38": null }, "geometry": { "type": "MultiPolygon", "coordinates": [ [ [ [ 1.967654351193985, 50.781939418258304 ], [ 1.967633926645433, 50.781879757706172 ], [ 1.967643259986878, 50.78166053394277 ], [ 1.967739652079704, 50.781598431882081 ], [ 1.967524302915272, 50.781554024839132 ], [ 1.967397880570241, 50.781541850142553 ], [ 1.967206192871327, 50.781564846828381 ], [ 1.967087846050452, 50.781737849912176 ], [ 1.96719932292215, 50.781753762153109 ], [ 1.9672995107336, 50.781771528369383 ], [ 1.967030579845029, 50.782029719386557 ], [ 1.967184877346838, 50.782117768310542 ], [ 1.967325692799045, 50.782042934350358 ], [ 1.967413581131976, 50.782015756908606 ], [ 1.967653601621497, 50.782030667844971 ], [ 1.967654351193985, 50.781939418258304 ] ] ] ] } },
{ "type": "Feature", "properties": { "fid": 2, "cd_sig": "I056FR3201022", "type_espac": "SC", "id": "1", "ref_site.c": "FR3201022", "ref_site_1": null, "ref_site_2": "FR.MNHN.I056FR3201022", "ref_site_3": null, "ref_site_4": "32", "ref_site_5": "Les Ruines De La Chapelle Saint-Louis", "ref_site_6": null, "ref_site_7": "Nature", "ref_site_8": 14, "ref_site_9": null, "ref_site10": null, "ref_site11": null, "ref_site12": null, "ref_site13": null, "ref_site14": null, "ref_site15": null, "ref_site16": null, "ref_site17": null, "ref_site18": 2.7358, "ref_site19": 2.7358, "ref_site20": 0.0, "ref_site21": null, "ref_site22": null, "ref_site23": null, "ref_site24": null, "ref_site25": null, "ref_site26": "DGALN/UP1", "ref_site27": null, "ref_site28": 50.8095, "ref_site29": 2.01923, "ref_site30": null, "ref_site31": "AC2-130006570-14", "ref_site32": "TER", "ref_site33": null, "ref_site34": "DREAL HAUTS-DE-FRANCE", "ref_site35": null, "ref_site36": null, "ref_site37": "METROP", "ref_site38": null }, "geometry": { "type": "MultiPolygon", "coordinates": [ [ [ [ 2.018664481635389, 50.809288072280843 ], [ 2.019096922390361, 50.809777649738265 ], [ 2.021638733600318, 50.810865408405625 ], [ 2.021850531303121, 50.810629477446334 ], [ 2.02200333663694, 50.810368587996592 ], [ 2.018217880975707, 50.80872061700645 ], [ 2.01706245561663, 50.808181407285936 ], [ 2.016959519435055, 50.808238378891701 ], [ 2.016554639641866, 50.808520333683838 ], [ 2.016340135819084, 50.808597779031942 ], [ 2.017948496407306, 50.809286151991522 ], [ 2.018664481635389, 50.809288072280843 ] ] ] ] } }
]
}
