{
"type": "FeatureCollection",
"name": "SNDP_TRF_FD62",
"crs": { "type": "name", "properties": { "name": "urn:ogc:def:crs:OGC:1.3:CRS84" } },
"features": [
{ "type": "Feature", "properties": { "commune": "NULL", "date_suivi": "09/01/2017", "geniteur": "0", "espece": "Truite fario / Grands Salmonidés", "layer": "SNDP_GS_2016_2017_HEM" }, "geometry": { "type": "Point", "coordinates": [ 2.059728668048167, 50.812267659696161 ] } },
{ "type": "Feature", "properties": { "commune": "NULL", "date_suivi": "09/01/2017", "geniteur": "0", "espece": "Truite fario / Grands Salmonidés", "layer": "SNDP_GS_2016_2017_HEM" }, "geometry": { "type": "Point", "coordinates": [ 2.060550334118813, 50.812316665737789 ] } },
{ "type": "Feature", "properties": { "commune": "NULL", "date_suivi": "09/01/2017", "geniteur": "0", "espece": "Truite fario / Grands Salmonidés", "layer": "SNDP_GS_2016_2017_HEM" }, "geometry": { "type": "Point", "coordinates": [ 2.060685666052548, 50.813076323700685 ] } },
{ "type": "Feature", "properties": { "commune": "NULL", "date_suivi": "09/01/2017", "geniteur": "0", "espece": "Truite fario / Grands Salmonidés", "layer": "SNDP_GS_2016_2017_HEM" }, "geometry": { "type": "Point", "coordinates": [ 2.060655666043362, 50.813229993697284 ] } },
{ "type": "Feature", "properties": { "commune": "NULL", "date_suivi": "09/01/2017", "geniteur": "0", "espece": "Truite fario / Grands Salmonidés", "layer": "SNDP_GS_2016_2017_HEM" }, "geometry": { "type": "Point", "coordinates": [ 2.061535666047868, 50.814706003696067 ] } },
{ "type": "Feature", "properties": { "commune": "NULL", "date_suivi": "09/01/2017", "geniteur": "0", "espece": "Truite fario / Grands Salmonidés", "layer": "SNDP_GS_2016_2017_HEM" }, "geometry": { "type": "Point", "coordinates": [ 2.061673002049651, 50.815116333696395 ] } },
{ "type": "Feature", "properties": { "commune": "NULL", "date_suivi": "09/01/2017", "geniteur": "0", "espece": "Truite fario / Grands Salmonidés", "layer": "SNDP_GS_2016_2017_HEM" }, "geometry": { "type": "Point", "coordinates": [ 2.06173999804548, 50.815466661696505 ] } },
{ "type": "Feature", "properties": { "commune": "NULL", "date_suivi": "09/01/2017", "geniteur": "0", "espece": "Truite fario / Grands Salmonidés", "layer": "SNDP_GS_2016_2017_HEM" }, "geometry": { "type": "Point", "coordinates": [ 2.063321996047988, 50.817041979696079 ] } },
{ "type": "Feature", "properties": { "commune": "NULL", "date_suivi": "09/01/2017", "geniteur": "0", "espece": "Truite fario / Grands Salmonidés", "layer": "SNDP_GS_2016_2017_HEM" }, "geometry": { "type": "Point", "coordinates": [ 2.074650334048007, 50.817801997696186 ] } },
{ "type": "Feature", "properties": { "commune": "NULL", "date_suivi": "09/01/2017", "geniteur": "0", "espece": "Truite fario / Grands Salmonidés", "layer": "SNDP_GS_2016_2017_HEM" }, "geometry": { "type": "Point", "coordinates": [ 2.076943332047639, 50.818832015697033 ] } },
{ "type": "Feature", "properties": { "commune": "NULL", "date_suivi": "09/01/2017", "geniteur": "0", "espece": "Truite fario / Grands Salmonidés", "layer": "SNDP_GS_2016_2017_HEM" }, "geometry": { "type": "Point", "coordinates": [ 2.078861336233894, 50.82123001172878 ] } },
{ "type": "Feature", "properties": { "commune": "NULL", "date_suivi": "09/01/2017", "geniteur": "0", "espece": "Truite fario / Grands Salmonidés", "layer": "SNDP_GS_2016_2017_HEM" }, "geometry": { "type": "Point", "coordinates": [ 2.081115666113568, 50.821314009710242 ] } },
{ "type": "Feature", "properties": { "commune": "NULL", "date_suivi": "09/01/2017", "geniteur": "0", "espece": "Truite fario / Grands Salmonidés", "layer": "SNDP_GS_2016_2017_HEM" }, "geometry": { "type": "Point", "coordinates": [ 2.082168000187096, 50.821709009721118 ] } },
{ "type": "Feature", "properties": { "commune": "NULL", "date_suivi": "09/01/2017", "geniteur": "0", "espece": "Truite fario / Grands Salmonidés", "layer": "SNDP_GS_2016_2017_HEM" }, "geometry": { "type": "Point", "coordinates": [ 2.084744000057727, 50.822125663697825 ] } },
{ "type": "Feature", "properties": { "commune": "NULL", "date_suivi": "09/01/2017", "geniteur": "0", "espece": "Truite fario / Grands Salmonidés", "layer": "SNDP_GS_2016_2017_HEM" }, "geometry": { "type": "Point", "coordinates": [ 2.084637223379911, 50.822813329696231 ] } },
{ "type": "Feature", "properties": { "commune": "NULL", "date_suivi": "09/01/2017", "geniteur": "0", "espece": "Truite fario / Grands Salmonidés", "layer": "SNDP_GS_2016_2017_HEM" }, "geometry": { "type": "Point", "coordinates": [ 2.085892002088777, 50.822396327708013 ] } },
{ "type": "Feature", "properties": { "commune": "NULL", "date_suivi": "09/01/2017", "geniteur": "0", "espece": "Truite fario / Grands Salmonidés", "layer": "SNDP_GS_2016_2017_HEM" }, "geometry": { "type": "Point", "coordinates": [ 2.088118333386548, 50.823686663030458 ] } },
{ "type": "Feature", "properties": { "commune": "NULL", "date_suivi": "09/01/2017", "geniteur": "0", "espece": "Truite fario / Grands Salmonidés", "layer": "SNDP_GS_2016_2017_HEM" }, "geometry": { "type": "Point", "coordinates": [ 2.086624664047923, 50.825746995696122 ] } },
{ "type": "Feature", "properties": { "commune": "NULL", "date_suivi": "09/01/2017", "geniteur": "0", "espece": "Truite fario / Grands Salmonidés", "layer": "SNDP_GS_2016_2017_HEM" }, "geometry": { "type": "Point", "coordinates": [ 2.086092664053647, 50.826031659697676 ] } },
{ "type": "Feature", "properties": { "commune": "NULL", "date_suivi": "09/01/2017", "geniteur": "0", "espece": "Truite fario / Grands Salmonidés", "layer": "SNDP_GS_2016_2017_HEM" }, "geometry": { "type": "Point", "coordinates": [ 2.082174440067417, 50.827772206366689 ] } },
{ "type": "Feature", "properties": { "commune": "NULL", "date_suivi": "09/01/2017", "geniteur": "0", "espece": "Truite fario / Grands Salmonidés", "layer": "SNDP_GS_2016_2017_HEM" }, "geometry": { "type": "Point", "coordinates": [ 2.081280664046967, 50.827082669695699 ] } },
{ "type": "Feature", "properties": { "commune": "NULL", "date_suivi": "09/01/2017", "geniteur": "0", "espece": "Truite fario / Grands Salmonidés", "layer": "SNDP_GS_2016_2017_HEM" }, "geometry": { "type": "Point", "coordinates": [ 2.082451002047341, 50.830222993695784 ] } },
{ "type": "Feature", "properties": { "commune": "NULL", "date_suivi": "11/01/2017", "geniteur": "0", "espece": "Truite fario / Grands Salmonidés", "layer": "SNDP_GS_2016_2017_HEM" }, "geometry": { "type": "Point", "coordinates": [ 2.087659328046799, 50.834018669695482 ] } },
{ "type": "Feature", "properties": { "commune": "NULL", "date_suivi": "11/01/2017", "geniteur": "0", "espece": "Truite fario / Grands Salmonidés", "layer": "SNDP_GS_2016_2017_HEM" }, "geometry": { "type": "Point", "coordinates": [ 2.090858332047715, 50.837058333695765 ] } },
{ "type": "Feature", "properties": { "commune": "NULL", "date_suivi": "11/01/2017", "geniteur": "0", "espece": "Truite fario / Grands Salmonidés", "layer": "SNDP_GS_2016_2017_HEM" }, "geometry": { "type": "Point", "coordinates": [ 2.09283933404647, 50.839625661695315 ] } },
{ "type": "Feature", "properties": { "commune": "NULL", "date_suivi": "11/01/2017", "geniteur": "0", "espece": "Truite fario / Grands Salmonidés", "layer": "SNDP_GS_2016_2017_HEM" }, "geometry": { "type": "Point", "coordinates": [ 2.093429668057276, 50.840031333697958 ] } },
{ "type": "Feature", "properties": { "commune": "NULL", "date_suivi": "11/01/2017", "geniteur": "0", "espece": "Truite fario / Grands Salmonidés", "layer": "SNDP_GS_2016_2017_HEM" }, "geometry": { "type": "Point", "coordinates": [ 2.093118998045628, 50.844059003695342 ] } },
{ "type": "Feature", "properties": { "commune": "NULL", "date_suivi": "11/01/2017", "geniteur": "0", "espece": "Truite fario / Grands Salmonidés", "layer": "SNDP_GS_2016_2017_HEM" }, "geometry": { "type": "Point", "coordinates": [ 2.093473000046371, 50.844576007695196 ] } },
{ "type": "Feature", "properties": { "commune": "NULL", "date_suivi": "15/01/2016", "geniteur": "0", "espece": "Truite fario / Grands Salmonidés", "layer": "SNDP_GS_2015_2016_HEM" }, "geometry": { "type": "Point", "coordinates": [ 2.086756670046723, 50.833563909695464 ] } },
{ "type": "Feature", "properties": { "commune": "NULL", "date_suivi": "15/01/2016", "geniteur": "0", "espece": "Truite fario / Grands Salmonidés", "layer": "SNDP_GS_2015_2016_HEM" }, "geometry": { "type": "Point", "coordinates": [ 2.086330553380642, 50.833378876362268 ] } },
{ "type": "Feature", "properties": { "commune": "NULL", "date_suivi": "15/01/2016", "geniteur": "0", "espece": "Truite fario / Grands Salmonidés", "layer": "SNDP_GS_2015_2016_HEM" }, "geometry": { "type": "Point", "coordinates": [ 2.085949582550854, 50.832596669696386 ] } },
{ "type": "Feature", "properties": { "commune": "NULL", "date_suivi": "15/01/2016", "geniteur": "0", "espece": "Truite fario / Grands Salmonidés", "layer": "SNDP_GS_2015_2016_HEM" }, "geometry": { "type": "Point", "coordinates": [ 2.085912915047029, 50.832643744695552 ] } },
{ "type": "Feature", "properties": { "commune": "NULL", "date_suivi": "15/01/2016", "geniteur": "0", "espece": "Truite fario / Grands Salmonidés", "layer": "SNDP_GS_2015_2016_HEM" }, "geometry": { "type": "Point", "coordinates": [ 2.090349165218097, 50.83676708472732 ] } },
{ "type": "Feature", "properties": { "commune": "NULL", "date_suivi": "15/01/2016", "geniteur": "0", "espece": "Truite fario / Grands Salmonidés", "layer": "SNDP_GS_2015_2016_HEM" }, "geometry": { "type": "Point", "coordinates": [ 2.089468668047697, 50.836263337695584 ] } },
{ "type": "Feature", "properties": { "commune": "NULL", "date_suivi": "20/01/2016", "geniteur": "0", "espece": "Truite fario / Grands Salmonidés", "layer": "SNDP_GS_2015_2016_HEM" }, "geometry": { "type": "Point", "coordinates": [ 1.751658060053676, 50.663781664702427 ] } },
{ "type": "Feature", "properties": { "commune": "NULL", "date_suivi": "15/01/2016", "geniteur": "0", "espece": "Truite fario / Grands Salmonidés", "layer": "SNDP_GS_2015_2016_HEM" }, "geometry": { "type": "Point", "coordinates": [ 2.08973055671325, 50.8360561196954 ] } },
{ "type": "Feature", "properties": { "commune": "NULL", "date_suivi": "15/01/2016", "geniteur": "0", "espece": "Truite fario / Grands Salmonidés", "layer": "SNDP_GS_2015_2016_HEM" }, "geometry": { "type": "Point", "coordinates": [ 2.090582223379362, 50.836738353028913 ] } },
{ "type": "Feature", "properties": { "commune": "NULL", "date_suivi": "15/01/2016", "geniteur": "0", "espece": "Truite fario / Grands Salmonidés", "layer": "SNDP_GS_2015_2016_HEM" }, "geometry": { "type": "Point", "coordinates": [ 2.091036665046504, 50.837494979695379 ] } },
{ "type": "Feature", "properties": { "commune": "NULL", "date_suivi": "15/01/2016", "geniteur": "0", "espece": "Truite fario / Grands Salmonidés", "layer": "SNDP_GS_2015_2016_HEM" }, "geometry": { "type": "Point", "coordinates": [ 2.091122220047009, 50.837492773029304 ] } },
{ "type": "Feature", "properties": { "commune": "NULL", "date_suivi": "20/01/2016", "geniteur": "0", "espece": "Truite fario / Grands Salmonidés", "layer": "SNDP_GS_2015_2016_HEM" }, "geometry": { "type": "Point", "coordinates": [ 2.095469446712678, 50.846513873028464 ] } },
{ "type": "Feature", "properties": { "commune": "NULL", "date_suivi": "15/01/2016", "geniteur": "0", "espece": "Truite fario / Grands Salmonidés", "layer": "SNDP_GS_2015_2016_HEM" }, "geometry": { "type": "Point", "coordinates": [ 2.0975311133795, 50.848653349695027 ] } },
{ "type": "Feature", "properties": { "commune": "NULL", "date_suivi": "15/01/2016", "geniteur": "0", "espece": "Truite fario / Grands Salmonidés", "layer": "SNDP_GS_2015_2016_HEM" }, "geometry": { "type": "Point", "coordinates": [ 2.084025509060735, 50.831223108242725 ] } },
{ "type": "Feature", "properties": { "commune": "NULL", "date_suivi": "15/01/2016", "geniteur": "0", "espece": "Truite fario / Grands Salmonidés", "layer": "SNDP_GS_2015_2016_HEM" }, "geometry": { "type": "Point", "coordinates": [ 2.083553890046884, 50.83064608969557 ] } },
{ "type": "Feature", "properties": { "commune": "NULL", "date_suivi": "15/01/2016", "geniteur": "0", "espece": "Truite fario / Grands Salmonidés", "layer": "SNDP_GS_2015_2016_HEM" }, "geometry": { "type": "Point", "coordinates": [ 2.084323053380211, 50.830200278028904 ] } },
{ "type": "Feature", "properties": { "commune": "Recques sur Hem", "date_suivi": "23/01/2015", "geniteur": "NON", "espece": "Truite fario / Grands Salmonidés", "layer": "SNDP_GS_2014_2015_HEM" }, "geometry": { "type": "Point", "coordinates": [ 2.07619380057575, 12.694817966878537 ] } },
{ "type": "Feature", "properties": { "commune": "Recques sur Hem", "date_suivi": "23/01/2015", "geniteur": "NON", "espece": "Truite fario / Grands Salmonidés", "layer": "SNDP_GS_2014_2015_HEM" }, "geometry": { "type": "Point", "coordinates": [ 2.078253239100214, 12.697534421137103 ] } },
{ "type": "Feature", "properties": { "commune": "Recques sur Hem", "date_suivi": "04/02/2015", "geniteur": "NON", "espece": "Truite fario / Grands Salmonidés", "layer": "SNDP_GS_2014_2015_HEM" }, "geometry": { "type": "Point", "coordinates": [ 2.077899086389889, 12.697007826405706 ] } },
{ "type": "Feature", "properties": { "commune": "Recques sur Hem", "date_suivi": "04/02/2015", "geniteur": "NON", "espece": "Truite fario / Grands Salmonidés", "layer": "SNDP_GS_2014_2015_HEM" }, "geometry": { "type": "Point", "coordinates": [ 2.076057434736599, 12.694781163854037 ] } },
{ "type": "Feature", "properties": { "commune": "Recques sur Hem", "date_suivi": "04/02/2015", "geniteur": "NON", "espece": "Truite fario / Grands Salmonidés", "layer": "SNDP_GS_2014_2015_HEM" }, "geometry": { "type": "Point", "coordinates": [ 2.076078777215681, 12.694750278221955 ] } },
{ "type": "Feature", "properties": { "commune": "Recques sur Hem", "date_suivi": "04/02/2015", "geniteur": "NON", "espece": "Truite fario / Grands Salmonidés", "layer": "SNDP_GS_2014_2015_HEM" }, "geometry": { "type": "Point", "coordinates": [ 2.075929914217567, 12.694637070248028 ] } },
{ "type": "Feature", "properties": { "commune": "Recques sur Hem", "date_suivi": "04/02/2015", "geniteur": "NON", "espece": "Truite fario / Grands Salmonidés", "layer": "SNDP_GS_2014_2015_HEM" }, "geometry": { "type": "Point", "coordinates": [ 2.075947077153634, 12.694572830361944 ] } },
{ "type": "Feature", "properties": { "commune": "Recques sur Hem", "date_suivi": "04/02/2015", "geniteur": "NON", "espece": "Truite fario / Grands Salmonidés", "layer": "SNDP_GS_2014_2015_HEM" }, "geometry": { "type": "Point", "coordinates": [ 2.075665183362497, 12.693966184471357 ] } },
{ "type": "Feature", "properties": { "commune": "NULL", "date_suivi": "22/12/2011", "geniteur": "0", "espece": "Truite fario", "layer": "SNDP_GS_2010_2011_HEM" }, "geometry": { "type": "Point", "coordinates": [ 2.073405896403106, 12.685845069956192 ] } },
{ "type": "Feature", "properties": { "commune": "NULL", "date_suivi": "22/12/2011", "geniteur": "0", "espece": "TRM", "layer": "SNDP_GS_2010_2011_HEM" }, "geometry": { "type": "Point", "coordinates": [ 2.076684832080414, 12.695117487583088 ] } },
{ "type": "Feature", "properties": { "commune": "NULL", "date_suivi": "22/12/2011", "geniteur": "0", "espece": "TRM", "layer": "SNDP_GS_2010_2011_HEM" }, "geometry": { "type": "Point", "coordinates": [ 2.07699501641834, 12.695644811762024 ] } },
{ "type": "Feature", "properties": { "commune": "NULL", "date_suivi": "22/12/2011", "geniteur": "0", "espece": "Truite fario", "layer": "SNDP_GS_2010_2011_HEM" }, "geometry": { "type": "Point", "coordinates": [ 2.077044724504603, 12.6957226153891 ] } },
{ "type": "Feature", "properties": { "commune": "NULL", "date_suivi": "20/01/2011", "geniteur": "0", "espece": "Truite fario", "layer": "SNDP_GS_2010_2011_HEM" }, "geometry": { "type": "Point", "coordinates": [ 2.073348603823093, 12.685721912812735 ] } },
{ "type": "Feature", "properties": { "commune": "NULL", "date_suivi": "20/01/2011", "geniteur": "0", "espece": "Truite fario", "layer": "SNDP_GS_2010_2011_HEM" }, "geometry": { "type": "Point", "coordinates": [ 2.073384700255348, 12.685803105724165 ] } },
{ "type": "Feature", "properties": { "commune": "NULL", "date_suivi": "20/01/2011", "geniteur": "0", "espece": "Truite fario", "layer": "SNDP_GS_2010_2011_HEM" }, "geometry": { "type": "Point", "coordinates": [ 2.07339384580356, 12.685794334507468 ] } },
{ "type": "Feature", "properties": { "commune": "NULL", "date_suivi": "20/01/2011", "geniteur": "0", "espece": "Truite fario", "layer": "SNDP_GS_2010_2011_HEM" }, "geometry": { "type": "Point", "coordinates": [ 2.073384700255348, 12.685803105724165 ] } },
{ "type": "Feature", "properties": { "commune": "NULL", "date_suivi": "20/01/2011", "geniteur": "0", "espece": "Truite fario", "layer": "SNDP_GS_2010_2011_HEM" }, "geometry": { "type": "Point", "coordinates": [ 2.073528150970087, 12.686130530001474 ] } },
{ "type": "Feature", "properties": { "commune": "NULL", "date_suivi": "20/01/2011", "geniteur": "0", "espece": "TRM", "layer": "SNDP_GS_2010_2011_HEM" }, "geometry": { "type": "Point", "coordinates": [ 2.073564894758145, 12.686157583168695 ] } },
{ "type": "Feature", "properties": { "commune": "NULL", "date_suivi": "20/01/2011", "geniteur": "0", "espece": "TRM", "layer": "SNDP_GS_2010_2011_HEM" }, "geometry": { "type": "Point", "coordinates": [ 2.073763559737185, 12.686403978963149 ] } },
{ "type": "Feature", "properties": { "commune": "NULL", "date_suivi": "20/01/2011", "geniteur": "0", "espece": "Truite fario", "layer": "SNDP_GS_2010_2011_HEM" }, "geometry": { "type": "Point", "coordinates": [ 2.073791688340844, 12.686395426291792 ] } },
{ "type": "Feature", "properties": { "commune": "NULL", "date_suivi": "20/01/2011", "geniteur": "0", "espece": "Truite fario", "layer": "SNDP_GS_2010_2011_HEM" }, "geometry": { "type": "Point", "coordinates": [ 2.073782542766736, 12.686404197600767 ] } },
{ "type": "Feature", "properties": { "commune": "NULL", "date_suivi": "20/01/2011", "geniteur": "0", "espece": "Truite fario", "layer": "SNDP_GS_2010_2011_HEM" }, "geometry": { "type": "Point", "coordinates": [ 2.073845641980342, 12.686495466101814 ] } },
{ "type": "Feature", "properties": { "commune": "NULL", "date_suivi": "20/01/2011", "geniteur": "0", "espece": "TRM", "layer": "SNDP_GS_2010_2011_HEM" }, "geometry": { "type": "Point", "coordinates": [ 2.073927077689484, 12.686641093401215 ] } },
{ "type": "Feature", "properties": { "commune": "NULL", "date_suivi": "20/01/2011", "geniteur": "0", "espece": "Truite fario", "layer": "SNDP_GS_2010_2011_HEM" }, "geometry": { "type": "Point", "coordinates": [ 2.075644417259941, 12.69463770169326 ] } },
{ "type": "Feature", "properties": { "commune": "NULL", "date_suivi": "20/01/2011", "geniteur": "0", "espece": "TRM", "layer": "SNDP_GS_2010_2011_HEM" }, "geometry": { "type": "Point", "coordinates": [ 2.077329217842015, 12.696129801160302 ] } },
{ "type": "Feature", "properties": { "commune": "NULL", "date_suivi": "20/01/2011", "geniteur": "0", "espece": "TRM", "layer": "SNDP_GS_2010_2011_HEM" }, "geometry": { "type": "Point", "coordinates": [ 2.077669369919672, 12.696874968916056 ] } },
{ "type": "Feature", "properties": { "commune": "NULL", "date_suivi": "10/02/2011", "geniteur": "0", "espece": "TRM", "layer": "SNDP_GS_2010_2011_HEM" }, "geometry": { "type": "Point", "coordinates": [ 2.073944348281533, 12.686633303286289 ] } },
{ "type": "Feature", "properties": { "commune": "NULL", "date_suivi": "10/02/2011", "geniteur": "0", "espece": "TRM", "layer": "SNDP_GS_2010_2011_HEM" }, "geometry": { "type": "Point", "coordinates": [ 2.07402640205251, 12.686802904793153 ] } },
{ "type": "Feature", "properties": { "commune": "NULL", "date_suivi": "10/02/2011", "geniteur": "0", "espece": "TRM", "layer": "SNDP_GS_2010_2011_HEM" }, "geometry": { "type": "Point", "coordinates": [ 2.075902076233497, 12.694716119784411 ] } },
{ "type": "Feature", "properties": { "commune": "NULL", "date_suivi": "02/02/2023", "geniteur": "0", "espece": "Truite fario", "layer": "SNDP GS HEM 2022-2023" }, "geometry": { "type": "Point", "coordinates": [ 2.049280415048604, 50.809365844696217 ] } },
{ "type": "Feature", "properties": { "commune": "NULL", "date_suivi": "02/02/2023", "geniteur": "0", "espece": "Truite fario", "layer": "SNDP GS HEM 2022-2023" }, "geometry": { "type": "Point", "coordinates": [ 2.049304723377022, 50.808981111368453 ] } },
{ "type": "Feature", "properties": { "commune": "NULL", "date_suivi": "02/02/2023", "geniteur": "0", "espece": "Truite fario", "layer": "SNDP GS HEM 2022-2023" }, "geometry": { "type": "Point", "coordinates": [ 2.079318332722842, 50.821577485099453 ] } },
{ "type": "Feature", "properties": { "commune": "NULL", "date_suivi": "14/01/2025", "geniteur": "0", "espece": "Truite fario", "layer": "SNDP_GS_TRF_HEM 2025" }, "geometry": { "type": "Point", "coordinates": [ 1.95767539, 50.7832841383333 ] } },
{ "type": "Feature", "properties": { "commune": "NULL", "date_suivi": "14/01/2025", "geniteur": "0", "espece": "Truite fario", "layer": "SNDP_GS_TRF_HEM 2025" }, "geometry": { "type": "Point", "coordinates": [ 1.957690473333333, 50.783274694999982 ] } },
{ "type": "Feature", "properties": { "commune": "NULL", "date_suivi": "14/01/2025", "geniteur": "0", "espece": "Truite fario", "layer": "SNDP_GS_TRF_HEM 2025" }, "geometry": { "type": "Point", "coordinates": [ 1.960357566, 50.783093 ] } },
{ "type": "Feature", "properties": { "commune": "NULL", "date_suivi": "14/01/2025", "geniteur": "0", "espece": "Truite fario", "layer": "SNDP_GS_TRF_HEM 2025" }, "geometry": { "type": "Point", "coordinates": [ 1.961849548421053, 50.783007390263151 ] } },
{ "type": "Feature", "properties": { "commune": "NULL", "date_suivi": "14/01/2025", "geniteur": "0", "espece": "Truite fario", "layer": "SNDP_GS_TRF_HEM 2025" }, "geometry": { "type": "Point", "coordinates": [ 1.962008881428572, 50.783023834285693 ] } },
{ "type": "Feature", "properties": { "commune": "NULL", "date_suivi": "14/01/2025", "geniteur": "0", "espece": "Truite fario", "layer": "SNDP_GS_TRF_HEM 2025" }, "geometry": { "type": "Point", "coordinates": [ 1.962612536, 50.783020899999975 ] } },
{ "type": "Feature", "properties": { "commune": "NULL", "date_suivi": "14/01/2025", "geniteur": "0", "espece": "Truite fario", "layer": "SNDP_GS_TRF_HEM 2025" }, "geometry": { "type": "Point", "coordinates": [ 1.965279085, 50.781379056666658 ] } },
{ "type": "Feature", "properties": { "commune": "NULL", "date_suivi": "14/01/2025", "geniteur": "0", "espece": "Truite fario", "layer": "SNDP_GS_TRF_HEM 2025" }, "geometry": { "type": "Point", "coordinates": [ 1.967589532, 50.7818389 ] } },
{ "type": "Feature", "properties": { "commune": "NULL", "date_suivi": "14/01/2025", "geniteur": "0", "espece": "Truite fario", "layer": "SNDP_GS_TRF_HEM 2025" }, "geometry": { "type": "Point", "coordinates": [ 1.967559273636363, 50.781845288181799 ] } },
{ "type": "Feature", "properties": { "commune": "NULL", "date_suivi": "14/01/2025", "geniteur": "0", "espece": "Truite fario", "layer": "SNDP_GS_TRF_HEM 2025" }, "geometry": { "type": "Point", "coordinates": [ 1.967571693333334, 50.781834276666643 ] } },
{ "type": "Feature", "properties": { "commune": "NULL", "date_suivi": "14/01/2025", "geniteur": "0", "espece": "Truite fario", "layer": "SNDP_GS_TRF_HEM 2025" }, "geometry": { "type": "Point", "coordinates": [ 1.968172734, 50.782097232 ] } },
{ "type": "Feature", "properties": { "commune": "NULL", "date_suivi": "14/01/2025", "geniteur": "0", "espece": "Truite fario", "layer": "SNDP_GS_TRF_HEM 2025" }, "geometry": { "type": "Point", "coordinates": [ 1.968449207500001, 50.782125792499997 ] } },
{ "type": "Feature", "properties": { "commune": "NULL", "date_suivi": "14/01/2025", "geniteur": "0", "espece": "Truite fario", "layer": "SNDP_GS_TRF_HEM 2025" }, "geometry": { "type": "Point", "coordinates": [ 1.97007552, 50.782410792499981 ] } },
{ "type": "Feature", "properties": { "commune": "NULL", "date_suivi": "14/01/2025", "geniteur": "0", "espece": "Truite fario", "layer": "SNDP_GS_TRF_HEM 2025" }, "geometry": { "type": "Point", "coordinates": [ 1.971228674285714, 50.783226293809498 ] } },
{ "type": "Feature", "properties": { "commune": "NULL", "date_suivi": "14/01/2025", "geniteur": "0", "espece": "Truite fario", "layer": "SNDP_GS_TRF_HEM 2025" }, "geometry": { "type": "Point", "coordinates": [ 1.971302471666667, 50.783279944999983 ] } },
{ "type": "Feature", "properties": { "commune": "NULL", "date_suivi": "14/01/2025", "geniteur": "0", "espece": "Truite fario", "layer": "SNDP_GS_TRF_HEM 2025" }, "geometry": { "type": "Point", "coordinates": [ 1.971586083333333, 50.783332168333295 ] } },
{ "type": "Feature", "properties": { "commune": "NULL", "date_suivi": "14/01/2025", "geniteur": "0", "espece": "Truite fario", "layer": "SNDP_GS_TRF_HEM 2025" }, "geometry": { "type": "Point", "coordinates": [ 1.972297583333334, 50.78381758499998 ] } },
{ "type": "Feature", "properties": { "commune": "NULL", "date_suivi": "14/01/2025", "geniteur": "0", "espece": "Truite fario", "layer": "SNDP_GS_TRF_HEM 2025" }, "geometry": { "type": "Point", "coordinates": [ 1.9728373325, 50.784179834999989 ] } },
{ "type": "Feature", "properties": { "commune": "NULL", "date_suivi": "14/01/2025", "geniteur": "0", "espece": "Truite fario", "layer": "SNDP_GS_TRF_HEM 2025" }, "geometry": { "type": "Point", "coordinates": [ 1.978790945, 50.787063916666661 ] } },
{ "type": "Feature", "properties": { "commune": "NULL", "date_suivi": "14/01/2025", "geniteur": "0", "espece": "Truite fario", "layer": "SNDP_GS_TRF_HEM 2025" }, "geometry": { "type": "Point", "coordinates": [ 1.978966312499999, 50.787116749999988 ] } },
{ "type": "Feature", "properties": { "commune": "NULL", "date_suivi": "14/01/2025", "geniteur": "0", "espece": "Truite fario", "layer": "SNDP_GS_TRF_HEM 2025" }, "geometry": { "type": "Point", "coordinates": [ 1.988896704444444, 50.789928129999979 ] } },
{ "type": "Feature", "properties": { "commune": "NULL", "date_suivi": "14/01/2025", "geniteur": "0", "espece": "Truite fario", "layer": "SNDP_GS_TRF_HEM 2025" }, "geometry": { "type": "Point", "coordinates": [ 1.991112388333333, 50.790477444999986 ] } },
{ "type": "Feature", "properties": { "commune": "NULL", "date_suivi": "14/01/2025", "geniteur": "0", "espece": "Truite fario", "layer": "SNDP_GS_TRF_HEM 2025" }, "geometry": { "type": "Point", "coordinates": [ 1.991119943333333, 50.790471166666649 ] } },
{ "type": "Feature", "properties": { "commune": "NULL", "date_suivi": "14/01/2025", "geniteur": "0", "espece": "Truite fario", "layer": "SNDP_GS_TRF_HEM 2025" }, "geometry": { "type": "Point", "coordinates": [ 1.996007333333334, 50.791957333333322 ] } },
{ "type": "Feature", "properties": { "commune": "NULL", "date_suivi": "14/01/2025", "geniteur": "1", "espece": "Truite fario", "layer": "SNDP_GS_TRF_HEM 2025" }, "geometry": { "type": "Point", "coordinates": [ 1.996096164, 50.791936833 ] } },
{ "type": "Feature", "properties": { "commune": "NULL", "date_suivi": "14/01/2025", "geniteur": "0", "espece": "Truite fario", "layer": "SNDP_GS_TRF_HEM 2025" }, "geometry": { "type": "Point", "coordinates": [ 1.996241214285713, 50.791900214285697 ] } },
{ "type": "Feature", "properties": { "commune": "NULL", "date_suivi": "14/01/2025", "geniteur": "0", "espece": "Truite fario", "layer": "SNDP_GS_TRF_HEM 2025" }, "geometry": { "type": "Point", "coordinates": [ 2.0024530425, 50.794094624999978 ] } },
{ "type": "Feature", "properties": { "commune": "NULL", "date_suivi": "14/01/2025", "geniteur": "2", "espece": "Truite fario", "layer": "SNDP_GS_TRF_HEM 2025" }, "geometry": { "type": "Point", "coordinates": [ 2.002460616, 50.794093998999969 ] } },
{ "type": "Feature", "properties": { "commune": "NULL", "date_suivi": "14/01/2025", "geniteur": "2", "espece": "Truite fario", "layer": "SNDP_GS_TRF_HEM 2025" }, "geometry": { "type": "Point", "coordinates": [ 2.002459958749999, 50.794093082499984 ] } },
{ "type": "Feature", "properties": { "commune": "NULL", "date_suivi": "14/01/2025", "geniteur": "2", "espece": "Truite fario", "layer": "SNDP_GS_TRF_HEM 2025" }, "geometry": { "type": "Point", "coordinates": [ 2.002464861666667, 50.794093749999981 ] } },
{ "type": "Feature", "properties": { "commune": "NULL", "date_suivi": "14/01/2025", "geniteur": "0", "espece": "Truite fario", "layer": "SNDP_GS_TRF_HEM 2025" }, "geometry": { "type": "Point", "coordinates": [ 2.004972457499999, 50.795787707499969 ] } },
{ "type": "Feature", "properties": { "commune": "NULL", "date_suivi": "14/01/2025", "geniteur": "0", "espece": "Truite fario", "layer": "SNDP_GS_TRF_HEM 2025" }, "geometry": { "type": "Point", "coordinates": [ 2.005416474285713, 50.79609857 ] } },
{ "type": "Feature", "properties": { "commune": "NULL", "date_suivi": "14/01/2025", "geniteur": "1", "espece": "Truite fario", "layer": "SNDP_GS_TRF_HEM 2025" }, "geometry": { "type": "Point", "coordinates": [ 2.01222225, 50.796687789999979 ] } },
{ "type": "Feature", "properties": { "commune": "NULL", "date_suivi": "14/01/2025", "geniteur": "0", "espece": "Truite fario", "layer": "SNDP_GS_TRF_HEM 2025" }, "geometry": { "type": "Point", "coordinates": [ 2.025631134, 50.799638436 ] } },
{ "type": "Feature", "properties": { "commune": "NULL", "date_suivi": "14/01/2025", "geniteur": "0", "espece": "Truite fario", "layer": "SNDP_GS_TRF_HEM 2025" }, "geometry": { "type": "Point", "coordinates": [ 2.027208125, 50.800288499999972 ] } },
{ "type": "Feature", "properties": { "commune": "NULL", "date_suivi": "14/01/2025", "geniteur": "0", "espece": "Truite fario", "layer": "SNDP_GS_TRF_HEM 2025" }, "geometry": { "type": "Point", "coordinates": [ 2.02720717, 50.8002885 ] } },
{ "type": "Feature", "properties": { "commune": "NULL", "date_suivi": "14/01/2025", "geniteur": "0", "espece": "Truite fario", "layer": "SNDP_GS_TRF_HEM 2025" }, "geometry": { "type": "Point", "coordinates": [ 2.027204335, 50.800289749999976 ] } },
{ "type": "Feature", "properties": { "commune": "NULL", "date_suivi": "14/01/2025", "geniteur": "0", "espece": "Truite fario", "layer": "SNDP_GS_TRF_HEM 2025" }, "geometry": { "type": "Point", "coordinates": [ 2.031353443333333, 50.800668113333309 ] } },
{ "type": "Feature", "properties": { "commune": "NULL", "date_suivi": "14/01/2025", "geniteur": "0", "espece": "Truite fario", "layer": "SNDP_GS_TRF_HEM 2025" }, "geometry": { "type": "Point", "coordinates": [ 2.0492824575, 50.809317792499982 ] } },
{ "type": "Feature", "properties": { "commune": "NULL", "date_suivi": "14/01/2025", "geniteur": "0", "espece": "Truite fario", "layer": "SNDP_GS_TRF_HEM 2025" }, "geometry": { "type": "Point", "coordinates": [ 2.049621667777778, 50.809102963333302 ] } },
{ "type": "Feature", "properties": { "commune": "NULL", "date_suivi": "14/01/2025", "geniteur": "0", "espece": "Truite fario", "layer": "SNDP_GS_TRF_HEM 2025" }, "geometry": { "type": "Point", "coordinates": [ 2.049985468, 50.808752597999977 ] } },
{ "type": "Feature", "properties": { "commune": "NULL", "date_suivi": "14/01/2025", "geniteur": "0", "espece": "Truite fario", "layer": "SNDP_GS_TRF_HEM 2025" }, "geometry": { "type": "Point", "coordinates": [ 2.056765638333332, 50.81090589 ] } },
{ "type": "Feature", "properties": { "commune": "NULL", "date_suivi": "14/01/2025", "geniteur": "0", "espece": "Truite fario", "layer": "SNDP_GS_TRF_HEM 2025" }, "geometry": { "type": "Point", "coordinates": [ 2.05879767, 50.811212165 ] } },
{ "type": "Feature", "properties": { "commune": "NULL", "date_suivi": "14/01/2025", "geniteur": "0", "espece": "Truite fario", "layer": "SNDP_GS_TRF_HEM 2025" }, "geometry": { "type": "Point", "coordinates": [ 2.058787875, 50.811218252499991 ] } },
{ "type": "Feature", "properties": { "commune": "NULL", "date_suivi": "14/01/2025", "geniteur": "0", "espece": "Truite fario", "layer": "SNDP_GS_TRF_HEM 2025" }, "geometry": { "type": "Point", "coordinates": [ 2.058952553333333, 50.811388109999982 ] } },
{ "type": "Feature", "properties": { "commune": "NULL", "date_suivi": "14/01/2025", "geniteur": "0", "espece": "Truite fario", "layer": "SNDP_GS_TRF_HEM 2025" }, "geometry": { "type": "Point", "coordinates": [ 2.058950723333334, 50.811387943333315 ] } },
{ "type": "Feature", "properties": { "commune": "NULL", "date_suivi": "15/01/2025", "geniteur": "0", "espece": "Truite fario", "layer": "SNDP_GS_TRF_HEM 2025" }, "geometry": { "type": "Point", "coordinates": [ 2.0764371, 50.818319833999986 ] } },
{ "type": "Feature", "properties": { "commune": "NULL", "date_suivi": "15/01/2025", "geniteur": "0", "espece": "Truite fario", "layer": "SNDP_GS_TRF_HEM 2025" }, "geometry": { "type": "Point", "coordinates": [ 2.074601, 50.817806874999988 ] } },
{ "type": "Feature", "properties": { "commune": "NULL", "date_suivi": "15/01/2025", "geniteur": "0", "espece": "Truite fario", "layer": "SNDP_GS_TRF_HEM 2025" }, "geometry": { "type": "Point", "coordinates": [ 2.072682292500001, 50.817564875 ] } },
{ "type": "Feature", "properties": { "commune": "NULL", "date_suivi": "15/01/2025", "geniteur": "0", "espece": "Truite fario", "layer": "SNDP_GS_TRF_HEM 2025" }, "geometry": { "type": "Point", "coordinates": [ 2.0680892525, 50.81787 ] } },
{ "type": "Feature", "properties": { "commune": "NULL", "date_suivi": "15/01/2025", "geniteur": "0", "espece": "Truite fario", "layer": "SNDP_GS_TRF_HEM 2025" }, "geometry": { "type": "Point", "coordinates": [ 2.064009542499999, 50.816933752499985 ] } },
{ "type": "Feature", "properties": { "commune": "NULL", "date_suivi": "15/01/2025", "geniteur": "0", "espece": "Truite fario", "layer": "SNDP_GS_TRF_HEM 2025" }, "geometry": { "type": "Point", "coordinates": [ 2.063334053333333, 50.81694867 ] } },
{ "type": "Feature", "properties": { "commune": "NULL", "date_suivi": "15/01/2025", "geniteur": "0", "espece": "Truite fario", "layer": "SNDP_GS_TRF_HEM 2025" }, "geometry": { "type": "Point", "coordinates": [ 2.061331127500001, 50.814710542499988 ] } },
{ "type": "Feature", "properties": { "commune": "NULL", "date_suivi": "15/01/2025", "geniteur": "0", "espece": "Truite fario", "layer": "SNDP_GS_TRF_HEM 2025" }, "geometry": { "type": "Point", "coordinates": [ 2.084630946666667, 50.822987223333314 ] } },
{ "type": "Feature", "properties": { "commune": "NULL", "date_suivi": "15/01/2025", "geniteur": "0", "espece": "Truite fario", "layer": "SNDP_GS_TRF_HEM 2025" }, "geometry": { "type": "Point", "coordinates": [ 2.083979613333332, 50.822763276666656 ] } },
{ "type": "Feature", "properties": { "commune": "NULL", "date_suivi": "15/01/2025", "geniteur": "0", "espece": "Truite fario", "layer": "SNDP_GS_TRF_HEM 2025" }, "geometry": { "type": "Point", "coordinates": [ 2.0814015, 50.821967249999986 ] } },
{ "type": "Feature", "properties": { "commune": "NULL", "date_suivi": "15/01/2025", "geniteur": "0", "espece": "Truite fario", "layer": "SNDP_GS_TRF_HEM 2025" }, "geometry": { "type": "Point", "coordinates": [ 2.078752316, 50.82088715 ] } },
{ "type": "Feature", "properties": { "commune": "NULL", "date_suivi": "15/01/2025", "geniteur": "0", "espece": "Truite fario", "layer": "SNDP_GS_TRF_HEM 2025" }, "geometry": { "type": "Point", "coordinates": [ 2.0783695, 50.820542034 ] } },
{ "type": "Feature", "properties": { "commune": "NULL", "date_suivi": "15/01/2025", "geniteur": "0", "espece": "Truite fario", "layer": "SNDP_GS_TRF_HEM 2025" }, "geometry": { "type": "Point", "coordinates": [ 2.090332832, 50.836680399999985 ] } },
{ "type": "Feature", "properties": { "commune": "NULL", "date_suivi": "15/01/2025", "geniteur": "0", "espece": "Truite fario", "layer": "SNDP_GS_TRF_HEM 2025" }, "geometry": { "type": "Point", "coordinates": [ 2.084056857142857, 50.826541879999972 ] } },
{ "type": "Feature", "properties": { "commune": "NULL", "date_suivi": "15/01/2025", "geniteur": "0", "espece": "Truite fario", "layer": "SNDP_GS_TRF_HEM 2025" }, "geometry": { "type": "Point", "coordinates": [ 2.085850831666666, 50.826151888333328 ] } },
{ "type": "Feature", "properties": { "commune": "NULL", "date_suivi": "20/01/2026", "geniteur": "0", "espece": "Truite fario", "layer": "SNDP_TRF_GS_HEM_2026" }, "geometry": { "type": "Point", "coordinates": [ 1.95586268625, 50.78426010499998 ] } },
{ "type": "Feature", "properties": { "commune": "NULL", "date_suivi": "20/01/2026", "geniteur": "0", "espece": "Truite fario", "layer": "SNDP_TRF_GS_HEM_2026" }, "geometry": { "type": "Point", "coordinates": [ 1.962589603749999, 50.783044853749978 ] } },
{ "type": "Feature", "properties": { "commune": "NULL", "date_suivi": "20/01/2026", "geniteur": "0", "espece": "Truite fario", "layer": "SNDP_TRF_GS_HEM_2026" }, "geometry": { "type": "Point", "coordinates": [ 1.964684915, 50.782359332499979 ] } },
{ "type": "Feature", "properties": { "commune": "NULL", "date_suivi": "20/01/2026", "geniteur": "0", "espece": "Truite fario", "layer": "SNDP_TRF_GS_HEM_2026" }, "geometry": { "type": "Point", "coordinates": [ 1.966026636666667, 50.781457414999984 ] } },
{ "type": "Feature", "properties": { "commune": "NULL", "date_suivi": "20/01/2026", "geniteur": "0", "espece": "Truite fario", "layer": "SNDP_TRF_GS_HEM_2026" }, "geometry": { "type": "Point", "coordinates": [ 1.967589118571429, 50.78183621428569 ] } },
{ "type": "Feature", "properties": { "commune": "NULL", "date_suivi": "20/01/2026", "geniteur": "0", "espece": "Truite fario", "layer": "SNDP_TRF_GS_HEM_2026" }, "geometry": { "type": "Point", "coordinates": [ 1.967583165714286, 50.781834355714274 ] } },
{ "type": "Feature", "properties": { "commune": "NULL", "date_suivi": "20/01/2026", "geniteur": "0", "espece": "Truite fario", "layer": "SNDP_TRF_GS_HEM_2026" }, "geometry": { "type": "Point", "coordinates": [ 1.968221457500001, 50.782090854999986 ] } },
{ "type": "Feature", "properties": { "commune": "NULL", "date_suivi": "20/01/2026", "geniteur": "0", "espece": "Truite fario", "layer": "SNDP_TRF_GS_HEM_2026" }, "geometry": { "type": "Point", "coordinates": [ 1.968478332857143, 50.782116785714273 ] } },
{ "type": "Feature", "properties": { "commune": "NULL", "date_suivi": "20/01/2026", "geniteur": "0", "espece": "Truite fario", "layer": "SNDP_TRF_GS_HEM_2026" }, "geometry": { "type": "Point", "coordinates": [ 1.969243358571429, 50.782297547142839 ] } },
{ "type": "Feature", "properties": { "commune": "NULL", "date_suivi": "20/01/2026", "geniteur": "0", "espece": "Truite fario", "layer": "SNDP_TRF_GS_HEM_2026" }, "geometry": { "type": "Point", "coordinates": [ 1.970835416666667, 50.782880278333316 ] } },
{ "type": "Feature", "properties": { "commune": "NULL", "date_suivi": "20/01/2026", "geniteur": "0", "espece": "Truite fario", "layer": "SNDP_TRF_GS_HEM_2026" }, "geometry": { "type": "Point", "coordinates": [ 1.971617311249999, 50.783325416249994 ] } },
{ "type": "Feature", "properties": { "commune": "NULL", "date_suivi": "20/01/2026", "geniteur": "0", "espece": "Truite fario", "layer": "SNDP_TRF_GS_HEM_2026" }, "geometry": { "type": "Point", "coordinates": [ 1.972319417499999, 50.783798227499986 ] } },
{ "type": "Feature", "properties": { "commune": "NULL", "date_suivi": "20/01/2026", "geniteur": "1", "espece": "Truite fario", "layer": "SNDP_TRF_GS_HEM_2026" }, "geometry": { "type": "Point", "coordinates": [ 1.97594541625, 50.78589545749999 ] } },
{ "type": "Feature", "properties": { "commune": "NULL", "date_suivi": "20/01/2026", "geniteur": "0", "espece": "Truite fario", "layer": "SNDP_TRF_GS_HEM_2026" }, "geometry": { "type": "Point", "coordinates": [ 1.97882100125, 50.787050042499985 ] } },
{ "type": "Feature", "properties": { "commune": "NULL", "date_suivi": "20/01/2026", "geniteur": "0", "espece": "Truite fario", "layer": "SNDP_TRF_GS_HEM_2026" }, "geometry": { "type": "Point", "coordinates": [ 1.98204472, 50.789205666666646 ] } },
{ "type": "Feature", "properties": { "commune": "NULL", "date_suivi": "20/01/2026", "geniteur": "0", "espece": "Truite fario", "layer": "SNDP_TRF_GS_HEM_2026" }, "geometry": { "type": "Point", "coordinates": [ 1.992320501428571, 50.791364641428537 ] } },
{ "type": "Feature", "properties": { "commune": "NULL", "date_suivi": "20/01/2026", "geniteur": "0", "espece": "Truite fario", "layer": "SNDP_TRF_GS_HEM_2026" }, "geometry": { "type": "Point", "coordinates": [ 1.992600526666667, 50.791428471666663 ] } },
{ "type": "Feature", "properties": { "commune": "NULL", "date_suivi": "20/01/2026", "geniteur": "0", "espece": "Truite fario", "layer": "SNDP_TRF_GS_HEM_2026" }, "geometry": { "type": "Point", "coordinates": [ 1.995875771250001, 50.791958436249985 ] } },
{ "type": "Feature", "properties": { "commune": "NULL", "date_suivi": "20/01/2026", "geniteur": "0", "espece": "Truite fario", "layer": "SNDP_TRF_GS_HEM_2026" }, "geometry": { "type": "Point", "coordinates": [ 2.002511928571429, 50.794094712857138 ] } },
{ "type": "Feature", "properties": { "commune": "NULL", "date_suivi": "20/01/2026", "geniteur": "0", "espece": "Truite fario", "layer": "SNDP_TRF_GS_HEM_2026" }, "geometry": { "type": "Point", "coordinates": [ 2.002464772499998, 50.794039374999969 ] } },
{ "type": "Feature", "properties": { "commune": "NULL", "date_suivi": "20/01/2026", "geniteur": "0", "espece": "Truite fario", "layer": "SNDP_TRF_GS_HEM_2026" }, "geometry": { "type": "Point", "coordinates": [ 2.00345238, 50.794845785714287 ] } },
{ "type": "Feature", "properties": { "commune": "NULL", "date_suivi": "20/01/2026", "geniteur": "0", "espece": "Truite fario", "layer": "SNDP_TRF_GS_HEM_2026" }, "geometry": { "type": "Point", "coordinates": [ 2.00963527, 50.796251812499982 ] } },
{ "type": "Feature", "properties": { "commune": "NULL", "date_suivi": "20/01/2026", "geniteur": "0", "espece": "Truite fario", "layer": "SNDP_TRF_GS_HEM_2026" }, "geometry": { "type": "Point", "coordinates": [ 2.01052570875, 50.796595914999969 ] } },
{ "type": "Feature", "properties": { "commune": "NULL", "date_suivi": "20/01/2026", "geniteur": "0", "espece": "Truite fario", "layer": "SNDP_TRF_GS_HEM_2026" }, "geometry": { "type": "Point", "coordinates": [ 2.01143074, 50.796807204444448 ] } },
{ "type": "Feature", "properties": { "commune": "NULL", "date_suivi": "20/01/2026", "geniteur": "2", "espece": "Truite fario", "layer": "SNDP_TRF_GS_HEM_2026" }, "geometry": { "type": "Point", "coordinates": [ 2.012726, 50.797132691428544 ] } },
{ "type": "Feature", "properties": { "commune": "NULL", "date_suivi": "20/01/2026", "geniteur": "0", "espece": "Truite fario", "layer": "SNDP_TRF_GS_HEM_2026" }, "geometry": { "type": "Point", "coordinates": [ 2.01362008375, 50.797305812499992 ] } },
{ "type": "Feature", "properties": { "commune": "NULL", "date_suivi": "20/01/2026", "geniteur": "0", "espece": "Truite fario", "layer": "SNDP_TRF_GS_HEM_2026" }, "geometry": { "type": "Point", "coordinates": [ 2.013847908888889, 50.797345795555529 ] } },
{ "type": "Feature", "properties": { "commune": "NULL", "date_suivi": "20/01/2026", "geniteur": "0", "espece": "Truite fario", "layer": "SNDP_TRF_GS_HEM_2026" }, "geometry": { "type": "Point", "coordinates": [ 2.013816388888889, 50.797358907777756 ] } },
{ "type": "Feature", "properties": { "commune": "NULL", "date_suivi": "20/01/2026", "geniteur": "0", "espece": "Truite fario", "layer": "SNDP_TRF_GS_HEM_2026" }, "geometry": { "type": "Point", "coordinates": [ 2.0160327, 50.796998599999988 ] } },
{ "type": "Feature", "properties": { "commune": "NULL", "date_suivi": "20/01/2026", "geniteur": "2", "espece": "Truite fario", "layer": "SNDP_TRF_GS_HEM_2026" }, "geometry": { "type": "Point", "coordinates": [ 2.018434153333333, 50.798963445833316 ] } },
{ "type": "Feature", "properties": { "commune": "NULL", "date_suivi": "20/01/2026", "geniteur": "0", "espece": "Truite fario", "layer": "SNDP_TRF_GS_HEM_2026" }, "geometry": { "type": "Point", "coordinates": [ 2.02413337625, 50.80005537625 ] } },
{ "type": "Feature", "properties": { "commune": "NULL", "date_suivi": "20/01/2026", "geniteur": "0", "espece": "Truite fario", "layer": "SNDP_TRF_GS_HEM_2026" }, "geometry": { "type": "Point", "coordinates": [ 2.024683815555555, 50.799929352222208 ] } },
{ "type": "Feature", "properties": { "commune": "NULL", "date_suivi": "20/01/2026", "geniteur": "0", "espece": "Truite fario", "layer": "SNDP_TRF_GS_HEM_2026" }, "geometry": { "type": "Point", "coordinates": [ 2.025926501428572, 50.799655714285706 ] } },
{ "type": "Feature", "properties": { "commune": "NULL", "date_suivi": "20/01/2026", "geniteur": "1", "espece": "Truite fario", "layer": "SNDP_TRF_GS_HEM_2026" }, "geometry": { "type": "Point", "coordinates": [ 2.049245449, 50.809423066 ] } },
{ "type": "Feature", "properties": { "commune": "NULL", "date_suivi": "20/01/2026", "geniteur": "0", "espece": "Truite fario", "layer": "SNDP_TRF_GS_HEM_2026" }, "geometry": { "type": "Point", "coordinates": [ 2.049271093333333, 50.80941153666663 ] } },
{ "type": "Feature", "properties": { "commune": "NULL", "date_suivi": "20/01/2026", "geniteur": "0", "espece": "Truite fario", "layer": "SNDP_TRF_GS_HEM_2026" }, "geometry": { "type": "Point", "coordinates": [ 2.056724115, 50.810889517999968 ] } },
{ "type": "Feature", "properties": { "commune": "NULL", "date_suivi": "21/01/2026", "geniteur": "0", "espece": "Truite fario", "layer": "SNDP_TRF_GS_HEM_2026" }, "geometry": { "type": "Point", "coordinates": [ 2.059782688571429, 50.812255405714261 ] } },
{ "type": "Feature", "properties": { "commune": "NULL", "date_suivi": "21/01/2026", "geniteur": "0", "espece": "Truite fario", "layer": "SNDP_TRF_GS_HEM_2026" }, "geometry": { "type": "Point", "coordinates": [ 2.076848603750001, 50.81873287374998 ] } },
{ "type": "Feature", "properties": { "commune": "NULL", "date_suivi": "21/01/2026", "geniteur": "0", "espece": "Truite fario", "layer": "SNDP_TRF_GS_HEM_2026" }, "geometry": { "type": "Point", "coordinates": [ 2.079170278333333, 50.82132603 ] } },
{ "type": "Feature", "properties": { "commune": "NULL", "date_suivi": "21/01/2026", "geniteur": "0", "espece": "Truite fario", "layer": "SNDP_TRF_GS_HEM_2026" }, "geometry": { "type": "Point", "coordinates": [ 2.081340063749999, 50.821956812499998 ] } },
{ "type": "Feature", "properties": { "commune": "NULL", "date_suivi": "21/01/2026", "geniteur": "0", "espece": "Truite fario", "layer": "SNDP_TRF_GS_HEM_2026" }, "geometry": { "type": "Point", "coordinates": [ 2.08294660375, 50.822434854999983 ] } },
{ "type": "Feature", "properties": { "commune": "NULL", "date_suivi": "21/01/2026", "geniteur": "0", "espece": "Truite fario", "layer": "SNDP_TRF_GS_HEM_2026" }, "geometry": { "type": "Point", "coordinates": [ 2.088132916, 50.82471058399998 ] } },
{ "type": "Feature", "properties": { "commune": "NULL", "date_suivi": "21/01/2026", "geniteur": "0", "espece": "Truite fario", "layer": "SNDP_TRF_GS_HEM_2026" }, "geometry": { "type": "Point", "coordinates": [ 2.08579502125, 50.826192478749981 ] } },
{ "type": "Feature", "properties": { "commune": "NULL", "date_suivi": "21/01/2026", "geniteur": "0", "espece": "Truite fario", "layer": "SNDP_TRF_GS_HEM_2026" }, "geometry": { "type": "Point", "coordinates": [ 2.09081134375, 50.837102144999967 ] } },
{ "type": "Feature", "properties": { "commune": "NULL", "date_suivi": "21/01/2026", "geniteur": "0", "espece": "Truite fario", "layer": "SNDP_TRF_GS_HEM_2026" }, "geometry": { "type": "Point", "coordinates": [ 2.090820261428571, 50.837106308571414 ] } },
{ "type": "Feature", "properties": { "commune": "NULL", "date_suivi": "21/01/2026", "geniteur": "2", "espece": "Truite fario", "layer": "SNDP_TRF_GS_HEM_2026" }, "geometry": { "type": "Point", "coordinates": [ 2.096919907777778, 50.847721351111105 ] } },
{ "type": "Feature", "properties": { "commune": "NULL", "date_suivi": "21/01/2026", "geniteur": "0", "espece": "Truite fario", "layer": "SNDP_TRF_GS_HEM_2026" }, "geometry": { "type": "Point", "coordinates": [ 1.95378741875, 50.786532917499997 ] } },
{ "type": "Feature", "properties": { "commune": "NULL", "date_suivi": "21/01/2026", "geniteur": "0", "espece": "Truite fario", "layer": "SNDP_TRF_GS_HEM_2026" }, "geometry": { "type": "Point", "coordinates": [ 1.949128848, 50.788870267999982 ] } }
]
}
