{
"type": "FeatureCollection",
"name": "trame_bleu",
"crs": { "type": "name", "properties": { "name": "urn:ogc:def:crs:OGC:1.3:CRS84" } },
"features": [
{ "type": "Feature", "properties": { "ID_CEAU": "FR31HL137", "ID_SRCE": "FR31SRCE2014", "TYPE_CEAU": "01", "OBJ_ASSI": "02", "CLASSE1": "N", "CLASSE2": "N", "ID_MASSEDO": null, "ID_BVERSAN": "FRA_ESCA", "DELIMIT": "DG", "INTERREG": "F", "REG_RELIE": null, "INTERNAT": "F", "PAYS_RELIE": null, "EST_CORRID": "T", "EST_RESERV": "F" }, "geometry": { "type": "MultiLineString", "coordinates": [ [ [ 1.935110355288058, 50.784267057436224 ], [ 1.935766493729373, 50.783691773573224 ] ] ] } },
{ "type": "Feature", "properties": { "ID_CEAU": "FR31HL219", "ID_SRCE": "FR31SRCE2014", "TYPE_CEAU": "01", "OBJ_ASSI": "02", "CLASSE1": "N", "CLASSE2": "N", "ID_MASSEDO": null, "ID_BVERSAN": "FRA_ESCA", "DELIMIT": "DG", "INTERREG": "F", "REG_RELIE": null, "INTERNAT": "F", "PAYS_RELIE": null, "EST_CORRID": "T", "EST_RESERV": "F" }, "geometry": { "type": "MultiLineString", "coordinates": [ [ [ 1.930164697220744, 50.780558055095653 ], [ 1.931500778855378, 50.781009339292766 ], [ 1.932640765708896, 50.781244113198682 ], [ 1.93314581173377, 50.781508062530563 ], [ 1.932847280697627, 50.782178475026576 ] ] ] } },
{ "type": "Feature", "properties": { "ID_CEAU": "FR31HL359", "ID_SRCE": "FR31SRCE2014", "TYPE_CEAU": "01", "OBJ_ASSI": "02", "CLASSE1": "T", "CLASSE2": "N", "ID_MASSEDO": "FRAR26", "ID_BVERSAN": "FRA_ESCA", "DELIMIT": "DG", "INTERREG": "F", "REG_RELIE": null, "INTERNAT": "F", "PAYS_RELIE": null, "EST_CORRID": "F", "EST_RESERV": "T" }, "geometry": { "type": "MultiLineString", "coordinates": [ [ [ 2.084240247617442, 50.832141636039239 ], [ 2.085017587611006, 50.832187954171637 ], [ 2.085514257435101, 50.832277108809215 ], [ 2.085866164264998, 50.832548443414268 ], [ 2.086282999406998, 50.833174011260056 ] ] ] } },
{ "type": "Feature", "properties": { "ID_CEAU": "FR31HL361", "ID_SRCE": "FR31SRCE2014", "TYPE_CEAU": "01", "OBJ_ASSI": "02", "CLASSE1": "T", "CLASSE2": "N", "ID_MASSEDO": "FRAR26", "ID_BVERSAN": "FRA_ESCA", "DELIMIT": "DG", "INTERREG": "F", "REG_RELIE": null, "INTERNAT": "F", "PAYS_RELIE": null, "EST_CORRID": "F", "EST_RESERV": "T" }, "geometry": { "type": "MultiLineString", "coordinates": [ [ [ 1.945683184869946, 50.758425374274353 ], [ 1.946246966634421, 50.758560478395651 ], [ 1.947878211705742, 50.759686066718352 ], [ 1.948089659305294, 50.759935259532796 ] ], [ [ 1.944870717395178, 50.758400170030107 ], [ 1.945683184869946, 50.758425374274353 ] ], [ [ 1.940123037241945, 50.753644848816712 ], [ 1.94090899037964, 50.754274622594224 ], [ 1.941259372166218, 50.754631918491292 ], [ 1.94146745225774, 50.755037898340476 ], [ 1.94231047251909, 50.755780671441457 ], [ 1.941987467121135, 50.75640611887664 ], [ 1.942515715620586, 50.756702297421263 ], [ 1.943008277567878, 50.75701600096275 ], [ 1.943714173871115, 50.757107511067815 ], [ 1.94385220032021, 50.757565832969092 ], [ 1.9444850594107, 50.757925513994756 ], [ 1.944870717395178, 50.758400170030107 ] ] ] } },
{ "type": "Feature", "properties": { "ID_CEAU": "FR31HL425", "ID_SRCE": "FR31SRCE2014", "TYPE_CEAU": "01", "OBJ_ASSI": "02", "CLASSE1": "T", "CLASSE2": "N", "ID_MASSEDO": "FRAR26", "ID_BVERSAN": "FRA_ESCA", "DELIMIT": "DG", "INTERREG": "F", "REG_RELIE": null, "INTERNAT": "F", "PAYS_RELIE": null, "EST_CORRID": "F", "EST_RESERV": "T" }, "geometry": { "type": "MultiLineString", "coordinates": [ [ [ 1.94642040899709, 50.763591501373504 ], [ 1.946134467440312, 50.763906726729019 ], [ 1.946062684146743, 50.764265529996209 ], [ 1.946340366751913, 50.764801376819676 ], [ 1.946690455094494, 50.765253331332495 ], [ 1.946753784082676, 50.766135550531246 ], [ 1.947315616155793, 50.766519048890878 ], [ 1.947948035234021, 50.76705890645524 ], [ 1.948438964147094, 50.767686148063952 ], [ 1.948435033400179, 50.768179897751594 ], [ 1.948255495325837, 50.768472100069154 ], [ 1.948147021146109, 50.768897270253206 ], [ 1.948353582013384, 50.769534320894991 ], [ 1.948845310650565, 50.769896844327405 ], [ 1.949280478128842, 50.770390240482683 ], [ 1.948981880692886, 50.770656498903243 ], [ 1.948691051718863, 50.770880706923002 ] ] ] } },
{ "type": "Feature", "properties": { "ID_CEAU": "FR31HL426", "ID_SRCE": "FR31SRCE2014", "TYPE_CEAU": "01", "OBJ_ASSI": "02", "CLASSE1": "T", "CLASSE2": "N", "ID_MASSEDO": "FRAR26", "ID_BVERSAN": "FRA_ESCA", "DELIMIT": "DG", "INTERREG": "F", "REG_RELIE": null, "INTERNAT": "F", "PAYS_RELIE": null, "EST_CORRID": "F", "EST_RESERV": "T" }, "geometry": { "type": "MultiLineString", "coordinates": [ [ [ 1.948691051718863, 50.770880706923002 ], [ 1.94918807494442, 50.771465601890995 ], [ 1.94976466283068, 50.771915374577411 ], [ 1.949975076714515, 50.772141141137858 ], [ 1.950537786276721, 50.772410585281257 ] ] ] } },
{ "type": "Feature", "properties": { "ID_CEAU": "FR31HL434", "ID_SRCE": "FR31SRCE2014", "TYPE_CEAU": "01", "OBJ_ASSI": "02", "CLASSE1": "T", "CLASSE2": "N", "ID_MASSEDO": "FRAR26", "ID_BVERSAN": "FRA_ESCA", "DELIMIT": "DG", "INTERREG": "F", "REG_RELIE": null, "INTERNAT": "F", "PAYS_RELIE": null, "EST_CORRID": "F", "EST_RESERV": "T" }, "geometry": { "type": "MultiLineString", "coordinates": [ [ [ 1.948089659305294, 50.759935259532796 ], [ 1.948085543317327, 50.760360814948278 ], [ 1.947643838306424, 50.760985269289087 ], [ 1.947566324132463, 50.761846970332094 ], [ 1.947421728322185, 50.762159329962849 ], [ 1.946994229836864, 50.762563984610161 ], [ 1.946850250480807, 50.762922159327864 ], [ 1.946422884646771, 50.763321711395349 ], [ 1.94642040899709, 50.763591501373504 ] ] ] } },
{ "type": "Feature", "properties": { "ID_CEAU": "FR31HL442", "ID_SRCE": "FR31SRCE2014", "TYPE_CEAU": "01", "OBJ_ASSI": "02", "CLASSE1": "T", "CLASSE2": "N", "ID_MASSEDO": "FRAR26", "ID_BVERSAN": "FRA_ESCA", "DELIMIT": "DG", "INTERREG": "F", "REG_RELIE": null, "INTERNAT": "F", "PAYS_RELIE": null, "EST_CORRID": "F", "EST_RESERV": "T" }, "geometry": { "type": "MultiLineString", "coordinates": [ [ [ 1.950537786276721, 50.772410585281257 ], [ 1.950888235289105, 50.772772939442433 ], [ 1.951063845877832, 50.772973975201189 ], [ 1.951308975860158, 50.773229549147395 ], [ 1.951800652082433, 50.773749354889894 ], [ 1.951444315591614, 50.774127628503827 ], [ 1.950660045239394, 50.774213451946864 ] ] ] } },
{ "type": "Feature", "properties": { "ID_CEAU": "FR31HL443", "ID_SRCE": "FR31SRCE2014", "TYPE_CEAU": "01", "OBJ_ASSI": "02", "CLASSE1": "T", "CLASSE2": "N", "ID_MASSEDO": "FRAR26", "ID_BVERSAN": "FRA_ESCA", "DELIMIT": "DG", "INTERREG": "F", "REG_RELIE": null, "INTERNAT": "F", "PAYS_RELIE": null, "EST_CORRID": "F", "EST_RESERV": "T" }, "geometry": { "type": "MultiLineString", "coordinates": [ [ [ 1.950660045239394, 50.774213451946864 ], [ 1.951437957012109, 50.774890136182989 ], [ 1.952139577365906, 50.775430551487311 ], [ 1.952562417681187, 50.775788407370008 ], [ 1.952770698629575, 50.776193337887698 ], [ 1.953121868546298, 50.776600467657076 ], [ 1.954106381804402, 50.77728171831351 ], [ 1.954667627034042, 50.77778021038791 ], [ 1.955017455887275, 50.778406229767867 ], [ 1.95586259786816, 50.778767615281694 ], [ 1.956426734101462, 50.779127643395803 ], [ 1.956929968836647, 50.779714218388207 ], [ 1.95791630251886, 50.780391366322391 ], [ 1.958622066271285, 50.780661975832615 ], [ 1.959328255010414, 50.780641411433898 ], [ 1.960003247480222, 50.780305986798616 ], [ 1.960814439216992, 50.780487862361944 ], [ 1.961592986393291, 50.780578872410501 ], [ 1.962086135026213, 50.780726524938721 ], [ 1.962863650024725, 50.780906087375236 ], [ 1.9652091134584, 50.781138208607985 ] ] ] } },
{ "type": "Feature", "properties": { "ID_CEAU": "FR31HL501", "ID_SRCE": "FR31SRCE2014", "TYPE_CEAU": "01", "OBJ_ASSI": "02", "CLASSE1": "T", "CLASSE2": "N", "ID_MASSEDO": "FRAR26", "ID_BVERSAN": "FRA_ESCA", "DELIMIT": "DG", "INTERREG": "F", "REG_RELIE": null, "INTERNAT": "F", "PAYS_RELIE": null, "EST_CORRID": "F", "EST_RESERV": "T" }, "geometry": { "type": "MultiLineString", "coordinates": [ [ [ 1.935803722589954, 50.742877378929151 ], [ 1.937734644453306, 50.742981744209487 ], [ 1.938579661054666, 50.743164082944638 ], [ 1.939155849224282, 50.743612921128985 ], [ 1.939435132056927, 50.744064313237928 ], [ 1.939574478303078, 50.744379091736377 ], [ 1.939642285612341, 50.744739077002144 ], [ 1.940133483659081, 50.745187166167213 ], [ 1.940124305031921, 50.746227655199263 ], [ 1.941953955414162, 50.747356053922736 ], [ 1.942654788818829, 50.747986145801036 ], [ 1.943005779032974, 50.748388235399851 ], [ 1.943356294613579, 50.748660006355387 ], [ 1.943495931182119, 50.74892590456826 ], [ 1.942997782719558, 50.749451114500573 ], [ 1.942427456658525, 50.750011334364814 ], [ 1.941998613122437, 50.750635883098823 ], [ 1.941573376854525, 50.750861358562283 ], [ 1.941498380668747, 50.751220120109245 ], [ 1.941033305972325, 50.75200115454075 ], [ 1.94078154527065, 50.75256001750774 ], [ 1.940705840279083, 50.753142254463008 ], [ 1.940123037241945, 50.753644848816712 ] ] ] } },
{ "type": "Feature", "properties": { "ID_CEAU": "FR31HL520", "ID_SRCE": "FR31SRCE2014", "TYPE_CEAU": "01", "OBJ_ASSI": "02", "CLASSE1": "T", "CLASSE2": "T", "ID_MASSEDO": "FRAR26", "ID_BVERSAN": "FRA_ESCA", "DELIMIT": "DG", "INTERREG": "F", "REG_RELIE": null, "INTERNAT": "F", "PAYS_RELIE": null, "EST_CORRID": "F", "EST_RESERV": "T" }, "geometry": { "type": "MultiLineString", "coordinates": [ [ [ 2.095160007351403, 50.84626758284751 ], [ 2.095723085333936, 50.846684965581822 ], [ 2.09693562662728, 50.848030001606894 ], [ 2.097286645317439, 50.848615782001154 ], [ 2.097639683554282, 50.84883863117949 ], [ 2.098346365447445, 50.849085299917988 ], [ 2.098625944814622, 50.849872528693226 ], [ 2.098906946443636, 50.850331870427183 ], [ 2.099471496940802, 50.850690269083444 ], [ 2.100462252102834, 50.851141893873447 ], [ 2.101098229122502, 50.851635275559758 ], [ 2.102155081332751, 50.852396360220453 ], [ 2.102861111261608, 50.85285018955895 ], [ 2.103425320918121, 50.853567681169999 ], [ 2.103649339834508, 50.854013254110122 ], [ 2.103715996103474, 50.854874977259932 ], [ 2.104068129697371, 50.855237059619526 ], [ 2.104704383881434, 50.855595497583316 ], [ 2.105197959864949, 50.856177485407486 ], [ 2.105583273990938, 50.857086566561961 ], [ 2.106040825705392, 50.85774912910238 ], [ 2.107169859248143, 50.85856934708918 ], [ 2.107381234825204, 50.858884629695552 ], [ 2.107419195839275, 50.859352010865827 ], [ 2.108079268656359, 50.860087554968132 ], [ 2.108505767785224, 50.860678105835454 ], [ 2.108859299473544, 50.861259573599469 ], [ 2.109279791337293, 50.861764710220584 ], [ 2.109276787029262, 50.862527209299884 ], [ 2.10906310048453, 50.862974435401924 ], [ 2.109061328479193, 50.8632433594166 ], [ 2.10905468107275, 50.864544233629907 ], [ 2.108838394284604, 50.865306155329733 ], [ 2.10890800950228, 50.86562904088828 ], [ 2.109682985000325, 50.866751401199672 ], [ 2.111875754421984, 50.870530485517399 ], [ 2.112789735876478, 50.872237523344083 ], [ 2.113420543562497, 50.873681645192939 ], [ 2.113841879637135, 50.874487689211804 ], [ 2.114332976025132, 50.875652807539737 ], [ 2.115809101477722, 50.878354692637998 ], [ 2.116230379553379, 50.87925515694225 ], [ 2.117775057997043, 50.882271245658778 ], [ 2.117984718088487, 50.883075767568613 ], [ 2.117982842193848, 50.883524491274443 ], [ 2.118262493777218, 50.884378599976408 ], [ 2.118621653528457, 50.886538928907342 ], [ 2.118714652626933, 50.886777919110145 ] ], [ [ 2.086282999406998, 50.833174011260056 ], [ 2.086923165641608, 50.833627907670007 ], [ 2.087698924576421, 50.834033699775915 ], [ 2.088050758528829, 50.834480260977578 ], [ 2.08932098772055, 50.835525844407719 ], [ 2.090109843733733, 50.836334704980906 ], [ 2.090390139442544, 50.836780725670778 ], [ 2.090885941637977, 50.83709767418695 ], [ 2.09116492569705, 50.837454996084595 ], [ 2.091659118006327, 50.837862033947815 ], [ 2.092083320625072, 50.838264274868138 ], [ 2.092077439919707, 50.839170832067445 ], [ 2.092853816796503, 50.839799767298274 ], [ 2.0937693191062, 50.840855835598759 ], [ 2.093414631786989, 50.841145355230218 ], [ 2.093057931809553, 50.841501373387452 ], [ 2.09263127336337, 50.841727178832535 ], [ 2.092134401014395, 50.842086959697745 ], [ 2.091990974395171, 50.842354871510501 ], [ 2.091988827275042, 50.842723038232847 ], [ 2.092412244886996, 50.843170091582138 ], [ 2.093186606364962, 50.844247771623415 ], [ 2.09353663486155, 50.844968026732552 ], [ 2.093604266424375, 50.845681952908379 ], [ 2.093849721702825, 50.846020184878078 ], [ 2.095160007351403, 50.84626758284751 ] ], [ [ 2.084240247617442, 50.832141636039239 ], [ 2.086282999406998, 50.833174011260056 ] ], [ [ 2.081909604584275, 50.82682455458869 ], [ 2.081561761060013, 50.826919046795808 ], [ 2.081136918220226, 50.827049948954979 ], [ 2.080603411502301, 50.827440414701485 ], [ 2.080566180415133, 50.82791129910968 ], [ 2.080067934905395, 50.82826674389635 ], [ 2.079994413494696, 50.828579987305254 ], [ 2.080206867766845, 50.828940684914997 ], [ 2.080911356604087, 50.829613999918784 ], [ 2.08225194156432, 50.830382151744054 ], [ 2.08274591059408, 50.830875559806486 ], [ 2.083888513830331, 50.831601238454802 ], [ 2.084240247617442, 50.832141636039239 ] ], [ [ 2.076016878962773, 50.817830907382785 ], [ 2.077711998620993, 50.819192396955003 ], [ 2.0781325453928, 50.819576091288241 ], [ 2.078518533325208, 50.820242799524408 ], [ 2.079184459362875, 50.8211629080376 ], [ 2.081304739501951, 50.821932563923191 ], [ 2.083826822148346, 50.822720593884299 ], [ 2.085558593142981, 50.823250984882911 ], [ 2.086335970462134, 50.823476539947926 ], [ 2.08739646212017, 50.823744711802675 ], [ 2.088032047491031, 50.824150666295765 ], [ 2.088030886072354, 50.824462813294737 ], [ 2.087177408308115, 50.825268242593992 ], [ 2.086040066117372, 50.826031536311412 ], [ 2.085755920876825, 50.826254551078037 ], [ 2.085117643857906, 50.826611866968534 ], [ 2.084550570315939, 50.826698310818394 ], [ 2.082411991373493, 50.826830415802419 ], [ 2.081909604584275, 50.82682455458869 ] ], [ [ 2.064208547701502, 50.816953764722591 ], [ 2.065232000260955, 50.817537561921306 ], [ 2.065726935925235, 50.817720580991924 ], [ 2.066859248920556, 50.817719992316555 ], [ 2.067778954375974, 50.817812248213258 ], [ 2.068344436156234, 50.817726827266192 ], [ 2.068911331299231, 50.817726788115884 ], [ 2.070340255274195, 50.818086999156094 ], [ 2.070904819863395, 50.818131758001101 ], [ 2.071615455367871, 50.817688267714701 ], [ 2.072500599401091, 50.817576118165235 ], [ 2.073243688198037, 50.81773710755408 ], [ 2.073667625888551, 50.817690190094957 ], [ 2.074093097036898, 50.817603702498275 ], [ 2.074658219131477, 50.817738097490533 ] ], [ [ 2.074658219131477, 50.817738097490533 ], [ 2.076016878962773, 50.817830907382785 ] ], [ [ 2.062970727151936, 50.816883416638767 ], [ 2.064208547701502, 50.816953764722591 ] ], [ [ 2.031467310408163, 50.800712033884743 ], [ 2.031713646913552, 50.801050162998912 ], [ 2.033338162059433, 50.801377089002081 ], [ 2.03361876393481, 50.801733617282906 ], [ 2.033829550457323, 50.802004227054688 ], [ 2.035031650340139, 50.802188580592819 ], [ 2.037587236499138, 50.802867936900846 ], [ 2.038084824791624, 50.802822157600637 ], [ 2.038792787072572, 50.802599206917719 ], [ 2.039287697867084, 50.80269267534711 ], [ 2.039853156123313, 50.802916897293656 ], [ 2.040204682697212, 50.803188579915769 ], [ 2.040450233634127, 50.803589427741464 ], [ 2.041085077776264, 50.803903834301522 ], [ 2.04118721276959, 50.80430880590724 ], [ 2.041610633213232, 50.804716034398155 ], [ 2.041751392965535, 50.804990365819265 ], [ 2.042103792906762, 50.805217723726685 ], [ 2.043177893718914, 50.805490673987308 ], [ 2.043529326302549, 50.805847720845115 ], [ 2.044021283601311, 50.806255904606964 ], [ 2.044657207691937, 50.806614681357509 ], [ 2.045787867159008, 50.806883245920588 ], [ 2.046494327484996, 50.806978314452607 ], [ 2.047201785286365, 50.806979450447145 ], [ 2.04861522772643, 50.807340312182866 ], [ 2.048897781856069, 50.807521780527004 ], [ 2.049036120358526, 50.807926804921443 ], [ 2.049544439022244, 50.808150992875809 ], [ 2.051380138845587, 50.808791677021787 ], [ 2.052158061997627, 50.809287387748618 ], [ 2.05265055907211, 50.809555818576463 ], [ 2.055052334688697, 50.810278470121432 ], [ 2.058811608042413, 50.811230234403752 ], [ 2.059093450126734, 50.811452671081469 ], [ 2.059232556609036, 50.811902501775592 ], [ 2.059408740732935, 50.812159460089518 ], [ 2.059868734141139, 50.81201509966801 ], [ 2.060221605853054, 50.812385451857203 ], [ 2.060287849608715, 50.812946803452576 ], [ 2.060732800865959, 50.81366363428014 ], [ 2.061339264326887, 50.814762713172129 ], [ 2.061899292424448, 50.816049820690459 ], [ 2.062392007344406, 50.816591964659295 ], [ 2.062970727151936, 50.816883416638767 ] ], [ [ 2.030583507455486, 50.800687022952403 ], [ 2.031467310408163, 50.800712033884743 ] ], [ [ 2.022490852775199, 50.800309992653879 ], [ 2.023212291083618, 50.800400526780997 ], [ 2.023427337024487, 50.800178062354064 ], [ 2.023710119336557, 50.799996178407532 ], [ 2.024276102760123, 50.799955776020418 ], [ 2.0247005447701, 50.799954823848445 ], [ 2.025267635787368, 50.799780396141102 ], [ 2.025761951101059, 50.799823853843719 ], [ 2.027034434298664, 50.800139038790618 ], [ 2.028589300260787, 50.800371035819282 ], [ 2.029593752622143, 50.800459453734675 ], [ 2.030583507455486, 50.800687022952403 ] ], [ [ 2.021606310519052, 50.800284917144715 ], [ 2.022490852775199, 50.800309992653879 ] ], [ [ 2.011604949921292, 50.796684340714684 ], [ 2.01210028362599, 50.796618152372467 ], [ 2.012485411002281, 50.797045678112347 ], [ 2.013298694683891, 50.797227161755586 ], [ 2.014076924353613, 50.797183700531484 ], [ 2.015636014513824, 50.796962815953755 ], [ 2.016129570424207, 50.796966714638806 ], [ 2.017275295605421, 50.797101174897094 ], [ 2.017557668232936, 50.797283227609789 ], [ 2.017767340239251, 50.797643520946714 ], [ 2.017974859775952, 50.798457375322592 ], [ 2.018395076973582, 50.799133629870333 ], [ 2.018887985309019, 50.799402213742397 ], [ 2.02079585745618, 50.799856953078027 ], [ 2.021606310519052, 50.800284917144715 ] ], [ [ 2.01057871366427, 50.796635643820167 ], [ 2.011604949921292, 50.796684340714684 ] ], [ [ 2.010509666731238, 50.796321259813247 ], [ 2.01057871366427, 50.796635643820167 ] ], [ [ 2.007562652590377, 50.795912462511836 ], [ 2.007843684454431, 50.796160812664851 ], [ 2.008729216707653, 50.796093688447229 ], [ 2.009329512704274, 50.796141152110117 ], [ 2.009610430548493, 50.796484549151074 ], [ 2.010120737073506, 50.796277650142478 ] ], [ [ 2.004909432822907, 50.795847918621952 ], [ 2.005049010590485, 50.796151871774988 ], [ 2.005651739231878, 50.796040775986462 ], [ 2.00570051804969, 50.795756288555182 ], [ 2.00607591749492, 50.795863885835566 ], [ 2.006320917261081, 50.796333007277873 ], [ 2.006747432855435, 50.796246495333762 ], [ 2.00710284852904, 50.795932650813043 ] ], [ [ 2.010120737073506, 50.796277650142478 ], [ 2.010509666731238, 50.796321259813247 ] ], [ [ 2.00710284852904, 50.795932650813043 ], [ 2.007562652590377, 50.795912462511836 ] ], [ [ 2.00452155934525, 50.795770883792017 ], [ 2.004909432822907, 50.795847918621952 ] ], [ [ 1.985595697641102, 50.789803903525012 ], [ 1.987542792263187, 50.789514491440599 ], [ 1.98874428179643, 50.789744120885636 ], [ 1.989661114636011, 50.79006109403155 ], [ 1.99008488866322, 50.790239572868209 ], [ 1.99101814813285, 50.790377341076258 ], [ 1.991109766911355, 50.790647064729981 ], [ 1.991155475481922, 50.790917375598475 ], [ 1.991932207051963, 50.791169293341035 ], [ 1.992706928213318, 50.7915566495966 ], [ 1.993311505033516, 50.791557700011701 ], [ 1.994023560995889, 50.791489757911535 ], [ 1.994447737471303, 50.791593826228059 ], [ 1.994827767960163, 50.791834649646063 ], [ 1.99532167620201, 50.791968839005428 ], [ 1.99595840485598, 50.791924359850142 ], [ 1.996595740348774, 50.791925209677103 ], [ 1.99692721830032, 50.792017542830074 ], [ 1.996786086729751, 50.792300666284838 ], [ 1.997313357351852, 50.792424622965555 ], [ 1.997487097516888, 50.792914874937097 ], [ 1.998225181345501, 50.793409655729988 ], [ 1.999495872149594, 50.79390922586277 ], [ 1.999990622316902, 50.794043402782378 ], [ 2.000556465552857, 50.794043157670842 ], [ 2.001052574451902, 50.793957483590219 ], [ 2.001762464767927, 50.793734234873249 ], [ 2.002114532084358, 50.793871096755595 ], [ 2.002501975720193, 50.794139822116733 ], [ 2.002711150357719, 50.794594354309687 ], [ 2.003889659933552, 50.79500322181881 ], [ 2.004205750248468, 50.795341748362937 ], [ 2.004168086258964, 50.795723232360238 ], [ 2.00452155934525, 50.795770883792017 ] ], [ [ 1.985064751345537, 50.789866819125393 ], [ 1.985595697641102, 50.789803903525012 ] ], [ [ 1.980886861601972, 50.78760418346554 ], [ 1.981526928107211, 50.78797597160699 ], [ 1.981842744052283, 50.788355333849395 ], [ 1.982016413305353, 50.788917637913293 ], [ 1.982297135879212, 50.789099250175553 ], [ 1.983072203223287, 50.789280623029406 ], [ 1.984148254050581, 50.789460160434722 ], [ 1.985064751345537, 50.789866819125393 ] ], [ [ 1.9652091134584, 50.781138208607985 ], [ 1.966622267471885, 50.781365838958337 ], [ 1.96739775000508, 50.781592144097623 ], [ 1.968385031174504, 50.782089184912031 ], [ 1.96909238311043, 50.782225259437638 ], [ 1.969514628460771, 50.782363236762443 ], [ 1.970164419256163, 50.782409163538361 ], [ 1.970692950119331, 50.782700656744119 ], [ 1.970867678545981, 50.783038327667747 ], [ 1.97192628103101, 50.783401435437654 ], [ 1.972559538153103, 50.783851191421583 ], [ 1.973052794120981, 50.78408369252729 ], [ 1.973547619430803, 50.78413216037184 ], [ 1.974041676538858, 50.784289305391624 ], [ 1.974356418371141, 50.784828229943393 ], [ 1.974991238590728, 50.785055465250551 ], [ 1.975165480404443, 50.7854384675869 ], [ 1.975304495818473, 50.785704310125297 ], [ 1.975727953634037, 50.785819871577324 ], [ 1.976082037028961, 50.78579558312309 ], [ 1.976150851025948, 50.786110470827467 ], [ 1.976643648736693, 50.786293839992034 ], [ 1.977116377938225, 50.786540007775216 ], [ 1.978071207446906, 50.786610810818779 ], [ 1.978705403121367, 50.78683588338189 ], [ 1.979128696270089, 50.787108336975109 ], [ 1.979196014774746, 50.787423209937089 ], [ 1.979549510648937, 50.787466147624343 ], [ 1.97990444420021, 50.787289736014607 ], [ 1.979939007924463, 50.787514170198676 ], [ 1.979936864875834, 50.7877674167704 ], [ 1.980469137355681, 50.787603894429559 ] ], [ [ 1.980469137355681, 50.787603894429559 ], [ 1.980886861601972, 50.78760418346554 ] ] ] } },
{ "type": "Feature", "properties": { "ID_CEAU": "FR31HL577", "ID_SRCE": "FR31SRCE2014", "TYPE_CEAU": "01", "OBJ_ASSI": "02", "CLASSE1": "T", "CLASSE2": "N", "ID_MASSEDO": "FRAR26", "ID_BVERSAN": "FRA_ESCA", "DELIMIT": "DG", "INTERREG": "F", "REG_RELIE": null, "INTERNAT": "F", "PAYS_RELIE": null, "EST_CORRID": "T", "EST_RESERV": "F" }, "geometry": { "type": "MultiLineString", "coordinates": [ [ [ 1.942524628917992, 50.788651875246316 ], [ 1.942670728075431, 50.788835479467473 ], [ 1.943412815147351, 50.788949432766131 ], [ 1.944011509395379, 50.789242567918869 ], [ 1.94492822973042, 50.789747990267458 ], [ 1.945563068813957, 50.789838869673346 ], [ 1.946074902666561, 50.789615553998821 ], [ 1.947279273919774, 50.789342303756179 ], [ 1.947847620262401, 50.789029582055548 ], [ 1.948343910980761, 50.788942751059892 ], [ 1.949617290674004, 50.788900753316859 ], [ 1.950326480431381, 50.788635187642086 ], [ 1.95138817106439, 50.788547061117583 ], [ 1.951744050658303, 50.788325364622253 ], [ 1.951830641605741, 50.788056657654515 ], [ 1.952188058265451, 50.787563214028182 ], [ 1.953538546972546, 50.786716650512766 ], [ 1.954179883608779, 50.786135112696904 ], [ 1.954536074340278, 50.785777729848498 ], [ 1.955011125155515, 50.785359732388592 ], [ 1.954896949022288, 50.784873996460661 ], [ 1.954970009189058, 50.784605270820578 ], [ 1.955254473069722, 50.784425409631126 ], [ 1.955820162596916, 50.784360114794524 ], [ 1.955892839485342, 50.784157357974024 ], [ 1.955753530051657, 50.783889944007029 ], [ 1.955898822726521, 50.783352412966636 ], [ 1.956183932649247, 50.783127188152719 ], [ 1.956537650336166, 50.782995191091253 ], [ 1.958285040396639, 50.783045273883268 ], [ 1.959029020952008, 50.782868373339639 ], [ 1.959736028221985, 50.782914213037877 ], [ 1.961786935959974, 50.78292194499403 ], [ 1.963589872625196, 50.782993742137769 ], [ 1.96427750629252, 50.782794502633038 ], [ 1.964917868954178, 50.782325074532103 ], [ 1.965066253031341, 50.781361873687757 ], [ 1.9652091134584, 50.781138208607985 ] ], [ [ 1.923295537623722, 50.782883374728783 ], [ 1.923928880602161, 50.783292974240865 ], [ 1.924846249928283, 50.783520271725095 ], [ 1.925412079557081, 50.783568560430432 ], [ 1.926169093267292, 50.783524958107556 ], [ 1.926698653181802, 50.783617136216833 ], [ 1.927193097892332, 50.783707307833332 ], [ 1.927832363015846, 50.783441952633339 ], [ 1.92833030260087, 50.783084027871652 ], [ 1.928615235595607, 50.782771154554602 ], [ 1.92890040876965, 50.782549087707594 ], [ 1.929325270604477, 50.78245080094446 ], [ 1.929891817266107, 50.782451655835054 ], [ 1.931163658854916, 50.78255550866524 ], [ 1.932449469750313, 50.782738113535252 ], [ 1.93378950157312, 50.783147858084583 ], [ 1.934353129903593, 50.783507576485867 ], [ 1.935114894402356, 50.784268694731622 ] ], [ [ 1.922270906539118, 50.782786448670365 ], [ 1.923295537623722, 50.782883374728783 ] ], [ [ 1.91912412364558, 50.781786880462697 ], [ 1.920190818828282, 50.782062116109174 ], [ 1.920896224503139, 50.782198160211138 ], [ 1.921742967316058, 50.78242536517871 ], [ 1.922270906539118, 50.782786448670365 ] ] ] } },
{ "type": "Feature", "properties": { "ID_CEAU": "FR31HL578", "ID_SRCE": "FR31SRCE2014", "TYPE_CEAU": "01", "OBJ_ASSI": "02", "CLASSE1": "T", "CLASSE2": "N", "ID_MASSEDO": null, "ID_BVERSAN": "FRA_ESCA", "DELIMIT": "DG", "INTERREG": "F", "REG_RELIE": null, "INTERNAT": "F", "PAYS_RELIE": null, "EST_CORRID": "T", "EST_RESERV": "F" }, "geometry": { "type": "MultiLineString", "coordinates": [ [ [ 1.887497536049136, 50.783829602862241 ], [ 1.88876692184282, 50.784238894525728 ], [ 1.890109764246725, 50.784377944601701 ], [ 1.892650799350522, 50.784978644826076 ], [ 1.893498686991161, 50.785116572764856 ], [ 1.894499728475922, 50.785479233627086 ], [ 1.895064893923633, 50.785570491838634 ], [ 1.895345635338485, 50.78579603515832 ], [ 1.895912102201435, 50.785752701411099 ], [ 1.89633708634906, 50.785755375221513 ], [ 1.897188145315737, 50.78535492072384 ], [ 1.897544309215348, 50.785130268049059 ], [ 1.89811002205252, 50.785133816249925 ], [ 1.899028699411117, 50.785272149183122 ], [ 1.899452483826024, 50.785272250946477 ], [ 1.899949469919089, 50.785093857548311 ], [ 1.90074523000639, 50.784695065807803 ], [ 1.901312986534802, 50.784516598224116 ], [ 1.901878196216112, 50.784473217941525 ], [ 1.902585848041603, 50.78447509095119 ], [ 1.903080200984842, 50.784567912877314 ], [ 1.903821833413315, 50.784726967009945 ], [ 1.904495828910208, 50.784527775979726 ], [ 1.905415826741712, 50.78439634503421 ], [ 1.906268730500684, 50.783950974639055 ], [ 1.90777156227739, 50.783587683136702 ], [ 1.908479629335099, 50.783457468964777 ], [ 1.908977244084271, 50.783234218932208 ], [ 1.909684773951654, 50.783191173208756 ], [ 1.910815877122877, 50.783240988013333 ], [ 1.912304085267157, 50.782841762287511 ], [ 1.913663175797212, 50.782802703257452 ], [ 1.914514160735841, 50.782581049229215 ], [ 1.915222793778369, 50.78235957733574 ], [ 1.915646995263256, 50.782359634216313 ], [ 1.917201852366361, 50.78254398954968 ], [ 1.917838542151331, 50.782503016275285 ], [ 1.918263994898487, 50.782368465440342 ], [ 1.91912412364558, 50.781786880462697 ] ] ] } },
{ "type": "Feature", "properties": { "ID_CEAU": "FR31HL579", "ID_SRCE": "FR31SRCE2014", "TYPE_CEAU": "01", "OBJ_ASSI": "02", "CLASSE1": "T", "CLASSE2": "N", "ID_MASSEDO": null, "ID_BVERSAN": "FRA_ESCA", "DELIMIT": "DG", "INTERREG": "F", "REG_RELIE": null, "INTERNAT": "F", "PAYS_RELIE": null, "EST_CORRID": "T", "EST_RESERV": "F" }, "geometry": { "type": "MultiLineString", "coordinates": [ [ [ 1.935766195294882, 50.783690895087368 ], [ 1.937462780954335, 50.783785594223808 ], [ 1.938746893408393, 50.784194950217874 ], [ 1.93941805529603, 50.784286130926702 ], [ 1.941002393914124, 50.785277929024218 ], [ 1.941213015778784, 50.785502959369879 ], [ 1.94131124334874, 50.786408624732587 ], [ 1.941979542937965, 50.786860471677933 ], [ 1.942118275557113, 50.787217638405274 ], [ 1.942327433167898, 50.787555070383704 ], [ 1.94289054684045, 50.787915024284437 ], [ 1.942605307337874, 50.788252370915252 ], [ 1.942524628917992, 50.788651875246316 ] ] ] } },
{ "type": "Feature", "properties": { "ID_CEAU": "FR31HL623", "ID_SRCE": "FR31SRCE2014", "TYPE_CEAU": "01", "OBJ_ASSI": "02", "CLASSE1": "T", "CLASSE2": "N", "ID_MASSEDO": "FRAR26", "ID_BVERSAN": "FRA_ESCA", "DELIMIT": "DG", "INTERREG": "F", "REG_RELIE": null, "INTERNAT": "F", "PAYS_RELIE": null, "EST_CORRID": "T", "EST_RESERV": "F" }, "geometry": { "type": "MultiLineString", "coordinates": [ [ [ 2.095160007351403, 50.84626758284751 ], [ 2.096876189027764, 50.845532911684103 ], [ 2.098572766442448, 50.846140242734748 ], [ 2.099704445084482, 50.846421128028538 ], [ 2.099986921681271, 50.846646756599974 ], [ 2.100127766000088, 50.847004236381011 ], [ 2.10026616077035, 50.847430801100856 ], [ 2.100690357630076, 50.847724600135237 ], [ 2.104735013790286, 50.849122076352657 ], [ 2.105229197954119, 50.849390926505777 ], [ 2.10572612240265, 50.849348324098322 ], [ 2.107283883832666, 50.849171384762855 ], [ 2.10785105072129, 50.849216284934876 ], [ 2.108416844181354, 50.849351404769017 ], [ 2.110973909926977, 50.850620467109508 ], [ 2.113188690348245, 50.851545488406934 ], [ 2.114438962871128, 50.852062410055751 ], [ 2.117211431847132, 50.852964868259512 ], [ 2.118837306244144, 50.85369382792738 ], [ 2.119402353751534, 50.854008359360151 ], [ 2.119897364043021, 50.854142548576576 ], [ 2.120464685529753, 50.854145068955901 ], [ 2.121314842200662, 50.854057638633073 ], [ 2.123455759943119, 50.853611338417807 ], [ 2.124590343099567, 50.85329123441921 ], [ 2.126078388356468, 50.853158612991592 ], [ 2.127211331581226, 50.853206413781379 ], [ 2.128413950485609, 50.853439926171248 ], [ 2.129631589550998, 50.853757263351177 ], [ 2.13207336545016, 50.854142060360807 ], [ 2.132958943834121, 50.854300329389559 ], [ 2.134089863058683, 50.85461519930729 ], [ 2.135023434069208, 50.855065284902466 ], [ 2.135587716503035, 50.85565034053176 ], [ 2.136294477803196, 50.856055125752782 ], [ 2.136697881845979, 50.856161014862508 ], [ 2.137850921188325, 50.856460964900883 ], [ 2.139054390889061, 50.856775541482691 ], [ 2.139406342510537, 50.857189333362122 ], [ 2.140251101524033, 50.858670751354452 ], [ 2.140882519856493, 50.860106390020647 ], [ 2.141169462168315, 50.86058164470785 ], [ 2.143013974958653, 50.862225805783368 ], [ 2.143508837477371, 50.862539360492981 ], [ 2.144145138996552, 50.862765813948585 ], [ 2.145986408421519, 50.863036183374625 ], [ 2.146834315751417, 50.863577054365692 ], [ 2.14771796003159, 50.863625746344759 ] ] ] } },
{ "type": "Feature", "properties": { "ID_CEAU": "FR31HL678", "ID_SRCE": "FR31SRCE2014", "TYPE_CEAU": "01", "OBJ_ASSI": "02", "CLASSE1": "T", "CLASSE2": "N", "ID_MASSEDO": "FRAR26", "ID_BVERSAN": "FRA_ESCA", "DELIMIT": "DG", "INTERREG": "F", "REG_RELIE": null, "INTERNAT": "F", "PAYS_RELIE": null, "EST_CORRID": "T", "EST_RESERV": "F" }, "geometry": { "type": "MultiLineString", "coordinates": [ [ [ 1.932030419450157, 50.740439679117934 ], [ 1.932382302083994, 50.740489521708589 ], [ 1.934417865962483, 50.742252880009403 ], [ 1.935262877706039, 50.742704549760163 ], [ 1.935803722589954, 50.742877378929151 ] ] ] } },
{ "type": "Feature", "properties": { "ID_CEAU": "FR31HL1062", "ID_SRCE": "FR31SRCE2014", "TYPE_CEAU": "01", "OBJ_ASSI": "02", "CLASSE1": "T", "CLASSE2": "N", "ID_MASSEDO": null, "ID_BVERSAN": "FRA_ESCA", "DELIMIT": "DG", "INTERREG": "F", "REG_RELIE": null, "INTERNAT": "F", "PAYS_RELIE": null, "EST_CORRID": "T", "EST_RESERV": "F" }, "geometry": { "type": "MultiLineString", "coordinates": [ [ [ 1.975986175487942, 50.759594662745606 ], [ 1.975629449467929, 50.759929191643749 ] ] ] } },
{ "type": "Feature", "properties": { "ID_CEAU": "FR31HL1063", "ID_SRCE": "FR31SRCE2014", "TYPE_CEAU": "01", "OBJ_ASSI": "02", "CLASSE1": "T", "CLASSE2": "N", "ID_MASSEDO": null, "ID_BVERSAN": "FRA_ESCA", "DELIMIT": "DG", "INTERREG": "F", "REG_RELIE": null, "INTERNAT": "F", "PAYS_RELIE": null, "EST_CORRID": "T", "EST_RESERV": "F" }, "geometry": { "type": "MultiLineString", "coordinates": [ [ [ 1.975629449467929, 50.759929191643749 ], [ 1.975981919370842, 50.760807335147923 ], [ 1.976046882983217, 50.761568101291061 ], [ 1.976182885739832, 50.762241660106959 ], [ 1.976035243774768, 50.762553488886653 ] ] ] } },
{ "type": "Feature", "properties": { "ID_CEAU": "FR31HL1064", "ID_SRCE": "FR31SRCE2014", "TYPE_CEAU": "01", "OBJ_ASSI": "02", "CLASSE1": "T", "CLASSE2": "N", "ID_MASSEDO": null, "ID_BVERSAN": "FRA_ESCA", "DELIMIT": "DG", "INTERREG": "F", "REG_RELIE": null, "INTERNAT": "F", "PAYS_RELIE": null, "EST_CORRID": "T", "EST_RESERV": "F" }, "geometry": { "type": "MultiLineString", "coordinates": [ [ [ 1.976035243774768, 50.762553488886653 ], [ 1.975395137049331, 50.763630254030382 ], [ 1.975393074159688, 50.763953039547197 ], [ 1.975816216533848, 50.76413264283719 ], [ 1.976516478739873, 50.764403369099426 ] ] ] } },
{ "type": "Feature", "properties": { "ID_CEAU": "FR31HL1065", "ID_SRCE": "FR31SRCE2014", "TYPE_CEAU": "01", "OBJ_ASSI": "02", "CLASSE1": "T", "CLASSE2": "N", "ID_MASSEDO": null, "ID_BVERSAN": "FRA_ESCA", "DELIMIT": "DG", "INTERREG": "F", "REG_RELIE": null, "INTERNAT": "F", "PAYS_RELIE": null, "EST_CORRID": "T", "EST_RESERV": "F" }, "geometry": { "type": "MultiLineString", "coordinates": [ [ [ 1.976516478739873, 50.764403369099426 ], [ 1.977013282101075, 50.764675101424736 ], [ 1.977719459712284, 50.764945917357963 ], [ 1.977716718830198, 50.765260137573364 ], [ 1.97700431541799, 50.766020662085296 ], [ 1.97707241053232, 50.766380103508993 ], [ 1.977491179338094, 50.767052685025867 ], [ 1.977559088073859, 50.76760047280743 ], [ 1.978115161911946, 50.768857487908051 ], [ 1.978827821071611, 50.769746119524591 ] ] ] } },
{ "type": "Feature", "properties": { "ID_CEAU": "FR31HL1066", "ID_SRCE": "FR31SRCE2014", "TYPE_CEAU": "01", "OBJ_ASSI": "02", "CLASSE1": "T", "CLASSE2": "N", "ID_MASSEDO": null, "ID_BVERSAN": "FRA_ESCA", "DELIMIT": "DG", "INTERREG": "F", "REG_RELIE": null, "INTERNAT": "F", "PAYS_RELIE": null, "EST_CORRID": "T", "EST_RESERV": "F" }, "geometry": { "type": "MultiLineString", "coordinates": [ [ [ 1.978827821071611, 50.769746119524591 ], [ 1.979237431739794, 50.770117118648436 ], [ 1.979305424526998, 50.77042919569103 ], [ 1.979091867394358, 50.770654656321234 ], [ 1.97919585916072, 50.771035176196335 ], [ 1.980007444850309, 50.771240338897229 ], [ 1.980358566225798, 50.771464338875106 ], [ 1.980250922364156, 50.771786797728744 ], [ 1.980141977083068, 50.772145003150428 ], [ 1.980422579672796, 50.772415471971584 ], [ 1.980562000596332, 50.772730487184653 ], [ 1.98091246485537, 50.77317857411402 ], [ 1.980838211292149, 50.773671685336453 ], [ 1.981472004201901, 50.774076525891672 ], [ 1.981907644883455, 50.774393172857216 ], [ 1.982471399419422, 50.774752801035554 ], [ 1.982467662355723, 50.775200968122618 ], [ 1.982679013207038, 50.775426736048452 ], [ 1.982747061850174, 50.775794727443419 ], [ 1.983135313902315, 50.775862058724954 ], [ 1.983097987588352, 50.77615317626384 ], [ 1.983165961072274, 50.776467790855122 ], [ 1.983587748998993, 50.776558539030198 ] ] ] } },
{ "type": "Feature", "properties": { "ID_CEAU": "FR31HL1067", "ID_SRCE": "FR31SRCE2014", "TYPE_CEAU": "01", "OBJ_ASSI": "02", "CLASSE1": "T", "CLASSE2": "N", "ID_MASSEDO": null, "ID_BVERSAN": "FRA_ESCA", "DELIMIT": "DG", "INTERREG": "F", "REG_RELIE": null, "INTERNAT": "F", "PAYS_RELIE": null, "EST_CORRID": "T", "EST_RESERV": "F" }, "geometry": { "type": "MultiLineString", "coordinates": [ [ [ 1.983587748998993, 50.776558539030198 ], [ 1.983657797435651, 50.77691868829271 ], [ 1.983373785390259, 50.777186541195682 ], [ 1.98330042272095, 50.77749986618138 ], [ 1.983650320757863, 50.777993274272802 ], [ 1.983998043010224, 50.778217520454398 ] ] ] } },
{ "type": "Feature", "properties": { "ID_CEAU": "FR31HL1068", "ID_SRCE": "FR31SRCE2014", "TYPE_CEAU": "01", "OBJ_ASSI": "02", "CLASSE1": "T", "CLASSE2": "N", "ID_MASSEDO": null, "ID_BVERSAN": "FRA_ESCA", "DELIMIT": "DG", "INTERREG": "F", "REG_RELIE": null, "INTERNAT": "F", "PAYS_RELIE": null, "EST_CORRID": "T", "EST_RESERV": "F" }, "geometry": { "type": "MultiLineString", "coordinates": [ [ [ 1.983998043010224, 50.778217520454398 ], [ 1.984497266510468, 50.778264817843144 ], [ 1.984920325730662, 50.778401590152164 ], [ 1.985413787566179, 50.778648770824006 ], [ 1.985977285416743, 50.778943190731788 ], [ 1.986329479254977, 50.779211995808247 ], [ 1.986642572787608, 50.779873152291593 ], [ 1.98688783836308, 50.78020860640104 ], [ 1.986883486796539, 50.780881366988424 ], [ 1.987164760159246, 50.781107506093491 ], [ 1.987082907754765, 50.782721539954757 ], [ 1.986727201104011, 50.783033323606212 ], [ 1.986440601867326, 50.783489504248372 ], [ 1.985655589366204, 50.783934426345759 ] ] ] } },
{ "type": "Feature", "properties": { "ID_CEAU": "FR31HL1069", "ID_SRCE": "FR31SRCE2014", "TYPE_CEAU": "01", "OBJ_ASSI": "02", "CLASSE1": "T", "CLASSE2": "N", "ID_MASSEDO": null, "ID_BVERSAN": "FRA_ESCA", "DELIMIT": "DG", "INTERREG": "F", "REG_RELIE": null, "INTERNAT": "F", "PAYS_RELIE": null, "EST_CORRID": "T", "EST_RESERV": "F" }, "geometry": { "type": "MultiLineString", "coordinates": [ [ [ 1.96674043111351, 50.737114739086415 ], [ 1.967796619536538, 50.737634110004372 ], [ 1.968146670752292, 50.738084808649837 ], [ 1.968427060002839, 50.738353276032917 ], [ 1.969061331179783, 50.738626289687794 ], [ 1.969553153639575, 50.738985591208113 ], [ 1.969833680715338, 50.739300917721664 ], [ 1.970468979352269, 50.739445981521648 ], [ 1.972103054841212, 50.740078569510949 ], [ 1.972527678686102, 50.740078407183418 ], [ 1.973164618907202, 50.739990294840766 ], [ 1.973727960655701, 50.740172727144909 ], [ 1.974150444887247, 50.740441986874202 ], [ 1.974213794139071, 50.74142942208772 ], [ 1.97428184684723, 50.741788367517131 ], [ 1.974701604384359, 50.742371855567661 ], [ 1.975965562115492, 50.743551794551522 ], [ 1.976666022386447, 50.74427129937056 ], [ 1.977015383412766, 50.744898709091458 ], [ 1.977224475604673, 50.745393406615804 ], [ 1.977220683266599, 50.745842103422071 ], [ 1.976297251984806, 50.746556643351219 ], [ 1.975967296306434, 50.746805125809388 ] ] ] } },
{ "type": "Feature", "properties": { "ID_CEAU": "FR31HL1070", "ID_SRCE": "FR31SRCE2014", "TYPE_CEAU": "01", "OBJ_ASSI": "02", "CLASSE1": "T", "CLASSE2": "N", "ID_MASSEDO": "FRAR26", "ID_BVERSAN": "FRA_ESCA", "DELIMIT": "DG", "INTERREG": "F", "REG_RELIE": null, "INTERNAT": "F", "PAYS_RELIE": null, "EST_CORRID": "T", "EST_RESERV": "F" }, "geometry": { "type": "MultiLineString", "coordinates": [ [ [ 1.985655589366204, 50.783934426345759 ], [ 1.985022998584322, 50.783934491064826 ], [ 1.984736935378536, 50.784291970119853 ], [ 1.984168848610775, 50.784649931654386 ], [ 1.98388482146634, 50.784917282316002 ], [ 1.983317380223176, 50.78505115460387 ], [ 1.982841785875807, 50.785296309147135 ], [ 1.982581007542727, 50.785071968000011 ], [ 1.981494501427415, 50.785763283891839 ], [ 1.981703013337535, 50.786257687301109 ], [ 1.981239747625946, 50.786703569564985 ], [ 1.980881606493847, 50.787332095407685 ], [ 1.980886861601972, 50.78760418346554 ] ] ] } },
{ "type": "Feature", "properties": { "ID_CEAU": "FR31HL1071", "ID_SRCE": "FR31SRCE2014", "TYPE_CEAU": "01", "OBJ_ASSI": "02", "CLASSE1": "T", "CLASSE2": "N", "ID_MASSEDO": null, "ID_BVERSAN": "FRA_ESCA", "DELIMIT": "DG", "INTERREG": "F", "REG_RELIE": null, "INTERNAT": "F", "PAYS_RELIE": null, "EST_CORRID": "T", "EST_RESERV": "F" }, "geometry": { "type": "MultiLineString", "coordinates": [ [ [ 1.975967296306434, 50.746805125809388 ], [ 1.976221932636402, 50.747184223351269 ], [ 1.976856518092176, 50.74730230170816 ], [ 1.976854305093754, 50.747665392378849 ], [ 1.976144553809231, 50.748134605774077 ], [ 1.975786936441607, 50.748626146627238 ], [ 1.975355351526143, 50.749702488407429 ], [ 1.975208578308276, 50.750329664464353 ], [ 1.974993812738036, 50.750822002357481 ], [ 1.974635786228567, 50.751456559170052 ], [ 1.974633026493533, 50.751770795562663 ], [ 1.975332626531425, 50.752848857642206 ], [ 1.975889924765081, 50.753883853269748 ], [ 1.976516639512425, 50.755185603492698 ], [ 1.97693702422891, 50.755732817605143 ], [ 1.977639956069479, 50.756228212705281 ], [ 1.97813320801583, 50.756499877105291 ], [ 1.978343718973532, 50.756723109601076 ], [ 1.978410526889874, 50.757351472464414 ], [ 1.978620373380842, 50.757622069599933 ], [ 1.978544548424182, 50.7583166131041 ], [ 1.978329944668903, 50.758651819498056 ], [ 1.978116046468623, 50.758964882545961 ], [ 1.977548036243193, 50.759277507436124 ], [ 1.976626610686113, 50.759597733590098 ], [ 1.975986175487942, 50.759594662745606 ] ] ] } },
{ "type": "Feature", "properties": { "ID_CEAU": "FR31HL1072", "ID_SRCE": "FR31SRCE2014", "TYPE_CEAU": "01", "OBJ_ASSI": "02", "CLASSE1": "T", "CLASSE2": "N", "ID_MASSEDO": "FRAR26", "ID_BVERSAN": "FRA_ESCA", "DELIMIT": "DG", "INTERREG": "F", "REG_RELIE": null, "INTERNAT": "F", "PAYS_RELIE": null, "EST_CORRID": "T", "EST_RESERV": "F" }, "geometry": { "type": "MultiLineString", "coordinates": [ [ [ 1.937460465087701, 50.764481457204006 ], [ 1.937899539556207, 50.764769769763369 ], [ 1.940508897200896, 50.765639608800683 ], [ 1.941001927319881, 50.765864555894169 ], [ 1.942421659836378, 50.766857359220353 ], [ 1.94305618915257, 50.767127951690732 ], [ 1.943832567470667, 50.767309713666123 ], [ 1.944113639797582, 50.767533412393853 ], [ 1.944321526636726, 50.768095381824928 ], [ 1.944598951573354, 50.768792204555609 ], [ 1.944949065392781, 50.769240405498792 ], [ 1.945581739760216, 50.769699307183728 ], [ 1.946142682956214, 50.770285731175122 ], [ 1.94656298286688, 50.77082447791522 ], [ 1.947056004239508, 50.771028006039892 ], [ 1.947622124539176, 50.771007865899179 ], [ 1.948083247301364, 50.770806306803863 ], [ 1.948691051718863, 50.770880706923002 ] ] ] } },
{ "type": "Feature", "properties": { "ID_CEAU": "FR31HL1073", "ID_SRCE": "FR31SRCE2014", "TYPE_CEAU": "01", "OBJ_ASSI": "02", "CLASSE1": "T", "CLASSE2": "N", "ID_MASSEDO": null, "ID_BVERSAN": "FRA_ESCA", "DELIMIT": "DG", "INTERREG": "F", "REG_RELIE": null, "INTERNAT": "F", "PAYS_RELIE": null, "EST_CORRID": "T", "EST_RESERV": "F" }, "geometry": { "type": "MultiLineString", "coordinates": [ [ [ 1.989394327593171, 50.747432021172784 ], [ 1.989710050962879, 50.747769898647107 ], [ 1.989176302391039, 50.748352200957399 ], [ 1.989173266706336, 50.74875404062918 ], [ 1.9893092028391, 50.749562066246433 ], [ 1.988667346164782, 50.749693289133525 ] ], [ [ 1.988470289281651, 50.747539626268178 ], [ 1.989041404295879, 50.747409721566477 ] ], [ [ 1.989041404295879, 50.747409721566477 ], [ 1.989394327593171, 50.747432021172784 ] ] ] } },
{ "type": "Feature", "properties": { "ID_CEAU": "FR31HL1074", "ID_SRCE": "FR31SRCE2014", "TYPE_CEAU": "01", "OBJ_ASSI": "02", "CLASSE1": "T", "CLASSE2": "N", "ID_MASSEDO": null, "ID_BVERSAN": "FRA_ESCA", "DELIMIT": "DG", "INTERREG": "F", "REG_RELIE": null, "INTERNAT": "F", "PAYS_RELIE": null, "EST_CORRID": "T", "EST_RESERV": "F" }, "geometry": { "type": "MultiLineString", "coordinates": [ [ [ 1.987210530466546, 50.745778880975244 ], [ 1.987495038672188, 50.746185593056552 ], [ 1.988266600696752, 50.747004135686652 ], [ 1.988470289281651, 50.747539626268178 ] ] ] } },
{ "type": "Feature", "properties": { "ID_CEAU": "FR31HL1075", "ID_SRCE": "FR31SRCE2014", "TYPE_CEAU": "01", "OBJ_ASSI": "02", "CLASSE1": "T", "CLASSE2": "N", "ID_MASSEDO": null, "ID_BVERSAN": "FRA_ESCA", "DELIMIT": "DG", "INTERREG": "F", "REG_RELIE": null, "INTERNAT": "F", "PAYS_RELIE": null, "EST_CORRID": "T", "EST_RESERV": "F" }, "geometry": { "type": "MultiLineString", "coordinates": [ [ [ 1.991144714835726, 50.759954236330756 ], [ 1.991425415924484, 50.760356621090487 ], [ 1.99230663479833, 50.760717944641563 ], [ 1.992407533256347, 50.761480934640531 ], [ 1.992262956931153, 50.761839211007896 ], [ 1.991693765125218, 50.762421315020333 ], [ 1.991338434257928, 50.76268830034082 ], [ 1.990417230238315, 50.762963806277568 ], [ 1.990061625800721, 50.76327815099782 ], [ 1.98956043957606, 50.764172317991665 ], [ 1.989557565052384, 50.76462100934495 ], [ 1.990400841967117, 50.765386011303221 ], [ 1.990397989911605, 50.765654912155512 ], [ 1.990043004927508, 50.766012040727283 ], [ 1.990004206516303, 50.766415200432562 ], [ 1.99010719575857, 50.766963176474384 ], [ 1.989746503310023, 50.767858103685462 ], [ 1.989173710817089, 50.768933691570041 ], [ 1.988462254769983, 50.769515506642385 ], [ 1.98754227842076, 50.769602146207951 ], [ 1.987174418803874, 50.769734591843338 ], [ 1.986888593799529, 50.77013893385589 ], [ 1.986885910101608, 50.770453161875722 ], [ 1.987273178271183, 50.770766986630306 ], [ 1.987374315991959, 50.771449402419371 ], [ 1.98723090654819, 50.771717533227374 ], [ 1.9872267898556, 50.772255843420105 ], [ 1.987856682703053, 50.773243784965501 ], [ 1.987854004927833, 50.773558011566621 ], [ 1.987710805878806, 50.773870960628024 ], [ 1.987284626802006, 50.774140085312744 ], [ 1.986611161040629, 50.774315671880224 ], [ 1.985866311887736, 50.774717497861218 ], [ 1.9857929425269, 50.775031335827201 ], [ 1.985366841120954, 50.775353829869445 ], [ 1.984729512722677, 50.775439968268707 ], [ 1.98458581756008, 50.77575545188283 ], [ 1.985007528592917, 50.776136948299666 ], [ 1.984652367043223, 50.776381758514695 ], [ 1.9842259700258, 50.77660604359329 ], [ 1.983980059967541, 50.776380090690139 ], [ 1.983587748998993, 50.776558539030198 ] ] ] } },
{ "type": "Feature", "properties": { "ID_CEAU": "FR31HL1076", "ID_SRCE": "FR31SRCE2014", "TYPE_CEAU": "01", "OBJ_ASSI": "02", "CLASSE1": "T", "CLASSE2": "N", "ID_MASSEDO": null, "ID_BVERSAN": "FRA_ESCA", "DELIMIT": "DG", "INTERREG": "F", "REG_RELIE": null, "INTERNAT": "F", "PAYS_RELIE": null, "EST_CORRID": "T", "EST_RESERV": "F" }, "geometry": { "type": "MultiLineString", "coordinates": [ [ [ 1.988667346164782, 50.749693289133525 ], [ 1.988670106668459, 50.749919679285817 ], [ 1.989302837785253, 50.750503765674068 ], [ 1.98965244135809, 50.75100827728901 ], [ 1.990191421559967, 50.751442446405918 ], [ 1.989718018223025, 50.751678903548388 ], [ 1.989503572600623, 50.752038844742067 ], [ 1.989499258703352, 50.752711633351034 ], [ 1.989707546557164, 50.753159440871109 ], [ 1.98991333877459, 50.754147127042224 ], [ 1.990051975512962, 50.754462133643571 ], [ 1.990403297367525, 50.754784308194992 ], [ 1.992100689652877, 50.755753627583744 ], [ 1.993167122522517, 50.755914258834636 ], [ 1.993023801735185, 50.756092756705236 ], [ 1.9917362652571, 50.756314435926114 ], [ 1.991521971155322, 50.756605110213044 ], [ 1.992295203883962, 50.75725717421178 ], [ 1.992519475204941, 50.757525273573521 ], [ 1.992586447903566, 50.758153627939024 ], [ 1.992287066454995, 50.75833382732629 ], [ 1.991649143955346, 50.758599277843871 ], [ 1.990516001352501, 50.758965815252388 ], [ 1.990230130683132, 50.759322809617402 ], [ 1.990228276959392, 50.759637049273785 ], [ 1.991144714835726, 50.759954236330756 ] ] ] } },
{ "type": "Feature", "properties": { "ID_CEAU": "FR31HL1077", "ID_SRCE": "FR31SRCE2014", "TYPE_CEAU": "01", "OBJ_ASSI": "02", "CLASSE1": "T", "CLASSE2": "N", "ID_MASSEDO": null, "ID_BVERSAN": "FRA_ESCA", "DELIMIT": "DG", "INTERREG": "F", "REG_RELIE": null, "INTERNAT": "F", "PAYS_RELIE": null, "EST_CORRID": "T", "EST_RESERV": "F" }, "geometry": { "type": "MultiLineString", "coordinates": [ [ [ 1.994490061319222, 50.738212601048708 ], [ 1.994771155006069, 50.73843823674914 ], [ 1.994733515311861, 50.738819519215483 ], [ 1.994271458609404, 50.739245359654731 ], [ 1.993772613041394, 50.739870657654976 ], [ 1.993692873546162, 50.741081413544926 ], [ 1.993548972826427, 50.741573663113748 ], [ 1.993262191792982, 50.742065642408178 ], [ 1.992906020723921, 50.742523530369589 ], [ 1.99191083156078, 50.743283123936621 ], [ 1.991765992377834, 50.743842850868589 ], [ 1.990695628655839, 50.744288024704517 ], [ 1.990047700285841, 50.745071401704728 ], [ 1.989621228358972, 50.745383327614228 ], [ 1.989054477068668, 50.745561553794218 ], [ 1.988205144632312, 50.745738731746542 ], [ 1.987210530466546, 50.745778880975244 ] ] ] } },
{ "type": "Feature", "properties": { "ID_CEAU": "FR31HL1078", "ID_SRCE": "FR31SRCE2014", "TYPE_CEAU": "01", "OBJ_ASSI": "02", "CLASSE1": "T", "CLASSE2": "N", "ID_MASSEDO": null, "ID_BVERSAN": "FRA_ESCA", "DELIMIT": "DG", "INTERREG": "F", "REG_RELIE": null, "INTERNAT": "F", "PAYS_RELIE": null, "EST_CORRID": "T", "EST_RESERV": "F" }, "geometry": { "type": "MultiLineString", "coordinates": [ [ [ 1.904497250616629, 50.747806979061487 ], [ 1.905871846774626, 50.748214740110683 ], [ 1.907435557136801, 50.748847754579188 ], [ 1.909052620798752, 50.749839627910696 ], [ 1.909826119721331, 50.750291039549353 ], [ 1.9101056685955, 50.750651308797345 ], [ 1.911658471700983, 50.751015275465889 ], [ 1.912291833619212, 50.751339903111152 ], [ 1.912571406841338, 50.751700166255766 ], [ 1.912849779339325, 50.752193362664336 ], [ 1.912600624712352, 50.752395830089291 ], [ 1.912949992728277, 50.752866793662633 ], [ 1.913292091903134, 50.754190824236609 ], [ 1.91431005778042, 50.7550772716354 ], [ 1.914958332083194, 50.755258450148659 ], [ 1.916015931968844, 50.755621386425872 ], [ 1.916648292261773, 50.756071636192857 ], [ 1.917557104931862, 50.756701201869298 ] ] ] } },
{ "type": "Feature", "properties": { "ID_CEAU": "FR31HL1079", "ID_SRCE": "FR31SRCE2014", "TYPE_CEAU": "01", "OBJ_ASSI": "02", "CLASSE1": "T", "CLASSE2": "N", "ID_MASSEDO": null, "ID_BVERSAN": "FRA_ESCA", "DELIMIT": "DG", "INTERREG": "F", "REG_RELIE": null, "INTERNAT": "F", "PAYS_RELIE": null, "EST_CORRID": "T", "EST_RESERV": "F" }, "geometry": { "type": "MultiLineString", "coordinates": [ [ [ 1.917557104931862, 50.756701201869298 ], [ 1.917771572792507, 50.756928234168349 ], [ 1.918265086868105, 50.757108451790756 ], [ 1.919608461549032, 50.75715933965656 ], [ 1.920031751794656, 50.75720416244711 ], [ 1.921809208347258, 50.757748628171143 ], [ 1.923218352621362, 50.758290858000059 ], [ 1.92406318089624, 50.758661515081378 ], [ 1.924552885287683, 50.758842163556992 ] ] ] } },
{ "type": "Feature", "properties": { "ID_CEAU": "FR31HL1080", "ID_SRCE": "FR31SRCE2014", "TYPE_CEAU": "01", "OBJ_ASSI": "02", "CLASSE1": "T", "CLASSE2": "N", "ID_MASSEDO": null, "ID_BVERSAN": "FRA_ESCA", "DELIMIT": "DG", "INTERREG": "F", "REG_RELIE": null, "INTERNAT": "F", "PAYS_RELIE": null, "EST_CORRID": "T", "EST_RESERV": "F" }, "geometry": { "type": "MultiLineString", "coordinates": [ [ [ 1.936983723385237, 50.764407863127296 ], [ 1.937460465087701, 50.764481457204006 ] ], [ [ 1.924968134113246, 50.759874294613454 ], [ 1.925462138475739, 50.760594605825005 ], [ 1.926025666242348, 50.760822068245353 ], [ 1.926729767497941, 50.761048342379397 ], [ 1.927575078884631, 50.761499543993487 ], [ 1.929352108237171, 50.762088710633186 ], [ 1.929844934427158, 50.762322771879624 ], [ 1.930903437502718, 50.76264076519125 ], [ 1.931287659061568, 50.763134022111579 ], [ 1.931818299215792, 50.763091324734738 ], [ 1.932314003611731, 50.76304842431847 ], [ 1.934785347589624, 50.763459800077158 ], [ 1.935208188277915, 50.763594722645323 ], [ 1.935503442339809, 50.763820558695699 ], [ 1.935569785843404, 50.764224839420194 ], [ 1.936169920308933, 50.764428026751034 ], [ 1.936983723385237, 50.764407863127296 ] ] ] } },
{ "type": "Feature", "properties": { "ID_CEAU": "FR31HL1081", "ID_SRCE": "FR31SRCE2014", "TYPE_CEAU": "01", "OBJ_ASSI": "02", "CLASSE1": "T", "CLASSE2": "N", "ID_MASSEDO": null, "ID_BVERSAN": "FRA_ESCA", "DELIMIT": "DG", "INTERREG": "F", "REG_RELIE": null, "INTERNAT": "F", "PAYS_RELIE": null, "EST_CORRID": "T", "EST_RESERV": "F" }, "geometry": { "type": "MultiLineString", "coordinates": [ [ [ 1.924552885287683, 50.758842163556992 ], [ 1.924942476223571, 50.759225497848412 ], [ 1.924968134113246, 50.759874294613454 ] ] ] } },
{ "type": "Feature", "properties": { "ID_CEAU": "FR31HL1082", "ID_SRCE": "FR31SRCE2014", "TYPE_CEAU": "01", "OBJ_ASSI": "02", "CLASSE1": "T", "CLASSE2": "N", "ID_MASSEDO": "FRAR26", "ID_BVERSAN": "FRA_ESCA", "DELIMIT": "DG", "INTERREG": "F", "REG_RELIE": null, "INTERNAT": "F", "PAYS_RELIE": null, "EST_CORRID": "T", "EST_RESERV": "F" }, "geometry": { "type": "MultiLineString", "coordinates": [ [ [ 1.929217414712955, 50.76811392630502 ], [ 1.930432721678952, 50.768253575131695 ], [ 1.931773416457513, 50.768616015569862 ], [ 1.932689273651676, 50.768977948369496 ], [ 1.933396154370588, 50.769024914498821 ], [ 1.933889844789306, 50.769205076834361 ], [ 1.934170181119481, 50.769475651249799 ], [ 1.934379988222796, 50.769791137007623 ], [ 1.934871745856551, 50.770159117399693 ], [ 1.935222233648833, 50.770520246797851 ], [ 1.935997763740159, 50.770926156307098 ], [ 1.936717149294716, 50.77115245191245 ], [ 1.938412600958967, 50.771292551744089 ], [ 1.938338840189574, 50.771695746712787 ], [ 1.938619640522719, 50.771965292560125 ], [ 1.940066991265914, 50.77223963937216 ], [ 1.940776161216611, 50.771994744538013 ], [ 1.94151694348671, 50.772198728770057 ], [ 1.941868849767259, 50.772467662498954 ], [ 1.942749920901041, 50.772718549527369 ], [ 1.94285338869859, 50.773144173961981 ], [ 1.943205107048346, 50.773370326983475 ], [ 1.944418215360016, 50.773785757855038 ], [ 1.945054135017367, 50.773744640825562 ], [ 1.945904183674761, 50.77358915349128 ], [ 1.9464020722649, 50.773290130868276 ], [ 1.950660045239394, 50.774213451946864 ] ] ] } },
{ "type": "Feature", "properties": { "ID_CEAU": "FR31HL1083", "ID_SRCE": "FR31SRCE2014", "TYPE_CEAU": "01", "OBJ_ASSI": "02", "CLASSE1": "T", "CLASSE2": "N", "ID_MASSEDO": null, "ID_BVERSAN": "FRA_ESCA", "DELIMIT": "DG", "INTERREG": "F", "REG_RELIE": null, "INTERNAT": "F", "PAYS_RELIE": null, "EST_CORRID": "T", "EST_RESERV": "F" }, "geometry": { "type": "MultiLineString", "coordinates": [ [ [ 1.92137804212118, 50.773839165283086 ], [ 1.922293931588281, 50.774106725098093 ], [ 1.923425728424581, 50.774562950130793 ], [ 1.923774634184508, 50.774839836719316 ], [ 1.923983370555898, 50.775064096055523 ], [ 1.924419235932205, 50.775291853000169 ], [ 1.924698628135543, 50.775516215339195 ], [ 1.925260455098276, 50.776234765700181 ], [ 1.926032718856327, 50.7766873571248 ], [ 1.92631533404965, 50.777136749932005 ], [ 1.926308770498505, 50.777629965576267 ], [ 1.926660965614391, 50.778166994435999 ], [ 1.927079079512184, 50.77862568881843 ], [ 1.928279370442758, 50.77930237931654 ], [ 1.930172898448443, 50.780561569788105 ] ], [ [ 1.920070085304923, 50.773809511992354 ], [ 1.92137804212118, 50.773839165283086 ] ], [ [ 1.917126170788894, 50.772879853963843 ], [ 1.918556940241946, 50.772798112873097 ], [ 1.919155598801916, 50.772975878260745 ], [ 1.919613777239592, 50.773563235575331 ], [ 1.920070085304923, 50.773809511992354 ] ] ] } },
{ "type": "Feature", "properties": { "ID_CEAU": "FR31HL1084", "ID_SRCE": "FR31SRCE2014", "TYPE_CEAU": "01", "OBJ_ASSI": "02", "CLASSE1": "T", "CLASSE2": "N", "ID_MASSEDO": null, "ID_BVERSAN": "FRA_ESCA", "DELIMIT": "DG", "INTERREG": "F", "REG_RELIE": null, "INTERNAT": "F", "PAYS_RELIE": null, "EST_CORRID": "T", "EST_RESERV": "F" }, "geometry": { "type": "MultiLineString", "coordinates": [ [ [ 1.904616834362333, 50.777283778627023 ], [ 1.905178700135128, 50.7775106684484 ], [ 1.905617608539058, 50.777559321537929 ], [ 1.906186062228066, 50.777338289311295 ], [ 1.906682304259048, 50.777335523086357 ], [ 1.907033180807771, 50.777518811401805 ], [ 1.907522295201438, 50.777879440868482 ], [ 1.908936373127961, 50.778423290413471 ], [ 1.909854537805614, 50.778513035835566 ], [ 1.911479915530552, 50.778609459715945 ], [ 1.912623073791951, 50.778839358426936 ], [ 1.913609569757317, 50.779110636931662 ], [ 1.914035084248854, 50.779481886434148 ], [ 1.914172017641576, 50.779795136086193 ], [ 1.914805620222058, 50.779975260416947 ], [ 1.915295601029427, 50.780336886652378 ], [ 1.915438927682803, 50.780651708697597 ], [ 1.915648464977317, 50.780875480659986 ], [ 1.916848896629336, 50.781059005399854 ], [ 1.917551185579532, 50.781331851675873 ], [ 1.918610513545094, 50.781469339348241 ], [ 1.91912412364558, 50.781786880462697 ] ] ] } },
{ "type": "Feature", "properties": { "ID_CEAU": "FR31HL1085", "ID_SRCE": "FR31SRCE2014", "TYPE_CEAU": "01", "OBJ_ASSI": "02", "CLASSE1": "T", "CLASSE2": "N", "ID_MASSEDO": null, "ID_BVERSAN": "FRA_ESCA", "DELIMIT": "DG", "INTERREG": "F", "REG_RELIE": null, "INTERNAT": "F", "PAYS_RELIE": null, "EST_CORRID": "T", "EST_RESERV": "F" }, "geometry": { "type": "MultiLineString", "coordinates": [ [ [ 1.935114894402356, 50.784268694731622 ], [ 1.935389230705324, 50.784583669860204 ], [ 1.935453635807217, 50.785972913112381 ], [ 1.935726713398439, 50.786612066706866 ], [ 1.935828152430439, 50.787393553604737 ], [ 1.936066576947062, 50.78849283877495 ], [ 1.936416337944253, 50.788831798112533 ], [ 1.937122687438954, 50.788923343035904 ], [ 1.9397580111296, 50.788729960544494 ], [ 1.940257679613898, 50.788418608239361 ], [ 1.940755226579717, 50.788283356910704 ], [ 1.941391017450726, 50.788331523999396 ], [ 1.942524628917992, 50.788651875246316 ] ] ] } },
{ "type": "Feature", "properties": { "ID_CEAU": "FR31HL1297", "ID_SRCE": "FR31SRCE2014", "TYPE_CEAU": "01", "OBJ_ASSI": "02", "CLASSE1": "T", "CLASSE2": "N", "ID_MASSEDO": "FRAR26", "ID_BVERSAN": "FRA_ESCA", "DELIMIT": "DG", "INTERREG": "F", "REG_RELIE": null, "INTERNAT": "F", "PAYS_RELIE": null, "EST_CORRID": "T", "EST_RESERV": "F" }, "geometry": { "type": "MultiLineString", "coordinates": [ [ [ 2.081909604584275, 50.82682455458869 ], [ 2.083820847701396, 50.828405387896197 ], [ 2.084649922826412, 50.829293970908687 ] ] ] } },
{ "type": "Feature", "properties": { "ID_CEAU": "FR31HL1298", "ID_SRCE": "FR31SRCE2014", "TYPE_CEAU": "01", "OBJ_ASSI": "02", "CLASSE1": "T", "CLASSE2": "N", "ID_MASSEDO": null, "ID_BVERSAN": "FRA_ESCA", "DELIMIT": "DG", "INTERREG": "F", "REG_RELIE": null, "INTERNAT": "F", "PAYS_RELIE": null, "EST_CORRID": "T", "EST_RESERV": "F" }, "geometry": { "type": "MultiLineString", "coordinates": [ [ [ 2.084649922826412, 50.829293970908687 ], [ 2.084877237139699, 50.829529927587977 ], [ 2.085225916303613, 50.829796183274858 ] ] ] } },
{ "type": "Feature", "properties": { "ID_CEAU": "FR31HL1299", "ID_SRCE": "FR31SRCE2014", "TYPE_CEAU": "01", "OBJ_ASSI": "02", "CLASSE1": "T", "CLASSE2": "N", "ID_MASSEDO": "FRAR26", "ID_BVERSAN": "FRA_ESCA", "DELIMIT": "DG", "INTERREG": "F", "REG_RELIE": null, "INTERNAT": "F", "PAYS_RELIE": null, "EST_CORRID": "T", "EST_RESERV": "F" }, "geometry": { "type": "MultiLineString", "coordinates": [ [ [ 2.085225916303613, 50.829796183274858 ], [ 2.08614671151576, 50.830472655318211 ], [ 2.086499418571463, 50.830830712355613 ], [ 2.086567681375876, 50.831311171998081 ], [ 2.087342851838593, 50.831963170348224 ], [ 2.087376865621283, 50.832299535504404 ], [ 2.086282999406998, 50.833174011260056 ] ] ] } }
]
}
