{
"type": "FeatureCollection",
"name": "trame_vert",
"crs": { "type": "name", "properties": { "name": "urn:ogc:def:crs:OGC:1.3:CRS84" } },
"features": [
{ "type": "Feature", "properties": { "ID_CORR": "FR31CL8", "ID_SRCE": "FR31SRCE2014", "NOM_CORR": null, "OBJ_ASSI": "02", "MILMAJ_NAT": "boisé", "MILMAJ_REG": "forêt", "MILASO_NAT": null, "MILASO_REG": null, "DELIMIT": "DS", "INTERREG": "F", "REG_RELIE": null, "INTERNAT": "F", "PAYS_RELIE": null }, "geometry": { "type": "MultiLineString", "coordinates": [ [ [ 1.848940901048232, 50.756876344891317 ], [ 1.849967481149459, 50.758334161969159 ], [ 1.850294488809341, 50.763091405303527 ], [ 1.851005044114627, 50.766899703499952 ], [ 1.852466907387168, 50.770711058494975 ], [ 1.853563018095411, 50.77356927491175 ], [ 1.856902392754051, 50.777150005313246 ], [ 1.859470537821989, 50.78028486720482 ], [ 1.860511546661123, 50.782602369271643 ], [ 1.860801034292824, 50.784049494011427 ], [ 1.861703141930477, 50.785113706062631 ], [ 1.862757778717779, 50.786081897796741 ], [ 1.864711831356419, 50.788402997986559 ], [ 1.867426447319551, 50.790727072742278 ], [ 1.868325106045868, 50.792079957427724 ], [ 1.871355389187648, 50.793249093194866 ], [ 1.872480020952332, 50.794134608910227 ] ] ] } },
{ "type": "Feature", "properties": { "ID_CORR": "FR31CL51", "ID_SRCE": "FR31SRCE2014", "NOM_CORR": null, "OBJ_ASSI": "02", "MILMAJ_NAT": "boisé", "MILMAJ_REG": "forêt", "MILASO_NAT": null, "MILASO_REG": null, "DELIMIT": "DS", "INTERREG": "F", "REG_RELIE": null, "INTERNAT": "F", "PAYS_RELIE": null }, "geometry": { "type": "MultiLineString", "coordinates": [ [ [ 2.054480910480989, 50.83343774736904 ], [ 2.056563343691308, 50.831838579937006 ], [ 2.062196108167447, 50.827019703502003 ], [ 2.067805449486568, 50.8261461384295 ], [ 2.069669361374526, 50.826840163773099 ], [ 2.077598869865052, 50.828533980034216 ], [ 2.082259956412456, 50.83031915948176 ], [ 2.083524821792298, 50.83081170039361 ], [ 2.085096480302453, 50.831496992401419 ], [ 2.08644863819936, 50.831762746404515 ], [ 2.087968969811119, 50.831590685341794 ], [ 2.088937974401047, 50.831172537547666 ], [ 2.089934726186252, 50.830702759997479 ], [ 2.090738540294322, 50.830319080906627 ] ] ] } },
{ "type": "Feature", "properties": { "ID_CORR": "FR31CL52", "ID_SRCE": "FR31SRCE2014", "NOM_CORR": null, "OBJ_ASSI": "02", "MILMAJ_NAT": "boisé", "MILMAJ_REG": "forêt", "MILASO_NAT": null, "MILASO_REG": null, "DELIMIT": "DS", "INTERREG": "F", "REG_RELIE": null, "INTERNAT": "F", "PAYS_RELIE": null }, "geometry": { "type": "MultiLineString", "coordinates": [ [ [ 1.981101973326279, 50.802874846562567 ], [ 1.981741435613009, 50.803090572922507 ], [ 1.985262490798556, 50.803692014738886 ], [ 1.988991472350146, 50.804360247552815 ], [ 1.992923795201553, 50.805488460317214 ], [ 1.996465667823959, 50.806943481538006 ], [ 1.998796348486489, 50.808073633424854 ], [ 1.999950787278376, 50.808430815483987 ], [ 2.004165682782933, 50.809744696683005 ] ], [ [ 2.019525113813774, 50.810147847653887 ], [ 2.020546009166189, 50.809873898373716 ], [ 2.02289587663739, 50.808738678351617 ], [ 2.025868888947768, 50.808689212023623 ], [ 2.029292267155047, 50.808640839999207 ], [ 2.030732189946481, 50.808759160511734 ], [ 2.034333001414193, 50.809111062265146 ], [ 2.037029515494303, 50.810031302973854 ], [ 2.041616730554509, 50.811184270383187 ], [ 2.043500672268078, 50.812501173896663 ], [ 2.045742256750254, 50.81421888427893 ], [ 2.048970300607138, 50.816624271728557 ], [ 2.050038145565403, 50.818795174197163 ], [ 2.052461505655167, 50.820455892374476 ], [ 2.054979452062588, 50.821147223532584 ], [ 2.058038980676788, 50.821895948976298 ], [ 2.062898419697605, 50.822877954878201 ], [ 2.065780835784055, 50.82299917163278 ], [ 2.070376061574975, 50.823065758334053 ], [ 2.072087004136228, 50.823184184468474 ], [ 2.075331970110995, 50.823020615897569 ], [ 2.078752920942832, 50.823598835070904 ], [ 2.080458683469776, 50.824686687172893 ], [ 2.08342412578763, 50.826233342207246 ], [ 2.085041111086277, 50.827207466145602 ], [ 2.087286374839501, 50.828639020221019 ], [ 2.090702267696525, 50.830301030121461 ], [ 2.094664385047752, 50.830822612812064 ], [ 2.094664093566797, 50.83087990911541 ], [ 2.0970956284761, 50.831170210883784 ] ] ] } },
{ "type": "Feature", "properties": { "ID_CORR": "FR31CL53", "ID_SRCE": "FR31SRCE2014", "NOM_CORR": null, "OBJ_ASSI": "02", "MILMAJ_NAT": "boisé", "MILMAJ_REG": "forêt", "MILASO_NAT": null, "MILASO_REG": null, "DELIMIT": "DS", "INTERREG": "F", "REG_RELIE": null, "INTERNAT": "F", "PAYS_RELIE": null }, "geometry": { "type": "MultiLineString", "coordinates": [ [ [ 2.142200795956919, 50.834451064402224 ], [ 2.137548486040043, 50.835211032594245 ], [ 2.132810285475265, 50.836543253481658 ], [ 2.129631620281939, 50.838020704445711 ], [ 2.127503737656602, 50.83855509985672 ], [ 2.123769645553086, 50.838594500824691 ], [ 2.120612000919323, 50.83808771211455 ], [ 2.118100484832377, 50.837720220719881 ], [ 2.11652328927646, 50.837126354959373 ], [ 2.114244326388343, 50.836368248746226 ], [ 2.112089739259051, 50.836149597728941 ], [ 2.108803026191685, 50.835424297516923 ], [ 2.105182612524638, 50.833478169749043 ], [ 2.099971757150574, 50.83195904800305 ], [ 2.097139130109039, 50.831162434546776 ] ] ] } },
{ "type": "Feature", "properties": { "ID_CORR": "FR31CL54", "ID_SRCE": "FR31SRCE2014", "NOM_CORR": null, "OBJ_ASSI": "02", "MILMAJ_NAT": "boisé", "MILMAJ_REG": "forêt", "MILASO_NAT": null, "MILASO_REG": null, "DELIMIT": "DS", "INTERREG": "F", "REG_RELIE": null, "INTERNAT": "F", "PAYS_RELIE": null }, "geometry": { "type": "MultiLineString", "coordinates": [ [ [ 2.033615515650891, 50.755952445905102 ], [ 2.033138765102039, 50.757658332035575 ], [ 2.033714249506093, 50.759775390232299 ], [ 2.034682139279238, 50.761894567639906 ], [ 2.036236675008566, 50.764263520622158 ], [ 2.038573937911682, 50.767132138418482 ], [ 2.042090423350626, 50.769878933826995 ], [ 2.045202281903391, 50.771236020825128 ] ], [ [ 2.096997369626161, 50.808914072687784 ], [ 2.097105549542215, 50.809122025106497 ], [ 2.098041770654487, 50.810274775490861 ] ], [ [ 2.102183422304007, 50.816204109396331 ], [ 2.102232439710283, 50.816361882040994 ], [ 2.102631853014669, 50.818084963068998 ], [ 2.104795601382194, 50.820068786773085 ], [ 2.109129113996874, 50.823262247641381 ], [ 2.111025661647498, 50.824470241936176 ], [ 2.116181051776135, 50.826374133826462 ], [ 2.121474505412063, 50.827846638749328 ], [ 2.126088927869556, 50.828853254685356 ] ] ] } },
{ "type": "Feature", "properties": { "ID_CORR": "FR31CL69", "ID_SRCE": "FR31SRCE2014", "NOM_CORR": null, "OBJ_ASSI": "02", "MILMAJ_NAT": "ouvert", "MILMAJ_REG": "pelouses calcicoles", "MILASO_NAT": null, "MILASO_REG": null, "DELIMIT": "DS", "INTERREG": "F", "REG_RELIE": null, "INTERNAT": "F", "PAYS_RELIE": null }, "geometry": { "type": "MultiLineString", "coordinates": [ [ [ 1.996446983121889, 50.769971251124353 ], [ 1.997300981184324, 50.770215254792255 ], [ 1.998536729690211, 50.770218786841831 ], [ 1.999387760981884, 50.770884084046187 ], [ 2.000619312662056, 50.77161112423564 ], [ 2.001373911723751, 50.772517688248378 ], [ 2.001938488347527, 50.773364164312738 ], [ 2.002309656144351, 50.774631407839927 ], [ 2.002777793772899, 50.775718037596945 ], [ 2.003629401415617, 50.776323758023764 ], [ 2.004102635844305, 50.776686856654244 ], [ 2.005330173562823, 50.777895818876921 ], [ 2.006465469893884, 50.77874386487359 ], [ 2.00684144242179, 50.77946845002468 ], [ 2.007783816476821, 50.780676590760621 ], [ 2.007966826955711, 50.781762404411168 ], [ 2.008150674741313, 50.782728004479694 ], [ 2.0080479027737, 50.783753478523678 ], [ 2.008803252444742, 50.784599321410376 ], [ 2.010034887715812, 50.785386927004247 ], [ 2.011363793734334, 50.785691680601772 ], [ 2.012980168427772, 50.785816320930742 ], [ 2.013743810598367, 50.785456636477846 ] ] ] } },
{ "type": "Feature", "properties": { "ID_CORR": "FR31CL70", "ID_SRCE": "FR31SRCE2014", "NOM_CORR": null, "OBJ_ASSI": "02", "MILMAJ_NAT": "ouvert", "MILMAJ_REG": "pelouses calcicoles", "MILASO_NAT": null, "MILASO_REG": null, "DELIMIT": "DS", "INTERREG": "F", "REG_RELIE": null, "INTERNAT": "F", "PAYS_RELIE": null }, "geometry": { "type": "MultiLineString", "coordinates": [ [ [ 1.940716189021257, 50.713413633086027 ], [ 1.942997882733907, 50.713120127813468 ], [ 1.944996134852054, 50.712644749772593 ], [ 1.947464060611354, 50.712833778180652 ], [ 1.950410060238142, 50.712662531938044 ], [ 1.952033526454499, 50.711581341614917 ], [ 1.953557968524894, 50.710923387605988 ], [ 1.955462802247417, 50.710266639099245 ], [ 1.957361360864196, 50.710392956023391 ], [ 1.958782847885676, 50.710879504802037 ], [ 1.96001324897743, 50.711366552227233 ], [ 1.961526140745647, 50.712275813648411 ], [ 1.962849393511698, 50.713003565044893 ], [ 1.964268655647888, 50.713792274952425 ], [ 1.964928909871, 50.714337024003086 ], [ 1.966063391335241, 50.715003474046902 ], [ 1.965870758205096, 50.715425325390356 ], [ 1.96482155152101, 50.71596470940667 ], [ 1.966334265966922, 50.716813234439989 ], [ 1.96708827963668, 50.717599826258287 ], [ 1.966981918736255, 50.719107294176439 ], [ 1.9679267472874, 50.719713584156814 ], [ 1.969540773514049, 50.719838818152731 ], [ 1.971055035287232, 50.720627737545193 ], [ 1.97228351254063, 50.721415758160639 ], [ 1.974554872317575, 50.722508068774872 ], [ 1.975502126683187, 50.722932290252409 ], [ 1.977122182480244, 50.722274329108849 ], [ 1.978450005583792, 50.722579462722791 ], [ 1.979867571154435, 50.723548865745578 ], [ 1.981861856667423, 50.72361552879385 ], [ 1.982723904920868, 50.722652985039254 ], [ 1.983112480397317, 50.721568802751172 ], [ 1.984731051091398, 50.721091623839747 ], [ 1.985673928532194, 50.721998875037386 ], [ 1.986046486843348, 50.722963978716585 ], [ 1.986607105792251, 50.724232993107137 ], [ 1.987740362747792, 50.725261007598057 ], [ 1.990010502530332, 50.726594576322753 ], [ 1.992095724645222, 50.727324221688733 ], [ 1.99522106286855, 50.728660173853982 ], [ 1.99682945067301, 50.729628796201084 ], [ 1.998150323332369, 50.730959477107547 ], [ 1.99861707731244, 50.732167488825048 ], [ 1.998702814511002, 50.733433958554983 ], [ 1.998030321579331, 50.73439715443174 ], [ 1.9974542657521, 50.735239280571157 ], [ 1.997166226233632, 50.735660904199051 ], [ 1.998397265515722, 50.736327311599076 ], [ 1.999254083055839, 50.736089319388192 ], [ 2.001153358077814, 50.73627560384881 ], [ 2.00143543570787, 50.736697727662801 ], [ 2.001621093597175, 50.737362261120417 ], [ 2.001522100804331, 50.737843976630224 ], [ 2.000663978329223, 50.738263993600839 ], [ 1.999423507534317, 50.739044693618389 ], [ 1.999132909720574, 50.739826967530199 ], [ 1.999601446976206, 50.74067319730392 ], [ 2.001783014242754, 50.741281597804551 ], [ 2.003108987482593, 50.741949345712079 ], [ 2.003767594857019, 50.742975857683582 ], [ 2.003759170095179, 50.744182504159568 ], [ 2.003562498756257, 50.745086391573167 ], [ 2.00355449232165, 50.746232367330663 ], [ 2.003925492175752, 50.747499624936644 ], [ 2.005348088276309, 50.747926058389986 ], [ 2.006578308685457, 50.748773260892172 ], [ 2.007904146289382, 50.749500498398596 ], [ 2.008845955971714, 50.750708650572889 ], [ 2.007984754192866, 50.751551154254464 ], [ 2.005984655310562, 50.752148920093546 ], [ 2.005026911855366, 50.753110225712163 ], [ 2.004924599891997, 50.754196385652264 ], [ 2.006440546001819, 50.754983715910214 ], [ 2.008150205860089, 50.755169356267487 ], [ 2.008345996167213, 50.754386804364479 ], [ 2.009964552972116, 50.753908164636314 ], [ 2.012722132783748, 50.753915737698918 ], [ 2.014524489794697, 50.754403767281509 ], [ 2.014518787406743, 50.755247516409909 ], [ 2.012328628940951, 50.755784200835272 ], [ 2.010705850632859, 50.756744851072973 ], [ 2.009364448122124, 50.758248916492512 ], [ 2.008980785206423, 50.758790515783346 ], [ 2.008405872412693, 50.759451800451977 ], [ 2.00659080021623, 50.760653416365727 ], [ 2.005161523501653, 50.761131415064931 ], [ 2.004303860693071, 50.761430115012843 ], [ 2.002585959255977, 50.762390385097056 ], [ 2.001726133873578, 50.762991286281803 ], [ 2.000289469692072, 50.764373635796503 ], [ 1.99866833049642, 50.765153237052218 ], [ 1.998471046606466, 50.766117773950725 ], [ 1.997607244775051, 50.767261290802658 ], [ 1.997316869699681, 50.767984002854398 ], [ 1.996930385529421, 50.768767108186992 ], [ 1.99673695067968, 50.769309210488366 ], [ 1.996446983121889, 50.769971251124353 ] ] ] } },
{ "type": "Feature", "properties": { "ID_CORR": "FR31CL71", "ID_SRCE": "FR31SRCE2014", "NOM_CORR": null, "OBJ_ASSI": "02", "MILMAJ_NAT": "ouvert", "MILMAJ_REG": "pelouses calcicoles", "MILASO_NAT": null, "MILASO_REG": null, "DELIMIT": "DS", "INTERREG": "F", "REG_RELIE": null, "INTERNAT": "F", "PAYS_RELIE": null }, "geometry": { "type": "MultiLineString", "coordinates": [ [ [ 1.883732778197247, 50.790253907564363 ], [ 1.886771465260449, 50.790449227410548 ], [ 1.890964134413676, 50.790180806034265 ], [ 1.893065307765627, 50.789524688804384 ], [ 1.895011391286755, 50.789436451995257 ], [ 1.899053272805704, 50.789167184154188 ], [ 1.903248335663264, 50.788614090878568 ], [ 1.906995733865492, 50.787868232575413 ], [ 1.908643891020813, 50.787589943679173 ], [ 1.911042523544704, 50.787124454363173 ], [ 1.915083273278878, 50.786949011920967 ], [ 1.917624061931147, 50.787337760717385 ], [ 1.920758860923987, 50.788107161005811 ], [ 1.9225427664528, 50.789535761011336 ], [ 1.924474837974339, 50.791060345564325 ], [ 1.925060755045555, 50.792484735841221 ], [ 1.925202334990087, 50.793434587013543 ], [ 1.92518677572491, 50.795236630354346 ], [ 1.925177773319432, 50.796279208197213 ], [ 1.925161387544384, 50.798176743213105 ] ] ] } },
{ "type": "Feature", "properties": { "ID_CORR": "FR31CL72", "ID_SRCE": "FR31SRCE2014", "NOM_CORR": null, "OBJ_ASSI": "02", "MILMAJ_NAT": "ouvert", "MILMAJ_REG": "pelouses calcicoles", "MILASO_NAT": null, "MILASO_REG": null, "DELIMIT": "DS", "INTERREG": "F", "REG_RELIE": null, "INTERNAT": "F", "PAYS_RELIE": null }, "geometry": { "type": "MultiLineString", "coordinates": [ [ [ 1.886386707145929, 50.799312859957034 ], [ 1.88759682275722, 50.798134882258204 ], [ 1.888509860334637, 50.79652610751458 ], [ 1.891209612793946, 50.79596665811836 ], [ 1.89375685525962, 50.795597573860405 ], [ 1.895554273058583, 50.795414398190346 ], [ 1.900041669381475, 50.795620869877929 ], [ 1.902878897481169, 50.796295267507645 ], [ 1.904970726564827, 50.796681517537301 ], [ 1.909459114906938, 50.796793261885718 ], [ 1.912594439418593, 50.797658371203774 ], [ 1.91468556112779, 50.798139944559068 ], [ 1.91872562270449, 50.798248619524514 ], [ 1.921415128711015, 50.798732180530131 ], [ 1.924103045309196, 50.799405546184843 ], [ 1.927106126806, 50.798277846903545 ], [ 1.925894760627029, 50.799885879748572 ], [ 1.923787009898018, 50.801302037045375 ], [ 1.923178806637721, 50.802438023241479 ], [ 1.924372277979424, 50.80291629277702 ], [ 1.926770639940253, 50.802450486645021 ], [ 1.93127334570913, 50.800948111297615 ], [ 1.933224630735293, 50.800290775168897 ], [ 1.936825062826201, 50.799259234930275 ], [ 1.939376968918972, 50.798413950124299 ], [ 1.941469959059093, 50.798706309824411 ], [ 1.943867165286856, 50.798334529510264 ], [ 1.946864280766776, 50.797870299940016 ], [ 1.949257548067671, 50.797972514290912 ], [ 1.950449628930893, 50.798640388794148 ], [ 1.951492708195443, 50.799213393510129 ], [ 1.953596493979817, 50.798176477213943 ], [ 1.95494894653366, 50.797422476295779 ], [ 1.957051817552216, 50.796480992668052 ], [ 1.958101722281466, 50.796198979684199 ], [ 1.959902659044784, 50.795540726445182 ], [ 1.96170428889612, 50.794788074080373 ], [ 1.963804686387518, 50.794130707875738 ], [ 1.966802818288527, 50.793476107630397 ], [ 1.970248580535706, 50.792918313156839 ], [ 1.972343700865184, 50.792924768082152 ], [ 1.975632405090133, 50.793313445169126 ], [ 1.977127158636563, 50.793603355205526 ], [ 1.980117978087701, 50.793896630437828 ], [ 1.982658778155884, 50.794283985045475 ], [ 1.986095351651584, 50.794957058140035 ], [ 1.987589528510393, 50.795341208111346 ], [ 1.989528061176746, 50.796295130091714 ], [ 1.991165017663206, 50.797533509358395 ], [ 1.994300511756583, 50.798585206768486 ], [ 1.997439298687856, 50.79906946545043 ], [ 2.000280787509598, 50.799361804217433 ], [ 2.00312763340488, 50.798895733494817 ], [ 2.005221050830506, 50.799185848866529 ], [ 2.007910835695573, 50.799762949962648 ], [ 2.011046862015752, 50.800814207237657 ], [ 2.010888624553634, 50.80204736730456 ], [ 2.009379943375692, 50.803845292414472 ], [ 2.007123367261058, 50.805451250575544 ], [ 2.004727611363398, 50.805634437221606 ], [ 2.00158674552533, 50.805245862533418 ], [ 2.001278435705676, 50.806477459720675 ], [ 2.003811698972559, 50.808192301989948 ], [ 2.005606529359868, 50.808387196469859 ], [ 2.008449284827221, 50.808584969271244 ], [ 2.011150663319356, 50.80754869593509 ], [ 2.013252876161804, 50.806606224550677 ], [ 2.016841242352319, 50.80718444441704 ], [ 2.020281123183199, 50.807573413423796 ], [ 2.024020093306451, 50.808057444793505 ], [ 2.027161946659164, 50.808349931491811 ], [ 2.030761571623537, 50.807221182574828 ], [ 2.030788070695818, 50.807155259098018 ] ] ] } },
{ "type": "Feature", "properties": { "ID_CORR": "FR31CL73", "ID_SRCE": "FR31SRCE2014", "NOM_CORR": null, "OBJ_ASSI": "02", "MILMAJ_NAT": "boisé", "MILMAJ_REG": "forêt", "MILASO_NAT": null, "MILASO_REG": null, "DELIMIT": "DS", "INTERREG": "F", "REG_RELIE": null, "INTERNAT": "F", "PAYS_RELIE": null }, "geometry": { "type": "MultiLineString", "coordinates": [ [ [ 1.860488477015936, 50.756256778438363 ], [ 1.865169633609772, 50.754303688725088 ], [ 1.868677506199796, 50.753208661334178 ], [ 1.87062787855058, 50.752353471338552 ], [ 1.877450502591835, 50.749915064687968 ], [ 1.881159908866628, 50.747958697711326 ], [ 1.88350322091116, 50.746611572773837 ], [ 1.887402546517973, 50.745024255023004 ], [ 1.892088120950752, 50.742454418717166 ], [ 1.897749123960483, 50.739271189756899 ], [ 1.904771270900211, 50.735846599956396 ], [ 1.906536416299227, 50.733882329202316 ], [ 1.909859235237318, 50.73142929279841 ], [ 1.913956617980977, 50.729226106856551 ], [ 1.916703974420482, 50.725907937341908 ], [ 1.920793242829733, 50.724443776193993 ], [ 1.92508544939975, 50.721994828112706 ], [ 1.93287393610237, 50.719186922277714 ], [ 1.93637871498022, 50.717966285409773 ], [ 1.943963992099838, 50.716143439722181 ], [ 1.947658142233411, 50.715292745067636 ], [ 1.952713093407327, 50.714323888224811 ], [ 1.957373641080859, 50.713969259163946 ] ] ] } },
{ "type": "Feature", "properties": { "ID_CORR": "FR31CL74", "ID_SRCE": "FR31SRCE2014", "NOM_CORR": null, "OBJ_ASSI": "02", "MILMAJ_NAT": "ouvert", "MILMAJ_REG": "pelouses calcicoles", "MILASO_NAT": null, "MILASO_REG": null, "DELIMIT": "DS", "INTERREG": "F", "REG_RELIE": null, "INTERNAT": "F", "PAYS_RELIE": null }, "geometry": { "type": "MultiLineString", "coordinates": [ [ [ 1.995498631181201, 50.727966626761443 ], [ 1.997816725404134, 50.727973281012176 ] ] ] } },
{ "type": "Feature", "properties": { "ID_CORR": "FR31CL75", "ID_SRCE": "FR31SRCE2014", "NOM_CORR": null, "OBJ_ASSI": "02", "MILMAJ_NAT": "boisé", "MILMAJ_REG": "forêt", "MILASO_NAT": null, "MILASO_REG": null, "DELIMIT": "DS", "INTERREG": "F", "REG_RELIE": null, "INTERNAT": "F", "PAYS_RELIE": null }, "geometry": { "type": "MultiLineString", "coordinates": [ [ [ 1.992565794934729, 50.805344738814519 ], [ 1.996856623883414, 50.804831316440335 ], [ 2.000628365295901, 50.804123029514287 ], [ 2.003978137805259, 50.802639355837094 ], [ 2.007133504427238, 50.800780923690624 ], [ 2.009489235991548, 50.798644946772399 ], [ 2.009814852824154, 50.797953772685602 ], [ 2.01027126828192, 50.7970584816266 ], [ 2.011565144633848, 50.795920566205901 ], [ 2.011196301580334, 50.793474826008101 ], [ 2.009596989712399, 50.792248058370078 ], [ 2.008575110948912, 50.791348682576903 ], [ 2.007937045214837, 50.790572823967231 ], [ 2.00768989529853, 50.789145293786959 ], [ 2.008081854266042, 50.788209381774394 ], [ 2.008033512856204, 50.785967862571354 ], [ 2.008746257527685, 50.785155297574406 ], [ 2.009616132512908, 50.782490504227965 ], [ 2.010220729825492, 50.780250778896139 ], [ 2.009451912071702, 50.777760091852912 ], [ 2.007704170230313, 50.775016140196932 ], [ 2.007325462201707, 50.773024229111385 ], [ 2.007966427259531, 50.771931709448729 ], [ 2.009693875818894, 50.771163513071187 ], [ 2.011647126318188, 50.771180122012019 ], [ 2.013616604813274, 50.771547278548518 ], [ 2.014821015635375, 50.772130287709039 ], [ 2.016358767929064, 50.772550153515958 ], [ 2.017713031325203, 50.772989728662623 ], [ 2.019889205056071, 50.772933773696465 ], [ 2.021463050059701, 50.772461602855685 ], [ 2.022449681121699, 50.771695742518219 ], [ 2.022322666779202, 50.770671887229241 ], [ 2.021677080465706, 50.769701705711768 ], [ 2.021699664825086, 50.768697345920991 ], [ 2.022672527871922, 50.767588774191623 ], [ 2.024257544323454, 50.766597531657453 ], [ 2.02660890785418, 50.765981282444855 ], [ 2.031325805196088, 50.764996977313416 ], [ 2.036124243297313, 50.764113807952924 ] ] ] } },
{ "type": "Feature", "properties": { "ID_CORR": "FR31CL205", "ID_SRCE": "FR31SRCE2014", "NOM_CORR": null, "OBJ_ASSI": "02", "MILMAJ_NAT": "boisé", "MILMAJ_REG": "forêt", "MILASO_NAT": null, "MILASO_REG": null, "DELIMIT": "DS", "INTERREG": "F", "REG_RELIE": null, "INTERNAT": "F", "PAYS_RELIE": null }, "geometry": { "type": "MultiLineString", "coordinates": [ [ [ 1.957373641080859, 50.713969259163981 ], [ 1.964389609007498, 50.710856821620268 ], [ 1.967844367540657, 50.707671834147028 ] ] ] } },
{ "type": "Feature", "properties": { "ID_CORR": "FR31CL206", "ID_SRCE": "FR31SRCE2014", "NOM_CORR": null, "OBJ_ASSI": "02", "MILMAJ_NAT": "boisé", "MILMAJ_REG": "forêt", "MILASO_NAT": null, "MILASO_REG": null, "DELIMIT": "DS", "INTERREG": "F", "REG_RELIE": null, "INTERNAT": "F", "PAYS_RELIE": null }, "geometry": { "type": "MultiLineString", "coordinates": [ [ [ 1.957373641080859, 50.713969259163981 ], [ 1.966195280289924, 50.719210228578866 ], [ 1.973931048799823, 50.722501444880493 ], [ 1.98596835410924, 50.725691717328431 ], [ 1.991143920524895, 50.726584366951293 ], [ 1.997363275308472, 50.727603557313188 ] ] ] } },
{ "type": "Feature", "properties": { "ID_CORR": "FR31CL216", "ID_SRCE": "FR31SRCE2014", "NOM_CORR": null, "OBJ_ASSI": "02", "MILMAJ_NAT": "boisé", "MILMAJ_REG": "forêt", "MILASO_NAT": null, "MILASO_REG": null, "DELIMIT": "DS", "INTERREG": "F", "REG_RELIE": null, "INTERNAT": "F", "PAYS_RELIE": null }, "geometry": { "type": "MultiLineString", "coordinates": [ [ [ 1.936123030354005, 50.718136629627018 ], [ 1.936416659310606, 50.718039450796894 ] ] ] } },
{ "type": "Feature", "properties": { "ID_CORR": "FR31CL217", "ID_SRCE": "FR31SRCE2014", "NOM_CORR": null, "OBJ_ASSI": "02", "MILMAJ_NAT": "boisé", "MILMAJ_REG": "forêt", "MILASO_NAT": null, "MILASO_REG": null, "DELIMIT": "DS", "INTERREG": "F", "REG_RELIE": null, "INTERNAT": "F", "PAYS_RELIE": null }, "geometry": { "type": "MultiLineString", "coordinates": [ [ [ 1.930400553669652, 50.715438967557333 ], [ 1.93120527474256, 50.715510317267089 ], [ 1.936416659310606, 50.718039450796894 ] ] ] } },
{ "type": "Feature", "properties": { "ID_CORR": "FR31CL218", "ID_SRCE": "FR31SRCE2014", "NOM_CORR": null, "OBJ_ASSI": "02", "MILMAJ_NAT": "boisé", "MILMAJ_REG": "forêt", "MILASO_NAT": null, "MILASO_REG": null, "DELIMIT": "DS", "INTERREG": "F", "REG_RELIE": null, "INTERNAT": "F", "PAYS_RELIE": null }, "geometry": { "type": "MultiLineString", "coordinates": [ [ [ 2.042090423350627, 50.769878933826945 ], [ 2.036584965361039, 50.778296404337141 ], [ 2.035154762382558, 50.783153987440912 ], [ 2.034642098651513, 50.78833487775178 ], [ 2.036471323907522, 50.791825966143229 ], [ 2.039271811145111, 50.795111384724159 ], [ 2.040106875381593, 50.797449248568775 ], [ 2.03978851657045, 50.799285926200511 ], [ 2.036601555759572, 50.804218874069278 ], [ 2.03558762582166, 50.806945701216023 ], [ 2.035231032220611, 50.80953869868631 ] ] ] } },
{ "type": "Feature", "properties": { "ID_CORR": "FR31CL219", "ID_SRCE": "FR31SRCE2014", "NOM_CORR": null, "OBJ_ASSI": "02", "MILMAJ_NAT": "boisé", "MILMAJ_REG": "forêt", "MILASO_NAT": null, "MILASO_REG": null, "DELIMIT": "DS", "INTERREG": "F", "REG_RELIE": null, "INTERNAT": "F", "PAYS_RELIE": null }, "geometry": { "type": "MultiLineString", "coordinates": [ [ [ 1.860488477015936, 50.756256778438363 ], [ 1.855096456325194, 50.757631375407037 ], [ 1.84999703921148, 50.758764205463208 ] ] ] } },
{ "type": "Feature", "properties": { "ID_CORR": "FR31CL247", "ID_SRCE": "FR31SRCE2014", "NOM_CORR": null, "OBJ_ASSI": "02", "MILMAJ_NAT": "boisé", "MILMAJ_REG": "forêt", "MILASO_NAT": null, "MILASO_REG": null, "DELIMIT": "DS", "INTERREG": "F", "REG_RELIE": null, "INTERNAT": "F", "PAYS_RELIE": null }, "geometry": { "type": "MultiLineString", "coordinates": [ [ [ 2.035231032220611, 50.80953869868631 ], [ 2.035370721423907, 50.812134389043479 ] ], [ [ 2.037991229910527, 50.819887907645324 ], [ 2.03956055676387, 50.821071388194568 ], [ 2.044621761041955, 50.826706337045238 ], [ 2.047484872645818, 50.830034440286859 ], [ 2.049820612110027, 50.831091312914481 ], [ 2.055520735315108, 50.832698014547859 ] ] ] } },
{ "type": "Feature", "properties": { "ID_CORR": "FR31CL375", "ID_SRCE": "FR31SRCE2014", "NOM_CORR": null, "OBJ_ASSI": "02", "MILMAJ_NAT": "ouvert", "MILMAJ_REG": "pelouses calcicoles", "MILASO_NAT": null, "MILASO_REG": null, "DELIMIT": "DS", "INTERREG": "F", "REG_RELIE": null, "INTERNAT": "F", "PAYS_RELIE": null }, "geometry": { "type": "MultiLineString", "coordinates": [ [ [ 1.869462394971897, 50.746641376089499 ], [ 1.873394923028683, 50.748293339772225 ], [ 1.878809464564015, 50.751258661877301 ], [ 1.881926391402257, 50.75420311157859 ], [ 1.884493724039888, 50.756826245456182 ], [ 1.88421061109566, 50.758822535613113 ], [ 1.883081536006986, 50.759909630902051 ], [ 1.8792182409253, 50.760647170149255 ], [ 1.874361516567329, 50.76082962437529 ], [ 1.870917340357153, 50.761731222283991 ], [ 1.869396665651179, 50.763287775839018 ], [ 1.870070546294958, 50.764774505349273 ], [ 1.87581499560065, 50.769532263721857 ], [ 1.880215611590677, 50.772013801389711 ], [ 1.880696438778937, 50.773634457445453 ], [ 1.879379396858842, 50.774519940028412 ], [ 1.877173437940252, 50.77423486324507 ], [ 1.873504804182806, 50.772633895714975 ], [ 1.871148567270055, 50.770302911541869 ], [ 1.869703305056417, 50.768898940174871 ], [ 1.867388968299402, 50.768061438067384 ], [ 1.864889495049357, 50.768630812172255 ], [ 1.863066780906441, 50.771007070403179 ], [ 1.865486320326252, 50.773515509209922 ], [ 1.867240823955403, 50.775918879240535 ], [ 1.868332271586715, 50.779779069428912 ], [ 1.868326796816418, 50.783699700353118 ], [ 1.86843958352158, 50.7856842770885 ], [ 1.869497865030167, 50.788349759267092 ], [ 1.871339278070617, 50.790090590448287 ], [ 1.874308437872334, 50.790252048794521 ], [ 1.876564469916529, 50.78959943580216 ], [ 1.878925001996189, 50.789545918358314 ], [ 1.883732778197247, 50.790253907564363 ] ] ] } },
{ "type": "Feature", "properties": { "ID_CORR": "FR31CL376", "ID_SRCE": "FR31SRCE2014", "NOM_CORR": null, "OBJ_ASSI": "02", "MILMAJ_NAT": "ouvert", "MILMAJ_REG": "pelouses calcicoles", "MILASO_NAT": null, "MILASO_REG": null, "DELIMIT": "DS", "INTERREG": "F", "REG_RELIE": null, "INTERNAT": "F", "PAYS_RELIE": null }, "geometry": { "type": "MultiLineString", "coordinates": [ [ [ 1.925161387544384, 50.798176743213105 ], [ 1.925796371621171, 50.798721160826979 ] ] ] } },
{ "type": "Feature", "properties": { "ID_CORR": "FR31CL377", "ID_SRCE": "FR31SRCE2014", "NOM_CORR": null, "OBJ_ASSI": "02", "MILMAJ_NAT": "ouvert", "MILMAJ_REG": "pelouses calcicoles", "MILASO_NAT": null, "MILASO_REG": null, "DELIMIT": "DS", "INTERREG": "F", "REG_RELIE": null, "INTERNAT": "F", "PAYS_RELIE": null }, "geometry": { "type": "MultiLineString", "coordinates": [ [ [ 2.013743810598367, 50.785456636477846 ], [ 2.015230290157283, 50.784212456956205 ], [ 2.016508907255769, 50.781660509984711 ], [ 2.017138159756687, 50.779646555874301 ], [ 2.016273206041142, 50.777227242666726 ], [ 2.014726179975585, 50.776356072727332 ], [ 2.013841703923928, 50.775111637908566 ], [ 2.014085023186211, 50.774163912634208 ], [ 2.014655706898944, 50.77394400429619 ], [ 2.016294334329994, 50.77411225259123 ], [ 2.018313080509623, 50.773860727718855 ], [ 2.020095605055785, 50.773164408079076 ], [ 2.021634249590416, 50.772877394871038 ], [ 2.023637762346399, 50.77293797495205 ], [ 2.024885387008097, 50.772454242703439 ], [ 2.025341077078262, 50.771111846226418 ], [ 2.025001722579011, 50.770372100870894 ], [ 2.025528009939001, 50.769729963559762 ], [ 2.026454248221513, 50.769600098502153 ], [ 2.028179767833779, 50.770718745366729 ], [ 2.029670910992096, 50.77246741516111 ], [ 2.032542923688504, 50.774213719524518 ], [ 2.033869100708722, 50.775339853187411 ], [ 2.034315507339739, 50.776259702155535 ], [ 2.034155006668851, 50.777910309432826 ], [ 2.03368792049372, 50.779196553347631 ], [ 2.032802733352118, 50.780080520113827 ] ] ] } },
{ "type": "Feature", "properties": { "ID_CORR": "FR31CL378", "ID_SRCE": "FR31SRCE2014", "NOM_CORR": null, "OBJ_ASSI": "02", "MILMAJ_NAT": "ouvert", "MILMAJ_REG": "pelouses calcicoles", "MILASO_NAT": null, "MILASO_REG": null, "DELIMIT": "DS", "INTERREG": "F", "REG_RELIE": null, "INTERNAT": "F", "PAYS_RELIE": null }, "geometry": { "type": "MultiLineString", "coordinates": [ [ [ 2.032802733352118, 50.780080520113827 ], [ 2.032228662484385, 50.780621699172329 ], [ 2.03222558205825, 50.781103674592202 ], [ 2.03203018371121, 50.782007592960369 ], [ 2.032026713177412, 50.782550236171325 ], [ 2.032021309621824, 50.783395096489954 ], [ 2.03191943724878, 50.784359923058609 ], [ 2.031912493241292, 50.785445207855147 ], [ 2.032090675332015, 50.787374716769598 ], [ 2.032843426540976, 50.788703502330719 ], [ 2.032930940396462, 50.789849695536724 ], [ 2.033400310827864, 50.790875528018802 ], [ 2.033965672643388, 50.791721843698795 ] ] ] } },
{ "type": "Feature", "properties": { "ID_CORR": "FR31CL379", "ID_SRCE": "FR31SRCE2014", "NOM_CORR": null, "OBJ_ASSI": "02", "MILMAJ_NAT": "ouvert", "MILMAJ_REG": "pelouses calcicoles", "MILASO_NAT": null, "MILASO_REG": null, "DELIMIT": "DS", "INTERREG": "F", "REG_RELIE": null, "INTERNAT": "F", "PAYS_RELIE": null }, "geometry": { "type": "MultiLineString", "coordinates": [ [ [ 2.030788070695818, 50.807155259098003 ], [ 2.032659823478817, 50.806462142692631 ], [ 2.034691523400423, 50.805132005762871 ], [ 2.036151956713594, 50.802825370277986 ], [ 2.03761513099481, 50.800369196118908 ], [ 2.038489786529734, 50.797833674336282 ], [ 2.037482745508381, 50.794984539693282 ], [ 2.033965672643388, 50.791721843698795 ] ] ] } },
{ "type": "Feature", "properties": { "ID_CORR": "FR31CL380", "ID_SRCE": "FR31SRCE2014", "NOM_CORR": null, "OBJ_ASSI": "02", "MILMAJ_NAT": "ouvert", "MILMAJ_REG": "pelouses calcicoles", "MILASO_NAT": null, "MILASO_REG": null, "DELIMIT": "DS", "INTERREG": "F", "REG_RELIE": null, "INTERNAT": "F", "PAYS_RELIE": null }, "geometry": { "type": "MultiLineString", "coordinates": [ [ [ 1.938571484182526, 50.71286395276001 ], [ 1.940716189021257, 50.71341363308602 ] ] ] } },
{ "type": "Feature", "properties": { "ID_CORR": "FR31CL497", "ID_SRCE": "FR31SRCE2014", "NOM_CORR": null, "OBJ_ASSI": "02", "MILMAJ_NAT": "ouvert", "MILMAJ_REG": "prairies et/ou bocage", "MILASO_NAT": null, "MILASO_REG": null, "DELIMIT": "DS", "INTERREG": "F", "REG_RELIE": null, "INTERNAT": "F", "PAYS_RELIE": null }, "geometry": { "type": "MultiLineString", "coordinates": [ [ [ 2.113270284419553, 50.820727025944628 ], [ 2.11320138788317, 50.820987149579025 ], [ 2.112293640848229, 50.821455473423732 ], [ 2.108658005198138, 50.82147700774965 ], [ 2.105072051871883, 50.82151719252893 ], [ 2.104027208329136, 50.822137316094299 ], [ 2.103166509502864, 50.822652267223575 ], [ 2.102253451025659, 50.823076929156564 ], [ 2.1013145975988, 50.823232653702952 ], [ 2.099971620596527, 50.823259985483425 ], [ 2.098295778703522, 50.823174378895054 ], [ 2.096614368689278, 50.822891577642018 ], [ 2.095048488472848, 50.822438669487646 ], [ 2.093202419292827, 50.822163394004491 ], [ 2.092127427082281, 50.822317724235134 ], [ 2.091034239242612, 50.823078910089777 ], [ 2.090181244760956, 50.824057885809601 ], [ 2.08928993470239, 50.825017543596587 ], [ 2.0877184207626, 50.825763728753408 ], [ 2.08633333800536, 50.826006526081912 ], [ 2.083690385719067, 50.825704512575093 ], [ 2.079014196582146, 50.825224943114499 ], [ 2.076825701893918, 50.824496578154942 ], [ 2.075549223270153, 50.823680180225779 ], [ 2.074885848696309, 50.822375652678801 ], [ 2.075103293012015, 50.821368024814127 ], [ 2.074921649024597, 50.820084218352136 ], [ 2.074725097418493, 50.819020950034194 ], [ 2.074088595053597, 50.817977620891142 ], [ 2.07273968500974, 50.817463128300169 ], [ 2.071299618797322, 50.817129134855982 ], [ 2.070522889454325, 50.816791248148149 ], [ 2.067293508060677, 50.815839326539482 ], [ 2.066667082650387, 50.815446664501316 ], [ 2.065901591618975, 50.814700252939197 ], [ 2.064536309178744, 50.813968326885622 ], [ 2.06211846843551, 50.813418386037981 ], [ 2.06033366676936, 50.812487016909671 ], [ 2.058758717771512, 50.811949680357358 ], [ 2.055503631865594, 50.811298322776139 ], [ 2.051902295122073, 50.8099415451399 ], [ 2.048112260330166, 50.808863349138903 ], [ 2.046933038481406, 50.808610134138171 ], [ 2.045911266273727, 50.808457604227051 ], [ 2.045637657931248, 50.80836487532752 ], [ 2.045467869291236, 50.808230631110519 ], [ 2.04549741102577, 50.807860513849548 ], [ 2.045525231521875, 50.807580595149638 ], [ 2.045439943778192, 50.807337793940647 ], [ 2.044481969380609, 50.806884139824525 ], [ 2.038976118569576, 50.804180115006247 ], [ 2.03479248984787, 50.802777464428864 ], [ 2.033511602171213, 50.802241429044543 ], [ 2.031779435280868, 50.801387056818477 ], [ 2.028998822553537, 50.800535006447419 ], [ 2.025267535714163, 50.799777236276029 ], [ 2.022057828822285, 50.79943616536292 ], [ 2.020115742965385, 50.799136021827429 ], [ 2.018242096209749, 50.79846097036156 ], [ 2.017348843843232, 50.797990264507391 ], [ 2.016909724708926, 50.79705854391856 ], [ 2.016444760007407, 50.79665850746531 ], [ 2.015687320834087, 50.79649916063768 ], [ 2.014095579301638, 50.796676498424723 ], [ 2.011366842036783, 50.796683998927158 ] ] ] } },
{ "type": "Feature", "properties": { "ID_CORR": "FR31CL500", "ID_SRCE": "FR31SRCE2014", "NOM_CORR": null, "OBJ_ASSI": "02", "MILMAJ_NAT": "ouvert", "MILMAJ_REG": "prairies et/ou bocage", "MILASO_NAT": null, "MILASO_REG": null, "DELIMIT": "DS", "INTERREG": "F", "REG_RELIE": null, "INTERNAT": "F", "PAYS_RELIE": null }, "geometry": { "type": "MultiLineString", "coordinates": [ [ [ 2.011366842036783, 50.796683998927158 ], [ 2.010082305578424, 50.796700468369586 ], [ 2.005851522804468, 50.796293143029942 ], [ 2.004872727445512, 50.796127845364126 ], [ 2.004521582872461, 50.795768466837622 ], [ 2.003747916882753, 50.794948021880003 ], [ 2.002557079950335, 50.794305758100712 ], [ 2.001289631811884, 50.793933672317323 ], [ 1.999424837151499, 50.793488461164472 ], [ 1.99700149755484, 50.792922937684281 ], [ 1.994026488177883, 50.791854356799661 ], [ 1.991155407053257, 50.790916080052924 ], [ 1.988878878216584, 50.790404879620759 ], [ 1.985484192850111, 50.789601765661658 ], [ 1.982277355263706, 50.78860243307507 ], [ 1.978331034590227, 50.78681991608871 ], [ 1.973325429884397, 50.785182861751018 ], [ 1.971727605850308, 50.784681044280305 ], [ 1.9707177270429, 50.784254859283706 ], [ 1.969828855774553, 50.78377268788897 ], [ 1.969341069736135, 50.783173747398379 ], [ 1.969161960350291, 50.782299871007829 ], [ 1.969002419373351, 50.781714611663283 ], [ 1.96871305921188, 50.781218398436664 ], [ 1.967822303389309, 50.780831159294223 ], [ 1.964926712302217, 50.780332301903393 ], [ 1.96069713608971, 50.77915749381328 ], [ 1.956299663215823, 50.778142572819 ], [ 1.952581615775689, 50.776876802259061 ], [ 1.951178374959563, 50.775939074073491 ], [ 1.949627931328797, 50.774881379033125 ], [ 1.948912259571368, 50.773882328576207 ], [ 1.948961491835038, 50.772739013476873 ], [ 1.949542565371501, 50.771668448896108 ], [ 1.949949195931696, 50.770617608982242 ], [ 1.950068106502936, 50.769083048147841 ], [ 1.949637012612766, 50.766828740323326 ], [ 1.947820167995383, 50.760045370515293 ], [ 1.947250062877849, 50.758018635044714 ], [ 1.947574781984768, 50.754512283494989 ], [ 1.948051898698017, 50.752038532271506 ], [ 1.947924838847725, 50.751314095750189 ], [ 1.947334085109278, 50.750061118831304 ], [ 1.944871601416303, 50.74792718498292 ], [ 1.942350362609154, 50.746813626168382 ], [ 1.941130210594673, 50.746114715222163 ], [ 1.940348530055603, 50.745265765949682 ], [ 1.938639863948241, 50.743904427711364 ], [ 1.935928576584559, 50.742064953705892 ], [ 1.932472738971115, 50.739917148813745 ], [ 1.932097153841106, 50.739733853230781 ], [ 1.929232594652297, 50.738620746265745 ], [ 1.925269376725576, 50.736595577666684 ], [ 1.92027538017535, 50.733952472481754 ], [ 1.913640071622286, 50.730587828459612 ], [ 1.910646821769337, 50.729914299400889 ], [ 1.907745271720047, 50.729639482819771 ] ] ] } },
{ "type": "Feature", "properties": { "ID_CORR": "FR31CL527", "ID_SRCE": "FR31SRCE2014", "NOM_CORR": null, "OBJ_ASSI": "02", "MILMAJ_NAT": "ouvert", "MILMAJ_REG": "prairies et/ou bocage", "MILASO_NAT": null, "MILASO_REG": null, "DELIMIT": "DS", "INTERREG": "F", "REG_RELIE": null, "INTERNAT": "F", "PAYS_RELIE": null }, "geometry": { "type": "MultiLineString", "coordinates": [ [ [ 1.979903109621727, 50.787557193727551 ], [ 1.982419942570871, 50.786479953950838 ], [ 1.984718949617172, 50.785397132332768 ], [ 1.986030501437024, 50.784249253777311 ], [ 1.986344662624807, 50.783530082466129 ], [ 1.986278258637533, 50.782370976140541 ], [ 1.986037809789309, 50.781617328906009 ], [ 1.983597831961798, 50.777164045671995 ], [ 1.981963851803111, 50.775023472040651 ], [ 1.9801168535954, 50.773015143622565 ], [ 1.979652431208032, 50.772326516679612 ], [ 1.979439768660905, 50.771519980058066 ], [ 1.979416930535396, 50.771077219065013 ], [ 1.978800481274672, 50.770040342957728 ], [ 1.977917211460124, 50.769292357150832 ], [ 1.97589953996835, 50.768364098520536 ], [ 1.973708113460102, 50.767149472507974 ], [ 1.973064858644509, 50.766241032581782 ], [ 1.973065171179784, 50.7653291637032 ], [ 1.973195477183326, 50.762609610789497 ], [ 1.973440846776892, 50.760274426341418 ], [ 1.97388087896983, 50.759303260508226 ], [ 1.974450824034416, 50.758376939634601 ], [ 1.975064833644554, 50.756321515287354 ], [ 1.974975156399597, 50.755216767837602 ], [ 1.973665185874329, 50.753389696066577 ], [ 1.971724896127746, 50.749456202416802 ], [ 1.971702393711152, 50.747817790990304 ], [ 1.972137639459703, 50.74575579215859 ], [ 1.973179133155004, 50.741840930815997 ], [ 1.974224566521038, 50.740575802938849 ], [ 1.974805932937718, 50.740143271051885 ], [ 1.975219020690808, 50.739982076431502 ], [ 1.975876128148334, 50.7398687729508 ], [ 1.980203259607204, 50.739172048375003 ], [ 1.981394989547366, 50.738952494095621 ], [ 1.982918512724517, 50.738549459252773 ], [ 1.983599104173803, 50.738198879769996 ], [ 1.983906320043817, 50.737809633834999 ], [ 1.984562816696583, 50.737034806410058 ], [ 1.984850668122802, 50.736695789592758 ], [ 1.985567457161862, 50.736285559472726 ], [ 1.98655640844566, 50.736139337847895 ], [ 1.98792408686867, 50.736221698737715 ], [ 1.989443424166569, 50.736575943964553 ], [ 1.990143498856155, 50.737010148660225 ], [ 1.991364905045189, 50.738026733897392 ], [ 1.991723992349328, 50.738147219972696 ], [ 1.992240237793423, 50.738151402217703 ], [ 1.992748095277765, 50.738014482804843 ], [ 1.993676366548264, 50.737623116435628 ], [ 1.994198542621792, 50.736999818528069 ], [ 1.994488461790621, 50.735976475147233 ], [ 1.994942638212748, 50.732732126799505 ], [ 1.994877541668333, 50.731409612711843 ], [ 1.994313080850446, 50.729801909859376 ], [ 1.993733221821009, 50.728952332037785 ], [ 1.993016702116285, 50.727886782993693 ], [ 1.990837500484911, 50.725991416939117 ], [ 1.988898650147508, 50.723750419733413 ], [ 1.988525678597109, 50.722816662906226 ], [ 1.988702042128258, 50.722371712964012 ], [ 1.989176929140096, 50.722007552253011 ], [ 1.989638642103486, 50.721746770088501 ] ] ] } },
{ "type": "Feature", "properties": { "ID_CORR": "FR31CL533", "ID_SRCE": "FR31SRCE2014", "NOM_CORR": null, "OBJ_ASSI": "02", "MILMAJ_NAT": "ouvert", "MILMAJ_REG": "prairies et/ou bocage", "MILASO_NAT": null, "MILASO_REG": null, "DELIMIT": "DS", "INTERREG": "F", "REG_RELIE": null, "INTERNAT": "F", "PAYS_RELIE": null }, "geometry": { "type": "MultiLineString", "coordinates": [ [ [ 1.973325429884397, 50.785182861751018 ], [ 1.972698751941442, 50.786104504781115 ], [ 1.972235068293748, 50.787006727269755 ], [ 1.970930620603897, 50.79134697612669 ], [ 1.970069273453805, 50.794496564980086 ], [ 1.96954737784991, 50.795222491265591 ] ] ] } }
]
}
