{
"type": "FeatureCollection",
"name": "ZNIEFF2",
"crs": { "type": "name", "properties": { "name": "urn:ogc:def:crs:OGC:1.3:CRS84" } },
"features": [
{ "type": "Feature", "properties": { "fid": 1, "ID_MNHN": "310014024", "ID_ORG": "01090000", "NOM": "Plaine maritime flamande entre Watten, Loon-Plage et Oye-Plage", "GENERATION": 2 }, "geometry": { "type": "MultiPolygon", "coordinates": [ [ [ [ 2.119148801159751, 50.886718679399493 ], [ 2.119896076014736, 50.885587901717663 ], [ 2.121386517769665, 50.884209948167168 ], [ 2.122658498562713, 50.882859194917643 ], [ 2.122846736980851, 50.882544376546157 ], [ 2.122676320378977, 50.882510593649606 ], [ 2.122571393451131, 50.882682749960367 ], [ 2.122420984050119, 50.882921858631583 ], [ 2.122265859991084, 50.883116772939253 ], [ 2.122127163880027, 50.883269601862374 ], [ 2.121923273836877, 50.883474701525245 ], [ 2.121421145752362, 50.883926864214473 ], [ 2.120398641462921, 50.882300932626855 ], [ 2.119395641241055, 50.880691437602991 ], [ 2.119005450286718, 50.880053834129242 ], [ 2.118743975439893, 50.879692788199065 ], [ 2.117935916111862, 50.881395654825567 ], [ 2.117716493688616, 50.881805151739265 ], [ 2.116714640223615, 50.879595694345575 ], [ 2.116155311852172, 50.87866088241941 ], [ 2.115757926189434, 50.877835246189846 ], [ 2.115281657482904, 50.876857424256876 ], [ 2.114928741352851, 50.876260956544208 ], [ 2.114656740432656, 50.875720114237154 ], [ 2.11439912048308, 50.875237837775508 ], [ 2.114106145401121, 50.87467331119759 ], [ 2.113597207708455, 50.873753982523212 ], [ 2.11328354618903, 50.873100050112704 ], [ 2.112842496513127, 50.872252746705918 ], [ 2.112496354006668, 50.871607989142106 ], [ 2.11223388683046, 50.871129804468694 ], [ 2.111902206657085, 50.870516927963429 ], [ 2.111739439492203, 50.870251584884848 ], [ 2.111168807545174, 50.869349576557887 ], [ 2.11105461219603, 50.869117199795461 ], [ 2.110955061046712, 50.868869432257782 ], [ 2.110866524268774, 50.868703882901464 ], [ 2.110664802815609, 50.868442574473271 ], [ 2.110460175414015, 50.868104190064138 ], [ 2.110258800520561, 50.867762766288195 ], [ 2.110016173482594, 50.867210643419106 ], [ 2.109561580737929, 50.866509184383169 ], [ 2.10919117203313, 50.865864370911687 ], [ 2.108654606233787, 50.86604624379774 ], [ 2.108741307065422, 50.866260082312643 ], [ 2.109275545933102, 50.867288399355154 ], [ 2.109902151972828, 50.868361042538538 ], [ 2.110402642133659, 50.869323514222032 ], [ 2.110811225740358, 50.869087999875418 ], [ 2.111262008921947, 50.869917848461924 ], [ 2.11083901360808, 50.870112284332663 ], [ 2.112048367782357, 50.872297526891842 ], [ 2.113482230527169, 50.875128319182046 ], [ 2.113842322905204, 50.874846445303724 ], [ 2.114100019278372, 50.875315360685697 ], [ 2.113710771676483, 50.875579712088701 ], [ 2.115172171030045, 50.878467018298927 ], [ 2.117164830169008, 50.882438011947052 ], [ 2.117557742349661, 50.88428886897001 ], [ 2.11757690357822, 50.884365956750607 ], [ 2.117998485018614, 50.884144801730237 ], [ 2.118081407769075, 50.884489095126014 ], [ 2.117666246356096, 50.884727707420133 ], [ 2.117953390622821, 50.885897292068584 ], [ 2.118436787166409, 50.886393288239738 ], [ 2.118398046705935, 50.88670963091068 ], [ 2.11845796657818, 50.886748773668295 ], [ 2.11858281068751, 50.886795214626702 ], [ 2.118584428412338, 50.886795687924376 ], [ 2.119148801159751, 50.886718679399493 ] ] ], [ [ [ 2.129428795761482, 50.870269966067632 ], [ 2.129718137505451, 50.870053265436347 ], [ 2.130494922736884, 50.869914288364228 ], [ 2.132377812624724, 50.869777703652709 ], [ 2.137699550673526, 50.86992706892017 ], [ 2.145018055679856, 50.869868944048093 ], [ 2.147995223512583, 50.867516251243138 ], [ 2.147870461266716, 50.865765690679765 ], [ 2.147178479890742, 50.86577446420862 ], [ 2.146324685879358, 50.8657556929153 ], [ 2.145162724974794, 50.865650123299339 ], [ 2.144835620546325, 50.865439020129749 ], [ 2.144159620221071, 50.865200660167318 ], [ 2.142534337605724, 50.86487039290099 ], [ 2.141409664393063, 50.864788466555488 ], [ 2.14053830259231, 50.864700788369852 ], [ 2.139158117602385, 50.86437498719733 ], [ 2.137185794685024, 50.863967041355117 ], [ 2.135064478248099, 50.863478715075622 ], [ 2.1335171162746, 50.863173112135918 ], [ 2.132542677385949, 50.864867609223126 ], [ 2.131271501595479, 50.866842061652257 ], [ 2.13068177589471, 50.867722527264824 ], [ 2.129661417550234, 50.86948677898156 ], [ 2.129236582871129, 50.870404060367669 ], [ 2.129428795761482, 50.870269966067632 ] ] ] ] } },
{ "type": "Feature", "properties": { "fid": 2, "ID_MNHN": "310013353", "ID_ORG": "00230000", "NOM": "Le complexe écologique du Marais Audomarois et de ses versants", "GENERATION": 2 }, "geometry": { "type": "MultiPolygon", "coordinates": [ [ [ [ 2.150501066065081, 50.852893053360873 ], [ 2.150709010203413, 50.849794389850629 ], [ 2.149643015113899, 50.847003618916702 ], [ 2.148382828178899, 50.843840645278711 ], [ 2.147319322824182, 50.840492025660957 ], [ 2.147136391845893, 50.837268760468682 ], [ 2.146641102294908, 50.83564271113837 ], [ 2.143775788746969, 50.834910605270856 ], [ 2.139960609363498, 50.833797388347392 ], [ 2.136209137518505, 50.832971143684937 ], [ 2.13252182988954, 50.83230888373766 ], [ 2.129482174895553, 50.83160664347502 ], [ 2.127028124578993, 50.830249387706459 ], [ 2.126127652502788, 50.829143420248315 ], [ 2.126001434571708, 50.828197650222769 ], [ 2.125489577996486, 50.826843792362851 ], [ 2.124005535979476, 50.825775181805795 ], [ 2.121549903091719, 50.82486878824097 ], [ 2.118966035064282, 50.823716116995278 ], [ 2.117836350438283, 50.823096779861189 ], [ 2.117831222816832, 50.823118426347335 ], [ 2.117801558343758, 50.823224206681417 ], [ 2.117461149091338, 50.823545170938978 ], [ 2.116719757871786, 50.823940413714197 ], [ 2.116045192005501, 50.82425976744581 ], [ 2.114982178000558, 50.824754083460604 ], [ 2.114517138787932, 50.825014192764471 ], [ 2.113547424682333, 50.825672026511057 ], [ 2.111260899454427, 50.827328128524719 ], [ 2.111111472097623, 50.827367925349598 ], [ 2.109812411462542, 50.826958684465822 ], [ 2.107311419034576, 50.826192790414865 ], [ 2.104271262473533, 50.825234716967373 ], [ 2.102173657786897, 50.82460815528264 ], [ 2.100749870135527, 50.824191392377514 ], [ 2.099836688314698, 50.823849594675671 ], [ 2.099697164292599, 50.823858577718234 ], [ 2.099627507357699, 50.823836852491347 ], [ 2.099116636569853, 50.82348452018708 ], [ 2.098992363079474, 50.823355849482141 ], [ 2.099008640575097, 50.823342533825389 ], [ 2.098953884019844, 50.823260232721665 ], [ 2.098689039904135, 50.823022393504829 ], [ 2.098302532301203, 50.822784314243691 ], [ 2.098155209588217, 50.822724447650785 ], [ 2.098052929672362, 50.82274172580744 ], [ 2.097657501245029, 50.823015270846689 ], [ 2.096861597250462, 50.823583922919134 ], [ 2.096438822629139, 50.823802969037338 ], [ 2.096167156725206, 50.823961686032881 ], [ 2.094154154996695, 50.825102924535088 ], [ 2.094183568168603, 50.825123263957579 ], [ 2.093081296953349, 50.825777176848767 ], [ 2.092878331797443, 50.825818904249218 ], [ 2.090810208335871, 50.824507977358962 ], [ 2.090122613224121, 50.824038825121413 ], [ 2.090096736790193, 50.82405210724211 ], [ 2.089406882470984, 50.823586689945799 ], [ 2.089432909220144, 50.823568260753483 ], [ 2.087525582767698, 50.822252461646883 ], [ 2.087064687814558, 50.821979266024996 ], [ 2.086760476960876, 50.821834809300874 ], [ 2.086214670036004, 50.82167857142958 ], [ 2.085655809524644, 50.821539772671215 ], [ 2.085114798252807, 50.821398940927104 ], [ 2.084584973271927, 50.82129306439694 ], [ 2.083796870394541, 50.821265772009795 ], [ 2.083493716653657, 50.821199719594993 ], [ 2.083304164078958, 50.821142685589486 ], [ 2.083254295901782, 50.821115690737052 ], [ 2.082682057271879, 50.820734387703133 ], [ 2.082652656216034, 50.820778497403793 ], [ 2.081098497264251, 50.819904069455077 ], [ 2.080621957675942, 50.819531169652748 ], [ 2.079898524181873, 50.818922480139307 ], [ 2.079713571434401, 50.818932366970067 ], [ 2.078942192422015, 50.81912699902842 ], [ 2.078642332177203, 50.819093489923738 ], [ 2.078411129404334, 50.818954316748126 ], [ 2.077881867392162, 50.818748751821325 ], [ 2.07734191597376, 50.819030154833818 ], [ 2.076586861661584, 50.819205272419239 ], [ 2.076531623746201, 50.819531864852053 ], [ 2.076316726407328, 50.820303000367261 ], [ 2.076097220572577, 50.821338135117109 ], [ 2.075426357696683, 50.823682246911915 ], [ 2.074727582070631, 50.826086903815899 ], [ 2.075270700827798, 50.827059956338772 ], [ 2.076463821230502, 50.828752519512825 ], [ 2.077377116109703, 50.830301670806399 ], [ 2.078268039350967, 50.830861389584193 ], [ 2.079311176396402, 50.831482046737804 ], [ 2.081270283220658, 50.832855612658001 ], [ 2.082023747971839, 50.833348241063675 ], [ 2.083193687756776, 50.833934199084545 ], [ 2.08347672710332, 50.834105312747354 ], [ 2.084550896811888, 50.834705449549055 ], [ 2.085594786373183, 50.83520995622451 ], [ 2.086503947199625, 50.835724458401842 ], [ 2.087341669334586, 50.836258310075024 ], [ 2.087642374298132, 50.836472607152118 ], [ 2.087821213497701, 50.836717483466948 ], [ 2.087878534769963, 50.837256970655758 ], [ 2.088146225515564, 50.837259569105157 ], [ 2.088373100720412, 50.837642195256521 ], [ 2.088911688035543, 50.838301817929036 ], [ 2.089741345529265, 50.839492137367245 ], [ 2.089814236636731, 50.840497045860936 ], [ 2.08977414798111, 50.840725044634468 ], [ 2.089856945373682, 50.841041628631899 ], [ 2.090245365033233, 50.841571494552326 ], [ 2.090891239413169, 50.84253439150406 ], [ 2.091692505897797, 50.843584902917492 ], [ 2.091836930561996, 50.84390983994443 ], [ 2.092081478834424, 50.844990085015937 ], [ 2.092155087791058, 50.84520289377911 ], [ 2.092277393586484, 50.845411672253704 ], [ 2.092480805183125, 50.845952473937992 ], [ 2.093318926555492, 50.845789740421175 ], [ 2.09342990858844, 50.845991328501341 ], [ 2.093761204511289, 50.846269352737735 ], [ 2.094143848852282, 50.846334835003987 ], [ 2.094628917140931, 50.846359418030062 ], [ 2.095112280337532, 50.846405568875291 ], [ 2.095698837022542, 50.846251584532453 ], [ 2.096238639860637, 50.846032774345289 ], [ 2.097296833659429, 50.845659836856008 ], [ 2.097610465589135, 50.845904969920085 ], [ 2.098140064329915, 50.846120692717228 ], [ 2.099055946900976, 50.846317663407234 ], [ 2.099706047814809, 50.846449384838891 ], [ 2.100086532277463, 50.846631950525669 ], [ 2.100132776481724, 50.846801553715579 ], [ 2.100160466627458, 50.847119050407201 ], [ 2.100307124956318, 50.847332000889516 ], [ 2.100570383487639, 50.847597562877858 ], [ 2.100866259710676, 50.847822098248805 ], [ 2.101528319634649, 50.848175737934461 ], [ 2.1021945055309, 50.848339313351694 ], [ 2.102842816300072, 50.848513146957657 ], [ 2.104137403360697, 50.848946054811037 ], [ 2.104701107381866, 50.849172103720186 ], [ 2.105266457265081, 50.849386849978231 ], [ 2.105582697633852, 50.849431620811124 ], [ 2.105848834794077, 50.849434169595497 ], [ 2.106134693460985, 50.84938334615061 ], [ 2.10650372173306, 50.849248413099758 ], [ 2.106755206181459, 50.849260183990353 ], [ 2.107002948141654, 50.849378794773074 ], [ 2.10788922294348, 50.849332143512051 ], [ 2.108306170241546, 50.849356546389835 ], [ 2.10863607923619, 50.849611936697173 ], [ 2.10911681591198, 50.849879934095881 ], [ 2.110523756072405, 50.850609890478957 ], [ 2.112038979715694, 50.848939115842654 ], [ 2.112671091752539, 50.849111821685753 ], [ 2.113703862951361, 50.84933149579043 ], [ 2.114418957912978, 50.849458115765763 ], [ 2.11509513087928, 50.849580551781344 ], [ 2.115875349108959, 50.849663122002141 ], [ 2.115883543460571, 50.849645662450271 ], [ 2.116553389523683, 50.849732130225583 ], [ 2.120474981510457, 50.850295896803395 ], [ 2.120575204684617, 50.85038441043146 ], [ 2.121152186547707, 50.8505662335265 ], [ 2.123428581264351, 50.851058184201889 ], [ 2.1269940579547, 50.851824523545595 ], [ 2.130196371075078, 50.852532632503241 ], [ 2.132813507606944, 50.853072664886682 ], [ 2.135127468472013, 50.853582501079856 ], [ 2.137338883056542, 50.854162450134559 ], [ 2.137979315921268, 50.854325793388632 ], [ 2.138374871704878, 50.854436352128936 ], [ 2.138955034873775, 50.854658172930264 ], [ 2.139562681432436, 50.85489953894804 ], [ 2.140168731215478, 50.855147056285944 ], [ 2.140742711010445, 50.855286664825037 ], [ 2.143099763857052, 50.855597567557794 ], [ 2.145065994286065, 50.855828711351165 ], [ 2.145500949150374, 50.8558355359567 ], [ 2.146987471239326, 50.855887150403767 ], [ 2.148151482636447, 50.856234116418428 ], [ 2.148848660518563, 50.856519667066024 ], [ 2.150501066065081, 50.852893053360873 ] ] ] ] } },
{ "type": "Feature", "properties": { "fid": 3, "ID_MNHN": "310013721", "ID_ORG": "00350000", "NOM": "La Cuesta du Boulonnais entre Neufchâtel-Hardelot et Colembert", "GENERATION": 2 }, "geometry": { "type": "MultiPolygon", "coordinates": [ [ [ [ 1.95070197975442, 50.708127037202345 ], [ 1.947466605599952, 50.709371590025988 ], [ 1.945337344416345, 50.710199084915189 ], [ 1.939558690061323, 50.712530707777645 ], [ 1.935983127778398, 50.713737629188365 ], [ 1.934610343684144, 50.713907116392498 ], [ 1.932628011190927, 50.71458119092015 ], [ 1.931303868769583, 50.715109841841297 ], [ 1.928335361123825, 50.716191385508132 ], [ 1.927129573674714, 50.716898121539664 ], [ 1.925887252876835, 50.71719849209682 ], [ 1.923998044377765, 50.718309051859968 ], [ 1.923034070778288, 50.718788085313896 ], [ 1.92199185644133, 50.719063724081501 ], [ 1.920593015859396, 50.718957265247226 ], [ 1.91947346005722, 50.718927940706529 ], [ 1.918870470833175, 50.719281264738925 ], [ 1.916862822464359, 50.720188179939726 ], [ 1.915423743544188, 50.720106906938312 ], [ 1.913506778527649, 50.719795409077093 ], [ 1.911712752054861, 50.719154261942073 ], [ 1.909078039962403, 50.718611614190721 ], [ 1.908674483155925, 50.7190163843457 ], [ 1.908587673567664, 50.71977774560856 ], [ 1.908497220094493, 50.720945319574703 ], [ 1.909083717004713, 50.722445395058642 ], [ 1.909792281384003, 50.723717404061794 ], [ 1.909716879014645, 50.724337925078601 ], [ 1.910587758528544, 50.723772286957882 ], [ 1.910868344304196, 50.723629146743171 ], [ 1.911301268611985, 50.723563692116592 ], [ 1.912458086846369, 50.723622691824282 ], [ 1.915233944399999, 50.723803721079989 ], [ 1.918133535300627, 50.723976613712459 ], [ 1.920538431618446, 50.724104417570089 ], [ 1.921145037590517, 50.723942696713799 ], [ 1.921468226544324, 50.723906812931105 ], [ 1.921685891893972, 50.723929064517684 ], [ 1.921850512884953, 50.72410562426299 ], [ 1.924828361831713, 50.722799600064008 ], [ 1.925732630977322, 50.722443931273617 ], [ 1.92681903245891, 50.722120344096844 ], [ 1.92753262932409, 50.721978859238 ], [ 1.928229535161109, 50.721867783549335 ], [ 1.929266832573757, 50.721739269250733 ], [ 1.931198340735109, 50.721647950388729 ], [ 1.932513046790322, 50.721522794006987 ], [ 1.933785575060026, 50.721268987293747 ], [ 1.934791804410853, 50.721015929406846 ], [ 1.934990133722323, 50.720946441267778 ], [ 1.935848953549117, 50.720613274839558 ], [ 1.935305601757062, 50.720085629940947 ], [ 1.935054738995088, 50.720175948727288 ], [ 1.934684067999046, 50.719746340402232 ], [ 1.936052278324942, 50.71921330706477 ], [ 1.936597655621133, 50.719053912320938 ], [ 1.936343131200015, 50.718772560118431 ], [ 1.937595591243229, 50.71828773078105 ], [ 1.93747752392102, 50.718182858584022 ], [ 1.939290174394946, 50.71733491539014 ], [ 1.938352967061289, 50.716528642281617 ], [ 1.93962666169899, 50.716060958707857 ], [ 1.941019584329451, 50.715565769605611 ], [ 1.940682033139089, 50.715146444589514 ], [ 1.941646820666877, 50.714418495371348 ], [ 1.942521834964813, 50.714067533567281 ], [ 1.943274582252758, 50.713506802096347 ], [ 1.944021795211258, 50.713054947085126 ], [ 1.944177954025229, 50.712874009023487 ], [ 1.944506218164637, 50.712984552823336 ], [ 1.94469293651946, 50.712864142050542 ], [ 1.944816360322128, 50.712719210894221 ], [ 1.945019785878167, 50.712460256021075 ], [ 1.945307943758931, 50.711988597423186 ], [ 1.945382623515747, 50.711716124292508 ], [ 1.945416468430402, 50.711479409935642 ], [ 1.945657883445118, 50.71098050049396 ], [ 1.945910732036676, 50.7107769510325 ], [ 1.946707465996669, 50.710254249821269 ], [ 1.946960498854998, 50.710041547899046 ], [ 1.947302280278414, 50.709878477492303 ], [ 1.947787280300664, 50.709538417659239 ], [ 1.949082626934955, 50.708942523782447 ], [ 1.9500934937674, 50.708529522622598 ], [ 1.950922451432489, 50.707996872642013 ], [ 1.951072279603336, 50.707859415718787 ], [ 1.95070197975442, 50.708127037202345 ] ] ], [ [ [ 1.888544380113979, 50.737501404042874 ], [ 1.886305398768885, 50.737340588232364 ], [ 1.884109567451117, 50.736849838328929 ], [ 1.881627446048418, 50.73701806249538 ], [ 1.880178213294726, 50.737951884173825 ], [ 1.878944747201128, 50.738688319117493 ], [ 1.881367760669813, 50.739332507228525 ], [ 1.884189346939225, 50.740161163957247 ], [ 1.886953398852743, 50.740910867307477 ], [ 1.889501375250946, 50.741640237273657 ], [ 1.893032925649446, 50.742593143627623 ], [ 1.894966860076475, 50.743159126072321 ], [ 1.897867927336916, 50.743968847604457 ], [ 1.897888290323451, 50.743772514559055 ], [ 1.897677338320273, 50.743515081389724 ], [ 1.896243095565509, 50.742699050855173 ], [ 1.894350006306452, 50.741663049532541 ], [ 1.893406594157742, 50.741076352019924 ], [ 1.892967023822793, 50.74070996872063 ], [ 1.891926069939069, 50.738877160700788 ], [ 1.891152178303874, 50.738174852167148 ], [ 1.890538975502126, 50.737508924454502 ], [ 1.888544380113979, 50.737501404042874 ] ] ], [ [ [ 1.878488141578915, 50.738960924489476 ], [ 1.877560864030502, 50.73969361760394 ], [ 1.877591110415272, 50.740709291845185 ], [ 1.877686120645993, 50.741013469187969 ], [ 1.877962458546164, 50.740928876662736 ], [ 1.877978573833895, 50.740281466048593 ], [ 1.878271045382305, 50.739617203528788 ], [ 1.878533427930833, 50.738934326165072 ], [ 1.878533759588422, 50.738933689571112 ], [ 1.878488141578915, 50.738960924489476 ] ] ], [ [ [ 1.874029636110489, 50.744884620652414 ], [ 1.871784178324147, 50.745358229397489 ], [ 1.870138395662626, 50.745884933660278 ], [ 1.869692525248902, 50.746383864181382 ], [ 1.871336288101145, 50.745808095802012 ], [ 1.874039272404782, 50.745067930186451 ], [ 1.875009713945158, 50.744586982199422 ], [ 1.875387457287439, 50.744370898107164 ], [ 1.874029636110489, 50.744884620652414 ] ] ], [ [ [ 1.864951706028185, 50.748377916681541 ], [ 1.863027892299024, 50.748674916722926 ], [ 1.861503719160424, 50.749024264840195 ], [ 1.860339679575166, 50.749375040071314 ], [ 1.858893467246326, 50.74992777840189 ], [ 1.856915656579551, 50.750752789206892 ], [ 1.857147916467401, 50.750835605149945 ], [ 1.857196090008912, 50.750834005097161 ], [ 1.858981028320509, 50.7503993463082 ], [ 1.861077673421781, 50.749948152357646 ], [ 1.862970273965381, 50.749574492938315 ], [ 1.865053314227381, 50.749082379111101 ], [ 1.865799646573265, 50.748795954656217 ], [ 1.866330985331114, 50.748506546240876 ], [ 1.866758935101241, 50.748087453509036 ], [ 1.864951706028185, 50.748377916681541 ] ] ] ] } },
{ "type": "Feature", "properties": { "fid": 4, "ID_MNHN": "310013274", "ID_ORG": "00330000", "NOM": "La Boutonnière de Pays de Licques", "GENERATION": 2 }, "geometry": { "type": "MultiPolygon", "coordinates": [ [ [ [ 1.892219030301335, 50.798965421119647 ], [ 1.897400732208548, 50.7991706512246 ], [ 1.902668998303543, 50.800615621325576 ], [ 1.906663860647627, 50.802303680580316 ], [ 1.910081013574744, 50.802997811865524 ], [ 1.913402656542597, 50.803443574697987 ], [ 1.916324377091879, 50.804879545528557 ], [ 1.919344631388255, 50.806253806909403 ], [ 1.923157819131185, 50.806453093129171 ], [ 1.926588836594469, 50.805597241201326 ], [ 1.929436033347118, 50.804367396278302 ], [ 1.932575985360506, 50.803200461741028 ], [ 1.935226227876241, 50.802093771535787 ], [ 1.937286923515126, 50.801294951693322 ], [ 1.939829862711264, 50.801303478492791 ], [ 1.942859782146125, 50.801561496173683 ], [ 1.945899894072628, 50.800579825213873 ], [ 1.948547159665421, 50.79978273957407 ], [ 1.950304085810215, 50.800222346231699 ], [ 1.952359952218366, 50.799981090085517 ], [ 1.955791466350491, 50.798938450409615 ], [ 1.960495678516587, 50.797713804454446 ], [ 1.965102336719929, 50.796426684618531 ], [ 1.968631589039395, 50.795321997464043 ], [ 1.971959406913303, 50.79496037499856 ], [ 1.974886601103443, 50.795837085717807 ], [ 1.976834069508131, 50.79695868667028 ], [ 1.978387638628379, 50.798450959730545 ], [ 1.97993434798595, 50.800872922270408 ], [ 1.981382942589694, 50.803356549280018 ], [ 1.983913156546909, 50.805099590246201 ], [ 1.987718806614778, 50.806350475776739 ], [ 1.991621577311165, 50.807725483999491 ], [ 1.9944516494132, 50.808663402711147 ], [ 1.99757838777148, 50.809168228751972 ], [ 2.004128562071255, 50.809744592755202 ], [ 2.010682710230507, 50.809762771198137 ], [ 2.014108199022014, 50.809524201624455 ], [ 2.015845730176246, 50.809499158998584 ], [ 2.017512527297002, 50.809284980697058 ], [ 2.018664481635389, 50.809288072280836 ], [ 2.019310725651356, 50.81001969775653 ], [ 2.020857284885399, 50.810944125473526 ], [ 2.022907706308608, 50.811425581336437 ], [ 2.025061457407157, 50.811431254469689 ], [ 2.027066596760705, 50.811182624572538 ], [ 2.03217547069673, 50.811195839640895 ], [ 2.034975923419843, 50.811901150436334 ], [ 2.036972048674703, 50.81308038453809 ], [ 2.036508852744984, 50.815046753042154 ], [ 2.0355989918387, 50.816345562173794 ], [ 2.03613779766392, 50.818282728215799 ], [ 2.037981344838396, 50.819874101049756 ], [ 2.038412595043484, 50.820476425154119 ], [ 2.038506486450288, 50.82042602723287 ], [ 2.039423952990699, 50.820100211941025 ], [ 2.041474341588814, 50.819694533230198 ], [ 2.042826583267927, 50.81932316359589 ], [ 2.044756942745111, 50.818720022001003 ], [ 2.047449609295926, 50.817829510550141 ], [ 2.04876218961837, 50.81717273309674 ], [ 2.050147183758234, 50.816422813777365 ], [ 2.050309438581836, 50.816340582212511 ], [ 2.050648533631834, 50.816151095001679 ], [ 2.050795017071234, 50.81607247429497 ], [ 2.051998471855903, 50.81531708725435 ], [ 2.052734117194084, 50.814910385188305 ], [ 2.053279462987707, 50.814708891604766 ], [ 2.053855150694712, 50.814517797140837 ], [ 2.054366311618353, 50.814422931853485 ], [ 2.055563990725173, 50.81499090365444 ], [ 2.055755463816061, 50.815403628526688 ], [ 2.056109364617554, 50.816406023698455 ], [ 2.056192169646449, 50.81695636947245 ], [ 2.056340513405177, 50.817271062061657 ], [ 2.056763852979379, 50.817744581193786 ], [ 2.057010007925783, 50.81781465568038 ], [ 2.057364344834195, 50.817943568904617 ], [ 2.057782411470352, 50.818186982495334 ], [ 2.057801434762783, 50.818200359709728 ], [ 2.057729945225907, 50.818241563433176 ], [ 2.059405841814527, 50.819325125365694 ], [ 2.059483338598989, 50.819346131315584 ], [ 2.059553161706082, 50.819393487766035 ], [ 2.059976519050967, 50.819697996592538 ], [ 2.06087767471515, 50.820234163675089 ], [ 2.062164747881701, 50.820929992171934 ], [ 2.063342603410637, 50.821625005468746 ], [ 2.063630250945952, 50.821970225476683 ], [ 2.063816224059864, 50.822079534608058 ], [ 2.063896906542087, 50.822149372984732 ], [ 2.064058994142541, 50.822247290493685 ], [ 2.064166240383094, 50.822270499643892 ], [ 2.064556984795195, 50.822173668107439 ], [ 2.064623076367344, 50.822162971958058 ], [ 2.064742271749083, 50.82212734078982 ], [ 2.065651715612829, 50.821900904971471 ], [ 2.067460205112477, 50.821446159061622 ], [ 2.068497574478348, 50.821205796694983 ], [ 2.06910014933647, 50.821064446286165 ], [ 2.069702623663068, 50.820913541132647 ], [ 2.070060136013122, 50.82078589339131 ], [ 2.069989934147336, 50.820748370309822 ], [ 2.07085177846545, 50.820465695502286 ], [ 2.071348860034988, 50.820352317657552 ], [ 2.072855677723997, 50.820039816167125 ], [ 2.073990736070165, 50.819755067253702 ], [ 2.074430826433268, 50.819657647112443 ], [ 2.074443876354909, 50.81966986030335 ], [ 2.074747511515696, 50.819588627554467 ], [ 2.075031514633077, 50.819526608065672 ], [ 2.076193040427612, 50.819214649979777 ], [ 2.076526986859061, 50.819129469861366 ], [ 2.07658664819728, 50.819205250201364 ], [ 2.07734191597376, 50.819030154833818 ], [ 2.077882329195237, 50.818748594632197 ], [ 2.077846176303943, 50.818616989481484 ], [ 2.078647554531314, 50.81803552076363 ], [ 2.079633697883996, 50.817366838199675 ], [ 2.081185311263772, 50.816270683482131 ], [ 2.080411403410915, 50.816322996883649 ], [ 2.07987028718859, 50.816299663268929 ], [ 2.079331532125344, 50.816148069767252 ], [ 2.077379848029574, 50.815408816099662 ], [ 2.076765568786778, 50.815257673136671 ], [ 2.075761255468843, 50.8150832733171 ], [ 2.074180950403882, 50.814513657031036 ], [ 2.074144148747243, 50.814505254616556 ], [ 2.074157383371581, 50.81448499176954 ], [ 2.072645436137512, 50.814129647783332 ], [ 2.071969724223353, 50.814000427753143 ], [ 2.071493122336031, 50.813890706927126 ], [ 2.071299819750554, 50.813833737039779 ], [ 2.070941952542926, 50.813706688267558 ], [ 2.070525643599507, 50.813520110870314 ], [ 2.070106483428166, 50.813358936897885 ], [ 2.067387554644381, 50.812328212366886 ], [ 2.067352905205108, 50.812322483447339 ], [ 2.066417525794332, 50.811956483707711 ], [ 2.066355281849135, 50.811933633752631 ], [ 2.066138393189108, 50.811849281480839 ], [ 2.064772508757058, 50.811335385014274 ], [ 2.062421333762036, 50.810437644913385 ], [ 2.062179424570428, 50.81037726199385 ], [ 2.061977248379686, 50.810362506818741 ], [ 2.061708077589727, 50.810395998184724 ], [ 2.061466126821987, 50.810455040426 ], [ 2.061438354511119, 50.810470456901449 ], [ 2.061324138393024, 50.810487887124545 ], [ 2.060769193582176, 50.810433833100362 ], [ 2.059539540029685, 50.810032623708388 ], [ 2.058397378484711, 50.809714619136493 ], [ 2.058141463972419, 50.80961585279033 ], [ 2.057380836683747, 50.809396894605513 ], [ 2.056666867504651, 50.809198026234462 ], [ 2.056193099565479, 50.80898621775043 ], [ 2.056098332961249, 50.808969084721625 ], [ 2.055910734075398, 50.808879226659393 ], [ 2.054327212044182, 50.808416239915083 ], [ 2.053713037429232, 50.808098022700563 ], [ 2.052566475862596, 50.807472372603939 ], [ 2.052091732433824, 50.807173526985672 ], [ 2.051691216927381, 50.807112457641821 ], [ 2.051211077355097, 50.80709861177354 ], [ 2.050267175958536, 50.807141315209599 ], [ 2.049422203974276, 50.806879338753738 ], [ 2.049190045797523, 50.806837865687328 ], [ 2.048463337333331, 50.806862850550822 ], [ 2.047969688964601, 50.806800036885051 ], [ 2.04755387453228, 50.806699135369911 ], [ 2.046878748756181, 50.806379396177178 ], [ 2.046619491357657, 50.806240987331762 ], [ 2.047028882218429, 50.805920392156359 ], [ 2.047512991750985, 50.805640048899676 ], [ 2.048279846865603, 50.805107371769971 ], [ 2.04864189053268, 50.804825090172095 ], [ 2.049182371679948, 50.80478951352633 ], [ 2.049479224170138, 50.804723564965627 ], [ 2.050054250894828, 50.804562012409036 ], [ 2.050426627615145, 50.804495616250229 ], [ 2.05146383700712, 50.804444472768971 ], [ 2.052425992835897, 50.804455857889145 ], [ 2.053133425389819, 50.804427639485368 ], [ 2.053705267831554, 50.804431983562658 ], [ 2.054664071739662, 50.804449452440196 ], [ 2.057180374026693, 50.8046843281031 ], [ 2.058599199669228, 50.804930227174225 ], [ 2.059278677797268, 50.80493535876338 ], [ 2.060380758726154, 50.804766544321573 ], [ 2.061541835735695, 50.804708102988137 ], [ 2.062114445377053, 50.804671690314855 ], [ 2.063835704052291, 50.80438227019004 ], [ 2.064255204543118, 50.804286676005496 ], [ 2.065273579016523, 50.804382894267462 ], [ 2.065768862540819, 50.804444630813023 ], [ 2.066370480475925, 50.804489862996242 ], [ 2.067393624096931, 50.804330566520399 ], [ 2.069827893784908, 50.804054547213674 ], [ 2.070310419853198, 50.803851487109178 ], [ 2.070825243628438, 50.803640517040932 ], [ 2.071506706375532, 50.8035376816851 ], [ 2.072436280321434, 50.80348556176957 ], [ 2.073672807286831, 50.803426547277347 ], [ 2.074309299802218, 50.803413819771954 ], [ 2.07286548485007, 50.803041171370438 ], [ 2.069181598683111, 50.802335938561562 ], [ 2.065176208649856, 50.801301862717438 ], [ 2.062081675754133, 50.799408779467214 ], [ 2.05976701198189, 50.796943446194078 ], [ 2.057780818521841, 50.79365884980335 ], [ 2.055733842043391, 50.789759078066041 ], [ 2.053810467558198, 50.78688454440767 ], [ 2.051751853759198, 50.785034638768728 ], [ 2.04910863761068, 50.783634274921781 ], [ 2.046590675556287, 50.782931150759424 ], [ 2.044071277891005, 50.782473967047949 ], [ 2.041355885260726, 50.781354592319957 ], [ 2.040002943426493, 50.780531222836416 ], [ 2.039360101820165, 50.779914617940754 ], [ 2.038665370033484, 50.778237541169759 ], [ 2.039130558092799, 50.776229720651848 ], [ 2.040695420906527, 50.774142645851285 ], [ 2.0428400316849, 50.772384985094455 ], [ 2.044915064496471, 50.771406111106238 ], [ 2.046018203247159, 50.770752821669731 ], [ 2.045698433407218, 50.77017803883323 ], [ 2.04434648716078, 50.769231715641794 ], [ 2.043061769708215, 50.767875543248877 ], [ 2.042878931215884, 50.766071090774787 ], [ 2.043476139006116, 50.763571566484373 ], [ 2.042976653803848, 50.760700323154644 ], [ 2.040084387547202, 50.758028112375726 ], [ 2.03589331081855, 50.7563775449593 ], [ 2.031438746451312, 50.755546155120172 ], [ 2.027369209273725, 50.755166605842007 ], [ 2.02407076310444, 50.755485957596456 ], [ 2.021547070016057, 50.7559302803162 ], [ 2.020126203635396, 50.755762494345937 ], [ 2.018903344814176, 50.754980217466631 ], [ 2.016651364907383, 50.753457148027451 ], [ 2.013759066561542, 50.751071283363146 ], [ 2.010932241129944, 50.748603523246963 ], [ 2.008232974379953, 50.746423048921343 ], [ 2.006693117145502, 50.744819750997657 ], [ 2.007606832658055, 50.743510271765643 ], [ 2.0090393938382, 50.741915215364891 ], [ 2.009276498569153, 50.740799659467577 ], [ 2.00926896073853, 50.740152891028799 ], [ 2.00917301548734, 50.739973957261981 ], [ 2.009048319472539, 50.739708232816682 ], [ 2.008637024287764, 50.739329274193146 ], [ 2.00838030548172, 50.739086945329447 ], [ 2.007932744837053, 50.738594662041869 ], [ 2.00759919651552, 50.73818065627831 ], [ 2.007289032994573, 50.737721042799002 ], [ 2.00703506408174, 50.73742068405042 ], [ 2.006481840770475, 50.737080290344885 ], [ 2.005915677551741, 50.736828356385502 ], [ 2.00505946680217, 50.736719691996804 ], [ 2.00446262850424, 50.736638548166766 ], [ 2.004143410686966, 50.736553536083527 ], [ 2.003826833365304, 50.736418625031369 ], [ 2.003501798514759, 50.73614315905634 ], [ 2.003123965743272, 50.735537378286203 ], [ 2.003048718808732, 50.735288361320215 ], [ 2.003104098820848, 50.735004727930189 ], [ 2.003241201656216, 50.734725834830996 ], [ 2.003243615560305, 50.734523234064291 ], [ 2.003049916454662, 50.734261032130455 ], [ 2.002076951463144, 50.733410211102836 ], [ 2.001652279410635, 50.733146154519474 ], [ 2.00074082723641, 50.732752938634512 ], [ 2.000337050492067, 50.732406586018861 ], [ 2.000054521557051, 50.732093766513167 ], [ 1.999803773769917, 50.73163560740123 ], [ 1.999602025275445, 50.731214505230604 ], [ 1.999548234401068, 50.730935100563613 ], [ 1.998867826324496, 50.729982737238714 ], [ 1.99842934438281, 50.729447713277736 ], [ 1.998154861774819, 50.729134971457796 ], [ 1.997634713091038, 50.728592157453093 ], [ 1.997010322709141, 50.727889690423972 ], [ 1.996205872084108, 50.727127719010475 ], [ 1.994898711000706, 50.725930335815974 ], [ 1.99365224495465, 50.725102334739461 ], [ 1.991722466514371, 50.723989704271645 ], [ 1.990437483873582, 50.723042931606692 ], [ 1.989027881571231, 50.720755729585569 ], [ 1.988971251095988, 50.720689223098873 ], [ 1.988260213128942, 50.719839359528663 ], [ 1.988093674770059, 50.719666937942272 ], [ 1.988016348069929, 50.719525797958077 ], [ 1.987443878287087, 50.719122015562164 ], [ 1.986812792407448, 50.718685173089469 ], [ 1.986010976088217, 50.717886476908227 ], [ 1.985573294485503, 50.717323928875004 ], [ 1.985534914853513, 50.717159696925435 ], [ 1.98468829438466, 50.717070308392891 ], [ 1.982743092839404, 50.716823271708996 ], [ 1.982264890937063, 50.716757263626967 ], [ 1.981638015921258, 50.716747046733815 ], [ 1.980358572178941, 50.716729434970048 ], [ 1.979838723867071, 50.71672569897332 ], [ 1.978402275962789, 50.71726698890766 ], [ 1.975688287476816, 50.717463758629599 ], [ 1.974141117075233, 50.717090023809661 ], [ 1.973880181825949, 50.716660585677658 ], [ 1.972352055457483, 50.716904829397748 ], [ 1.971182581898603, 50.715981847733374 ], [ 1.970229196269842, 50.715237799273893 ], [ 1.969112033904219, 50.715127741425377 ], [ 1.968831413743597, 50.715086838696443 ], [ 1.968849477834786, 50.713779519230492 ], [ 1.968303307180336, 50.713668079003362 ], [ 1.967700433823081, 50.713484696091896 ], [ 1.967205335855158, 50.71325270843424 ], [ 1.966800318206378, 50.713087425843646 ], [ 1.965728423940883, 50.712393275981476 ], [ 1.965341903144623, 50.71200723123065 ], [ 1.965340666426557, 50.711988878100755 ], [ 1.964773878011062, 50.711324372125851 ], [ 1.964110584145939, 50.71059592044584 ], [ 1.963900114409391, 50.710149220020028 ], [ 1.963969709973023, 50.709731325066826 ], [ 1.96422378419897, 50.708998297212084 ], [ 1.964301735703104, 50.708174190950473 ], [ 1.964297148161349, 50.707387082726306 ], [ 1.964273585545074, 50.706587579377477 ], [ 1.964175612713121, 50.705508491451631 ], [ 1.964118525347959, 50.705191183451596 ], [ 1.961907049080251, 50.704177504128083 ], [ 1.958075724725511, 50.702762781812105 ], [ 1.955932801679746, 50.702200455519424 ], [ 1.954850947663546, 50.703699980915736 ], [ 1.9534603618202, 50.706133413715158 ], [ 1.951072279603336, 50.707859415718787 ], [ 1.950922451432489, 50.707996872642013 ], [ 1.9500934937674, 50.708529522622598 ], [ 1.949082626934955, 50.708942523782447 ], [ 1.947787280300664, 50.709538417659239 ], [ 1.947302280278414, 50.709878477492303 ], [ 1.946960498854998, 50.710041547899046 ], [ 1.946707465996669, 50.710254249821269 ], [ 1.945910732036676, 50.7107769510325 ], [ 1.945657883445118, 50.71098050049396 ], [ 1.945416468430402, 50.711479409935642 ], [ 1.945382623515747, 50.711716124292508 ], [ 1.945307943758931, 50.711988597423186 ], [ 1.945019785878167, 50.712460256021075 ], [ 1.944816360322128, 50.712719210894221 ], [ 1.94469293651946, 50.712864142050542 ], [ 1.944506218164637, 50.712984552823336 ], [ 1.944177954025229, 50.712874009023487 ], [ 1.944021795211258, 50.713054947085126 ], [ 1.943274582252758, 50.713506802096347 ], [ 1.942521834964813, 50.714067533567281 ], [ 1.941646820666877, 50.714418495371348 ], [ 1.940682033139089, 50.715146444589514 ], [ 1.941019584329451, 50.715565769605611 ], [ 1.93962666169899, 50.716060958707857 ], [ 1.938352967061289, 50.716528642281617 ], [ 1.939290174394946, 50.71733491539014 ], [ 1.93747752392102, 50.718182858584022 ], [ 1.937595591243229, 50.71828773078105 ], [ 1.936343131200015, 50.718772560118431 ], [ 1.936597655621133, 50.719053912320938 ], [ 1.936052278324942, 50.71921330706477 ], [ 1.934684067999046, 50.719746340402232 ], [ 1.935054738995088, 50.720175948727288 ], [ 1.935305601757062, 50.720085629940947 ], [ 1.935848953549117, 50.720613274839558 ], [ 1.934990133722323, 50.720946441267778 ], [ 1.934791804410853, 50.721015929406846 ], [ 1.933785575060026, 50.721268987293747 ], [ 1.932513046790322, 50.721522794006987 ], [ 1.931198340735109, 50.721647950388729 ], [ 1.929266832573757, 50.721739269250733 ], [ 1.928229535161109, 50.721867783549335 ], [ 1.92753262932409, 50.721978859238 ], [ 1.92681903245891, 50.722120344096844 ], [ 1.925732630977322, 50.722443931273617 ], [ 1.924828361831713, 50.722799600064008 ], [ 1.921850512884953, 50.72410562426299 ], [ 1.921685891893972, 50.723929064517684 ], [ 1.921468226544324, 50.723906812931105 ], [ 1.921145037590517, 50.723942696713799 ], [ 1.920538431618446, 50.724104417570089 ], [ 1.918133535300627, 50.723976613712459 ], [ 1.915233944399999, 50.723803721079989 ], [ 1.912458086846369, 50.723622691824282 ], [ 1.911301268611985, 50.723563692116592 ], [ 1.910868344304196, 50.723629146743171 ], [ 1.910587758528544, 50.723772286957882 ], [ 1.909716879014645, 50.724337925078601 ], [ 1.909662760771776, 50.724783279305328 ], [ 1.909011671904514, 50.726024996872724 ], [ 1.90815577092906, 50.727799139973214 ], [ 1.90774095639411, 50.729447926925609 ], [ 1.90776955724559, 50.730717480940328 ], [ 1.907316983376239, 50.732112237486405 ], [ 1.90618660057541, 50.733250642683394 ], [ 1.904417923714465, 50.73418359974341 ], [ 1.90228982098231, 50.735039047206193 ], [ 1.899842754009397, 50.735766337061328 ], [ 1.897716365957475, 50.736418597157559 ], [ 1.896912493395901, 50.736821841716619 ], [ 1.895869501119789, 50.737122636421446 ], [ 1.893946097056036, 50.737445527178537 ], [ 1.891344903665618, 50.737511954051726 ], [ 1.890538975502126, 50.737508924454502 ], [ 1.891152178303874, 50.738174852167148 ], [ 1.891926069939069, 50.738877160700788 ], [ 1.892967023822793, 50.74070996872063 ], [ 1.893406594157742, 50.741076352019924 ], [ 1.894350006306452, 50.741663049532541 ], [ 1.896243095565509, 50.742699050855173 ], [ 1.897677338320273, 50.743515081389724 ], [ 1.897888290323451, 50.743772514559055 ], [ 1.897867927336916, 50.743968847604457 ], [ 1.894966860076475, 50.743159126072321 ], [ 1.893032925649446, 50.742593143627623 ], [ 1.889501375250946, 50.741640237273657 ], [ 1.886953398852743, 50.740910867307477 ], [ 1.884189346939225, 50.740161163957247 ], [ 1.881367760669813, 50.739332507228525 ], [ 1.878944747201128, 50.738688319117493 ], [ 1.878533759588422, 50.738933689571112 ], [ 1.878533427930833, 50.738934326165072 ], [ 1.878271045382305, 50.739617203528788 ], [ 1.877978573833895, 50.740281466048593 ], [ 1.877962458546164, 50.740928876662736 ], [ 1.877686120645993, 50.741013469187969 ], [ 1.877940470262686, 50.741827755855859 ], [ 1.877731142652815, 50.742791724170111 ], [ 1.876843302697896, 50.743575340821501 ], [ 1.875756593148744, 50.744231233575555 ], [ 1.875387457287439, 50.744370898107164 ], [ 1.875009713945158, 50.744586982199422 ], [ 1.874039272404782, 50.745067930186451 ], [ 1.871336288101145, 50.745808095802012 ], [ 1.869692525248902, 50.746383864181382 ], [ 1.869369673627241, 50.746745128817366 ], [ 1.868601421700675, 50.747554542864165 ], [ 1.866955778123793, 50.748055814523518 ], [ 1.866758935101241, 50.748087453509036 ], [ 1.866330985331114, 50.748506546240876 ], [ 1.865799646573265, 50.748795954656217 ], [ 1.865053314227381, 50.749082379111101 ], [ 1.862970273965381, 50.749574492938315 ], [ 1.861077673421781, 50.749948152357646 ], [ 1.858981028320509, 50.7503993463082 ], [ 1.857196090008912, 50.750834005097161 ], [ 1.857147916467401, 50.750835605149945 ], [ 1.856915656579551, 50.750752789206892 ], [ 1.856602754285533, 50.750883305728138 ], [ 1.854431238514728, 50.751915439771103 ], [ 1.853500771620754, 50.752901817260152 ], [ 1.853089768752836, 50.753966471968994 ], [ 1.852198483293064, 50.755029164420769 ], [ 1.850828175173748, 50.755962945288395 ], [ 1.849299015149247, 50.756769113889888 ], [ 1.847291595960967, 50.757370180991138 ], [ 1.84532571857247, 50.757819053728547 ], [ 1.844360945568454, 50.758221274509097 ], [ 1.843997579431705, 50.75852443118437 ], [ 1.843993125168266, 50.758956021237481 ], [ 1.844308090420917, 50.759465103252694 ], [ 1.844260732113597, 50.760175790948452 ], [ 1.843849460847468, 50.761240409342726 ], [ 1.843556419635229, 50.762483237943592 ], [ 1.843700276621599, 50.764057933478526 ], [ 1.843605793673744, 50.765453916867031 ], [ 1.843034861073216, 50.766467088800781 ], [ 1.842742292080215, 50.767659136703294 ], [ 1.843047323676043, 50.769132944807325 ], [ 1.843992148504511, 50.770685574183226 ], [ 1.845295794062915, 50.7723920117826 ], [ 1.846360609105122, 50.773970504113031 ], [ 1.846793989148477, 50.774657783374828 ], [ 1.847188384277089, 50.775243345995094 ], [ 1.848058323196421, 50.776313246773917 ], [ 1.848687537413012, 50.777432927896292 ], [ 1.848635552628947, 50.778600582983557 ], [ 1.848702135732057, 50.779921055308698 ], [ 1.850085772359403, 50.78167853530028 ], [ 1.852230123647106, 50.783464492119883 ], [ 1.855456828563507, 50.785818878309293 ], [ 1.859833213100397, 50.788065172351352 ], [ 1.862543727111413, 50.789370829637974 ], [ 1.864653359080001, 50.790699424428823 ], [ 1.866844214783294, 50.791926748896437 ], [ 1.868959804779195, 50.792671359532704 ], [ 1.871314052485486, 50.793594584833336 ], [ 1.873746530416287, 50.794721172974832 ], [ 1.875975898948052, 50.796151579912539 ], [ 1.877765986940521, 50.797453305918943 ], [ 1.88060567034901, 50.798612859660984 ], [ 1.886347507303935, 50.799315194200439 ], [ 1.892219030301335, 50.798965421119647 ] ] ] ] } },
{ "type": "Feature", "properties": { "fid": 5, "ID_MNHN": "310013272", "ID_ORG": "00310000", "NOM": "La Vallée du Bléquin et les Vallées sèches adjacentes au Ruisseau d’Acquin", "GENERATION": 2 }, "geometry": { "type": "MultiPolygon", "coordinates": [ [ [ [ 2.009440016684821, 50.740030291508091 ], [ 2.008162153417539, 50.737935720745561 ], [ 2.005396447361207, 50.736123989932139 ], [ 2.003213541592431, 50.734149830047464 ], [ 2.001743452918502, 50.731890637673281 ], [ 1.999949931418241, 50.729712507288227 ], [ 1.997123914721586, 50.727408390039479 ], [ 1.994898711000706, 50.725930335815974 ], [ 1.996205872084108, 50.727127719010475 ], [ 1.997010322709141, 50.727889690423972 ], [ 1.997634713091038, 50.728592157453093 ], [ 1.998154861774819, 50.729134971457796 ], [ 1.99842934438281, 50.729447713277736 ], [ 1.998867826324496, 50.729982737238714 ], [ 1.999548234401068, 50.730935100563613 ], [ 1.999602025275445, 50.731214505230604 ], [ 1.999803773769917, 50.73163560740123 ], [ 2.000054521557051, 50.732093766513167 ], [ 2.000337050492067, 50.732406586018861 ], [ 2.00074082723641, 50.732752938634512 ], [ 2.001652279410635, 50.733146154519474 ], [ 2.002076951463144, 50.733410211102836 ], [ 2.003049916454662, 50.734261032130455 ], [ 2.003243615560305, 50.734523234064291 ], [ 2.003241201656216, 50.734725834830996 ], [ 2.003104098820848, 50.735004727930189 ], [ 2.003048718808732, 50.735288361320215 ], [ 2.003123965743272, 50.735537378286203 ], [ 2.003501798514759, 50.73614315905634 ], [ 2.003826833365304, 50.736418625031369 ], [ 2.004143410686966, 50.736553536083527 ], [ 2.00446262850424, 50.736638548166766 ], [ 2.00505946680217, 50.736719691996804 ], [ 2.005915677551741, 50.736828356385502 ], [ 2.006481840770475, 50.737080290344885 ], [ 2.00703506408174, 50.73742068405042 ], [ 2.007289032994573, 50.737721042799002 ], [ 2.00759919651552, 50.73818065627831 ], [ 2.007932744837053, 50.738594662041869 ], [ 2.00838030548172, 50.739086945329447 ], [ 2.008637024287764, 50.739329274193146 ], [ 2.009048319472539, 50.739708232816682 ], [ 2.00917301548734, 50.739973957261981 ], [ 2.00926896073853, 50.740152891028799 ], [ 2.009276498569153, 50.740799659467577 ], [ 2.009440016684821, 50.740030291508091 ] ] ], [ [ [ 1.988969235613653, 50.720660566392198 ], [ 1.988020194607308, 50.717951698463217 ], [ 1.986418854144283, 50.716142920534431 ], [ 1.983515464917722, 50.715765291024226 ], [ 1.980669060617738, 50.716412793966455 ], [ 1.979838723867071, 50.71672569897332 ], [ 1.980358572178941, 50.716729434970048 ], [ 1.981638015921258, 50.716747046733815 ], [ 1.982264890937063, 50.716757263626967 ], [ 1.982743092839404, 50.716823271708996 ], [ 1.98468829438466, 50.717070308392891 ], [ 1.985534914853513, 50.717159696925435 ], [ 1.985573294485503, 50.717323928875004 ], [ 1.986010976088217, 50.717886476908227 ], [ 1.986812792407448, 50.718685173089469 ], [ 1.987443878287087, 50.719122015562164 ], [ 1.988016348069929, 50.719525797958077 ], [ 1.988093674770059, 50.719666937942272 ], [ 1.988260213128942, 50.719839359528663 ], [ 1.988971251095988, 50.720689223098873 ], [ 1.989027881571231, 50.720755729585569 ], [ 1.988969235613653, 50.720660566392198 ] ] ], [ [ [ 1.973567051684474, 50.716145236211524 ], [ 1.97222212708672, 50.714665059421449 ], [ 1.970814279577923, 50.712979664731542 ], [ 1.969923121621321, 50.71129585191909 ], [ 1.969160223122778, 50.709735432989277 ], [ 1.968012804620641, 50.70780479824289 ], [ 1.965509901561644, 50.705828909728567 ], [ 1.964118525347959, 50.705191183451596 ], [ 1.964175612713121, 50.705508491451631 ], [ 1.964273585545074, 50.706587579377477 ], [ 1.964297148161349, 50.707387082726306 ], [ 1.964301735703104, 50.708174190950473 ], [ 1.96422378419897, 50.708998297212084 ], [ 1.963969709973023, 50.709731325066826 ], [ 1.963900114409391, 50.710149220020028 ], [ 1.964110584145939, 50.71059592044584 ], [ 1.964773878011062, 50.711324372125851 ], [ 1.965340666426557, 50.711988878100755 ], [ 1.965341903144623, 50.71200723123065 ], [ 1.965728423940883, 50.712393275981476 ], [ 1.966800318206378, 50.713087425843646 ], [ 1.967205335855158, 50.71325270843424 ], [ 1.967700433823081, 50.713484696091896 ], [ 1.968303307180336, 50.713668079003362 ], [ 1.968849477834786, 50.713779519230492 ], [ 1.968831413743597, 50.715086838696443 ], [ 1.969112033904219, 50.715127741425377 ], [ 1.970229196269842, 50.715237799273893 ], [ 1.971182581898603, 50.715981847733374 ], [ 1.972352055457483, 50.716904829397748 ], [ 1.973880181825949, 50.716660585677658 ], [ 1.973567051684474, 50.716145236211524 ] ] ] ] } }
]
}
